URL,No,Bank,State,City,Branch,Street,BSB
https://www.thebsbnumbers.com/anz-bank/page/1/,,,,,,,
https://www.thebsbnumbers.com/anz-bank/page/1/,1,ANZ Bank,ACT,Belconnen,Belconnen,Shop 136 Belconnen Mall,012-951
https://www.thebsbnumbers.com/anz-bank/page/1/,2,ANZ Bank,ACT,Canberra,Canberra Business Centre,6/15 Moore St,012-515
https://www.thebsbnumbers.com/anz-bank/page/1/,3,ANZ Bank,ACT,Canberra,Canberra Centre,Sh AG15 Canberra Cntre 148 Bunda St,012-084
https://www.thebsbnumbers.com/anz-bank/page/1/,4,ANZ Bank,ACT,Canberra,Canberra City,10 Moore St,012-950
https://www.thebsbnumbers.com/anz-bank/page/1/,5,ANZ Bank,ACT,Dickson,Dickson,3 Dickson Place,012-955
https://www.thebsbnumbers.com/anz-bank/page/1/,6,ANZ Bank,ACT,Fyshwick,Fyshwick,17 Wollongong Street,012-964
https://www.thebsbnumbers.com/anz-bank/page/1/,7,ANZ Bank,ACT,Gungahlin,Gungahlin,Sh 10-12 Gungalin Mark Hibberson St,012-936
https://www.thebsbnumbers.com/anz-bank/page/1/,8,ANZ Bank,ACT,Manuka,Manuka,33 Bougainville Street,012-984
https://www.thebsbnumbers.com/anz-bank/page/1/,9,ANZ Bank,ACT,Tuggeranong,Tuggeranong,Shop 54-55  Hyperdome Tuggeranong,012-983
https://www.thebsbnumbers.com/anz-bank/page/1/,10,ANZ Bank,ACT,Woden,Woden,Sh LG 43-44  Westfield Shpg Centre,012-997
https://www.thebsbnumbers.com/anz-bank/page/1/,11,ANZ Bank,NSW,Albion Park,Albion Park,144 Flinders Street,012-501
https://www.thebsbnumbers.com/anz-bank/page/1/,12,ANZ Bank,NSW,Albury,ANZ Albury,579 Dean Street,012-505
https://www.thebsbnumbers.com/anz-bank/page/1/,13,ANZ Bank,NSW,Alexandria,Alexandria,184 Bourke Road,012-204
https://www.thebsbnumbers.com/anz-bank/page/1/,,,,,,,
https://www.thebsbnumbers.com/anz-bank/page/1/,14,ANZ Bank,NSW,Armidale,Armidale,123 Beardy St,012-510
https://www.thebsbnumbers.com/anz-bank/page/1/,15,ANZ Bank,NSW,Armidale,Community Mutual Ltd,Suite 4 Madgwick Drive,012-766
https://www.thebsbnumbers.com/anz-bank/page/1/,16,ANZ Bank,NSW,Ashfield,Ashfield,224 Liverpool Road,012-215
https://www.thebsbnumbers.com/anz-bank/page/1/,17,ANZ Bank,NSW,Auburn,Auburn,28 Auburn Road,012-220
https://www.thebsbnumbers.com/anz-bank/page/1/,18,ANZ Bank,NSW,Avalon Beach,Avalon Beach,39 Avalon Parade,012-222
https://www.thebsbnumbers.com/anz-bank/page/1/,19,ANZ Bank,NSW,Balgowlah,Merged,Refer to BSB 012-330 09/12,012-225
https://www.thebsbnumbers.com/anz-bank/page/1/,20,ANZ Bank,NSW,Ballina,Ballina,162-164 River Street,012-528
https://www.thebsbnumbers.com/anz-bank/page/1/,21,ANZ Bank,NSW,Balmain,Balmain,291 Darling Street,012-227
https://www.thebsbnumbers.com/anz-bank/page/1/,22,ANZ Bank,NSW,Bankstown,Bankstown,40 Restwell Street,012-224
https://www.thebsbnumbers.com/anz-bank/page/1/,23,ANZ Bank,NSW,Bankstown,Bankstown,Shop P1  Bankstown Square,012-226
https://www.thebsbnumbers.com/anz-bank/page/1/,24,ANZ Bank,NSW,Bankstown,Corp & Inst Bkg Southern Region NSW,Level 1  40 Restwell Street,012-064
https://www.thebsbnumbers.com/anz-bank/page/1/,25,ANZ Bank,NSW,Bateau Bay,Bateau Bay,Shop 102 Bateau Bay Shop Centre,012-477
https://www.thebsbnumbers.com/anz-bank/page/1/,26,ANZ Bank,NSW,Bateau Bay,Merged,Refer to BSB 012-477 06/12,012-843
https://www.thebsbnumbers.com/anz-bank/page/1/,,,,,,,
https://www.thebsbnumbers.com/anz-bank/page/1/,27,ANZ Bank,NSW,Batemans Bay,Batemans Bay,22 Orient Street,012-517
https://www.thebsbnumbers.com/anz-bank/page/1/,28,ANZ Bank,NSW,Bathurst,Bathurst,78 William Street,012-520
https://www.thebsbnumbers.com/anz-bank/page/1/,29,ANZ Bank,NSW,Baulkham Hills,Baulkham Hills,Shop 31  375-383 Windsor Road,012-228
https://www.thebsbnumbers.com/anz-bank/page/1/,30,ANZ Bank,NSW,Baulkham Hills,Norwest,32 Lexington Drive,012-491
https://www.thebsbnumbers.com/anz-bank/page/1/,31,ANZ Bank,NSW,Bega,Bega,176 Carp Street,012-525
https://www.thebsbnumbers.com/anz-bank/page/1/,32,ANZ Bank,NSW,Belmont,Belmont,554A Pacific Highway,012-532
https://www.thebsbnumbers.com/anz-bank/page/1/,33,ANZ Bank,NSW,Belrose,Closed,Refer to BSB 012-298 05/09,012-212
https://www.thebsbnumbers.com/anz-bank/page/1/,34,ANZ Bank,NSW,Blacktown,Blacktown,65 Main Street,012-233
https://www.thebsbnumbers.com/anz-bank/page/1/,35,ANZ Bank,NSW,Blacktown,Blacktown Westpoint,Shop 1063 17 Patrick St,012-307
https://www.thebsbnumbers.com/anz-bank/page/1/,36,ANZ Bank,NSW,Bondi Beach,Bondi Beach,11 Hall Street,012-235
https://www.thebsbnumbers.com/anz-bank/page/1/,37,ANZ Bank,NSW,Bondi Junction,Bondi Junction,410 Oxford Street,012-241
https://www.thebsbnumbers.com/anz-bank/page/1/,,,,,,,
https://www.thebsbnumbers.com/anz-bank/page/1/,38,ANZ Bank,NSW,Bondi Junction,Bondi Westfield,Shop 1032-33 Lvl 1 500 Oxford St,012-332
https://www.thebsbnumbers.com/anz-bank/page/1/,39,ANZ Bank,NSW,Bondi Junction,Merged,Refer to BSB 012-241 06/12,012-362
https://www.thebsbnumbers.com/anz-bank/page/1/,40,ANZ Bank,NSW,Bowral,Bowral,293 Bong Bong Street,012-547
https://www.thebsbnumbers.com/anz-bank/page/1/,41,ANZ Bank,NSW,Broadway,Broadway,Shop G11  Bay & Grace Streets,012-030
https://www.thebsbnumbers.com/anz-bank/page/1/,42,ANZ Bank,NSW,Broken Hill,Broken Hill,357 Argent Street,012-551
https://www.thebsbnumbers.com/anz-bank/page/1/,43,ANZ Bank,NSW,Brookvale,Brookvale,668 Pittwater Road,012-243
https://www.thebsbnumbers.com/anz-bank/page/1/,44,ANZ Bank,NSW,Brookvale,Warringah Mall,Shop 97 Warringah Mall,012-217
https://www.thebsbnumbers.com/anz-bank/page/1/,45,ANZ Bank,NSW,Burwood,Burwood,212 Burwood Road,012-245
https://www.thebsbnumbers.com/anz-bank/page/1/,46,ANZ Bank,NSW,Burwood,Burwood Westfield,Shop 128 Lvl 1 100 Burwood Rd,012-339
https://www.thebsbnumbers.com/anz-bank/page/1/,47,ANZ Bank,NSW,Byron Bay,Byron Bay,57 Jonson Street,012-554
https://www.thebsbnumbers.com/anz-bank/page/1/,48,ANZ Bank,NSW,Cabramatta,Cabramatta,16 John Street,012-253
https://www.thebsbnumbers.com/anz-bank/page/1/,49,ANZ Bank,NSW,Camden,Camden,107 Argyle Street,012-559
https://www.thebsbnumbers.com/anz-bank/page/1/,50,ANZ Bank,NSW,Campbelltown,Campbelltown,Cnr Queen & Lithgow Streets,012-556
https://www.thebsbnumbers.com/anz-bank/page/2/,,,,,,,
https://www.thebsbnumbers.com/anz-bank/page/2/,51,ANZ Bank,NSW,Campbelltown,Macarthur Square,Shop L02  L015/L016 Macarthur Sq,012-209
https://www.thebsbnumbers.com/anz-bank/page/2/,52,ANZ Bank,NSW,Campsie,Campsie,230 Beamish Street,012-260
https://www.thebsbnumbers.com/anz-bank/page/2/,53,ANZ Bank,NSW,Caringbah,Caringbah,304 Kingsway,012-262
https://www.thebsbnumbers.com/anz-bank/page/2/,54,ANZ Bank,NSW,Carlingford,Carlingford,Sh 113 Carlingford Court Pennant Hi,012-445
https://www.thebsbnumbers.com/anz-bank/page/2/,55,ANZ Bank,NSW,Casino,Casino,108 Walker Street,012-567
https://www.thebsbnumbers.com/anz-bank/page/2/,56,ANZ Bank,NSW,Castle Hill,Castle Hill,"Shop 1, 1 Old Castle Hill Road",012-263
https://www.thebsbnumbers.com/anz-bank/page/2/,57,ANZ Bank,NSW,Castle Hill,SMC Pneumatics (Aust) P/L,(NBFI Agency to 012-000),012-993
https://www.thebsbnumbers.com/anz-bank/page/2/,58,ANZ Bank,NSW,Cessnock,Cessnock,149 Vincent Street,012-570
https://www.thebsbnumbers.com/anz-bank/page/2/,59,ANZ Bank,NSW,Charlestown,Charlestown,212 Pacific Highway,012-571
https://www.thebsbnumbers.com/anz-bank/page/2/,60,ANZ Bank,NSW,Chatswood,Chatswood,Shop B-048 345 Victoria Ave,012-344
https://www.thebsbnumbers.com/anz-bank/page/2/,61,ANZ Bank,NSW,Chatswood,Chatswood (382),382 Victoria Avenue,012-266
https://www.thebsbnumbers.com/anz-bank/page/2/,62,ANZ Bank,NSW,Chatswood,Closed,Refer to BSB 012-266 - 06/11,012-265
https://www.thebsbnumbers.com/anz-bank/page/2/,63,ANZ Bank,NSW,Chatswood,Corp Bank North Region,7/67 Albert Avenue,012-059
https://www.thebsbnumbers.com/anz-bank/page/2/,,,,,,,
https://www.thebsbnumbers.com/anz-bank/page/2/,64,ANZ Bank,NSW,Chatswood,The Smith's Snackfood CompanyPtyLtd,(NBFI Agency to 012-000),012-907
https://www.thebsbnumbers.com/anz-bank/page/2/,65,ANZ Bank,NSW,Cherrybrook,Cherrybrook,Shop 6&7 Cherrybrook Shopping Ctr,012-129
https://www.thebsbnumbers.com/anz-bank/page/2/,66,ANZ Bank,NSW,Chester Hill,Chester Hill,Shop 3  154-162 Waldron Road,012-268
https://www.thebsbnumbers.com/anz-bank/page/2/,67,ANZ Bank,NSW,Chipping Norton,Chipping Norton,Tenancy15 Cnr Barry Rd & Ernest Ave,012-087
https://www.thebsbnumbers.com/anz-bank/page/2/,68,ANZ Bank,NSW,Coffs Harbour,Coffs Harbour,Cnr Harbour Drive & Gordon Streets,012-572
https://www.thebsbnumbers.com/anz-bank/page/2/,69,ANZ Bank,NSW,Concord,NSW Government Service Centre,111 Parramatta Road,012-100
https://www.thebsbnumbers.com/anz-bank/page/2/,70,ANZ Bank,NSW,Concord,Transaction Processing Support Ctr,111 Parramatta Road,012-061
https://www.thebsbnumbers.com/anz-bank/page/2/,71,ANZ Bank,NSW,Concord,Transaction Processing Support Ctr,111 Parramatta Road,012-134
https://www.thebsbnumbers.com/anz-bank/page/2/,72,ANZ Bank,NSW,Cooma,Cooma,136 Sharp Street,012-575
https://www.thebsbnumbers.com/anz-bank/page/2/,73,ANZ Bank,NSW,Cootamundra,Cootamundra,257 Parker Street,012-585
https://www.thebsbnumbers.com/anz-bank/page/2/,74,ANZ Bank,NSW,Corowa,Corowa,115 Sanger Street,012-590
https://www.thebsbnumbers.com/anz-bank/page/2/,75,ANZ Bank,NSW,Corrimal,Corrimal,195 Princes Highway,012-593
https://www.thebsbnumbers.com/anz-bank/page/2/,76,ANZ Bank,NSW,Cowra,Cowra,Shop 9 Cowra Plaza 59 Kendal Street,012-595
https://www.thebsbnumbers.com/anz-bank/page/2/,,,,,,,
https://www.thebsbnumbers.com/anz-bank/page/2/,77,ANZ Bank,NSW,Cronulla,Cronulla,27 Cronulla Street,012-270
https://www.thebsbnumbers.com/anz-bank/page/2/,78,ANZ Bank,NSW,Crows Nest,Crows Nest,10 Willoughby Road,012-275
https://www.thebsbnumbers.com/anz-bank/page/2/,79,ANZ Bank,NSW,Dapto,Dapto,Cnr Princes Highway & Byamee Street,012-603
https://www.thebsbnumbers.com/anz-bank/page/2/,80,ANZ Bank,NSW,Darlinghurst,Darlinghurst,81 Oxford Street,012-140
https://www.thebsbnumbers.com/anz-bank/page/2/,81,ANZ Bank,NSW,Dee Why,Dee Why,882 Pittwater Road,012-280
https://www.thebsbnumbers.com/anz-bank/page/2/,82,ANZ Bank,NSW,Deniliquin,Deniliquin,321-325 George Street,012-605
https://www.thebsbnumbers.com/anz-bank/page/2/,83,ANZ Bank,NSW,Double Bay,Double Bay,11 Knox Street,012-281
https://www.thebsbnumbers.com/anz-bank/page/2/,84,ANZ Bank,NSW,Dubbo,Dubbo,99 Macquarie Street,012-615
https://www.thebsbnumbers.com/anz-bank/page/2/,85,ANZ Bank,NSW,Dural,Dural,506 Old Northern Road,012-321
https://www.thebsbnumbers.com/anz-bank/page/2/,86,ANZ Bank,NSW,Earlwood,Earlwood,325-327 Homer Street,012-286
https://www.thebsbnumbers.com/anz-bank/page/2/,87,ANZ Bank,NSW,Eastwood,Eastwood,168 Rowe Street,012-287
https://www.thebsbnumbers.com/anz-bank/page/2/,,,,,,,
https://www.thebsbnumbers.com/anz-bank/page/2/,88,ANZ Bank,NSW,Engadine,Engadine,1050 Old Princes Highway,012-299
https://www.thebsbnumbers.com/anz-bank/page/2/,89,ANZ Bank,NSW,Epping,Epping,32 Beecroft Road,012-290
https://www.thebsbnumbers.com/anz-bank/page/2/,90,ANZ Bank,NSW,Erina,Erina,Cnr Karalta & The Entrance Road,012-621
https://www.thebsbnumbers.com/anz-bank/page/2/,91,ANZ Bank,NSW,Erina Fair,Erina Fair,Shop 351 Erina Fair Shopping Centre,012-473
https://www.thebsbnumbers.com/anz-bank/page/2/,92,ANZ Bank,NSW,Fairfield,Fairfield,SHP 38 54 Smart Street,012-292
https://www.thebsbnumbers.com/anz-bank/page/2/,93,ANZ Bank,NSW,Figtree,Figtree,Shop 1  Westfield Shopping Ctr,012-622
https://www.thebsbnumbers.com/anz-bank/page/2/,94,ANZ Bank,NSW,Five Dock,Five Dock,88-90 Great North Road,012-291
https://www.thebsbnumbers.com/anz-bank/page/2/,95,ANZ Bank,NSW,Forbes,Forbes,Cnr Lachlan And Spring Streets,012-625
https://www.thebsbnumbers.com/anz-bank/page/2/,96,ANZ Bank,NSW,Forestville,Forestville,43A The Centre,012-289
https://www.thebsbnumbers.com/anz-bank/page/2/,97,ANZ Bank,NSW,Forster,Forster,55 Wharf Street,012-626
https://www.thebsbnumbers.com/anz-bank/page/2/,98,ANZ Bank,NSW,Frenchs Forest,Frenchs Forest,Shop 5  Forestway Shopping Centre,012-298
https://www.thebsbnumbers.com/anz-bank/page/2/,99,ANZ Bank,NSW,Gerringong,Gerringong,107 Fern Street,012-628
https://www.thebsbnumbers.com/anz-bank/page/2/,100,ANZ Bank,NSW,Gladesville,Ryde Area,200 Victoria Road,012-293
https://www.thebsbnumbers.com/anz-bank/page/3/,,,,,,,
https://www.thebsbnumbers.com/anz-bank/page/3/,101,ANZ Bank,NSW,Glen Innes,Glen Innes,217 Grey Street,012-630
https://www.thebsbnumbers.com/anz-bank/page/3/,102,ANZ Bank,NSW,Glendale,Glendale,Sh 50 Stockland Glendale387 Lake Rd,012-493
https://www.thebsbnumbers.com/anz-bank/page/3/,103,ANZ Bank,NSW,Glendale,Merged,Refer to BSB 012-493 02/16,012-563
https://www.thebsbnumbers.com/anz-bank/page/3/,104,ANZ Bank,NSW,Glenmore Park,Glenmore Park,33 Town Terrace  Glenmore Park T/C,012-098
https://www.thebsbnumbers.com/anz-bank/page/3/,105,ANZ Bank,NSW,Gordon,Gordon,775 Pacific Highway,012-294
https://www.thebsbnumbers.com/anz-bank/page/3/,106,ANZ Bank,NSW,Gosford,Gosford,160 Mann St,012-633
https://www.thebsbnumbers.com/anz-bank/page/3/,107,ANZ Bank,NSW,Goulburn,Goulburn,190 Auburn Street,012-635
https://www.thebsbnumbers.com/anz-bank/page/3/,108,ANZ Bank,NSW,Grafton,Grafton,Shp T23  52-74 Fitzroy Street,012-645
https://www.thebsbnumbers.com/anz-bank/page/3/,109,ANZ Bank,NSW,Grenfell,Grenfell,77 Main Street,012-655
https://www.thebsbnumbers.com/anz-bank/page/3/,110,ANZ Bank,NSW,Griffith,Griffith,202 Banna Avenue,012-657
https://www.thebsbnumbers.com/anz-bank/page/3/,111,ANZ Bank,NSW,Gunnedah,Gunnedah,Cnr Conadilly & Marquis Streets,012-665
https://www.thebsbnumbers.com/anz-bank/page/3/,112,ANZ Bank,NSW,Hamilton,Hamilton,109 Beaumont Street,012-670
https://www.thebsbnumbers.com/anz-bank/page/3/,113,ANZ Bank,NSW,Hay,Hay,104 Lachlan Street,012-675
https://www.thebsbnumbers.com/anz-bank/page/3/,,,,,,,
https://www.thebsbnumbers.com/anz-bank/page/3/,114,ANZ Bank,NSW,Horningsea Park,Carnes Hill,Cnr Cowpasture Rd & Greenway Dr,012-272
https://www.thebsbnumbers.com/anz-bank/page/3/,115,ANZ Bank,NSW,Hornsby,Hornsby,19 Hunter Street,012-306
https://www.thebsbnumbers.com/anz-bank/page/3/,116,ANZ Bank,NSW,Hornsby,Royal Wolf Trading Aust P/L,(NBFI Agency to 013-000),013-907
https://www.thebsbnumbers.com/anz-bank/page/3/,117,ANZ Bank,NSW,Hurstville,Hurstville,6 Cross Street,012-402
https://www.thebsbnumbers.com/anz-bank/page/3/,118,ANZ Bank,NSW,Huskisson,Huskisson,57 Owen Street,012-862
https://www.thebsbnumbers.com/anz-bank/page/3/,119,ANZ Bank,NSW,Inverell,Inverell,114 Byron Street,012-685
https://www.thebsbnumbers.com/anz-bank/page/3/,120,ANZ Bank,NSW,Jerilderie,Jerilderie,14 Jerilderie Street,012-695
https://www.thebsbnumbers.com/anz-bank/page/3/,121,ANZ Bank,NSW,Junee,Junee,97 Broadway,012-700
https://www.thebsbnumbers.com/anz-bank/page/3/,122,ANZ Bank,NSW,Katoomba,Katoomba,56 Katoomba Street,012-702
https://www.thebsbnumbers.com/anz-bank/page/3/,123,ANZ Bank,NSW,Kempsey,Kempsey,40 Smith Street,012-703
https://www.thebsbnumbers.com/anz-bank/page/3/,124,ANZ Bank,NSW,Kensington,University of NSW,Quadrangle Bldg  330 Anzac Parade,012-077
https://www.thebsbnumbers.com/anz-bank/page/3/,125,ANZ Bank,NSW,Kiama,Kiama,1/125 Terralong Street,012-709
https://www.thebsbnumbers.com/anz-bank/page/3/,126,ANZ Bank,NSW,Kingsford,Kingsford,337 Anzac Parade,012-303
https://www.thebsbnumbers.com/anz-bank/page/3/,,,,,,,
https://www.thebsbnumbers.com/anz-bank/page/3/,127,ANZ Bank,NSW,Kingsgrove,Kingsgrove,259 Kingsgrove Road,012-305
https://www.thebsbnumbers.com/anz-bank/page/3/,128,ANZ Bank,NSW,Kogarah,Kogarah,58-60 Railway Parade,012-310
https://www.thebsbnumbers.com/anz-bank/page/3/,129,ANZ Bank,NSW,Kotara,Kotara,1020-21 Cnr Northcott Dr Park Ave,012-672
https://www.thebsbnumbers.com/anz-bank/page/3/,130,ANZ Bank,NSW,Lake Haven,Lake Haven,Shop 38 Lake Haven Drive,012-877
https://www.thebsbnumbers.com/anz-bank/page/3/,131,ANZ Bank,NSW,Lakemba,Closed,Refer to BSB 012-397 06/09,012-313
https://www.thebsbnumbers.com/anz-bank/page/3/,132,ANZ Bank,NSW,Lane Cove,Lane Cove,17 Burns Bay Road,012-315
https://www.thebsbnumbers.com/anz-bank/page/3/,133,ANZ Bank,NSW,Laurieton,Laurieton,53 Bold Street,012-714
https://www.thebsbnumbers.com/anz-bank/page/3/,134,ANZ Bank,NSW,Lavington,Lavington,Shop 80 Centre Lavington,012-708
https://www.thebsbnumbers.com/anz-bank/page/3/,135,ANZ Bank,NSW,Leeton,Leeton,63 Pine Avenue,012-712
https://www.thebsbnumbers.com/anz-bank/page/3/,136,ANZ Bank,NSW,Leichhardt,Leichhardt,5 Leichhardt Market Place,012-205
https://www.thebsbnumbers.com/anz-bank/page/3/,137,ANZ Bank,NSW,Lindfield,Lindfield,306 Pacific Highway,012-323
https://www.thebsbnumbers.com/anz-bank/page/3/,,,,,,,
https://www.thebsbnumbers.com/anz-bank/page/3/,138,ANZ Bank,NSW,Lismore,Lismore,82 Woodlark Street,012-715
https://www.thebsbnumbers.com/anz-bank/page/3/,139,ANZ Bank,NSW,Lismore ,Merged,Refer to BSB 012-715 06/14,012-113
https://www.thebsbnumbers.com/anz-bank/page/3/,140,ANZ Bank,NSW,Lithgow,Lithgow,Cnr Main and Eskbank Streets,012-716
https://www.thebsbnumbers.com/anz-bank/page/3/,141,ANZ Bank,NSW,Liverpool,Liverpool,3 Liverpol Plz 165-191 Macquarie St,012-325
https://www.thebsbnumbers.com/anz-bank/page/3/,142,ANZ Bank,NSW,Macquarie Park,METCASH LIMITED,1 THOMAS HOLT DRIVE,012-994
https://www.thebsbnumbers.com/anz-bank/page/3/,143,ANZ Bank,NSW,Macquarie Park,METCASH LIMITED,1 THOMAS HOLT DRIVE,014-994
https://www.thebsbnumbers.com/anz-bank/page/3/,144,ANZ Bank,NSW,Maitland,Maitland,1/12 Elgin Street,012-720
https://www.thebsbnumbers.com/anz-bank/page/3/,145,ANZ Bank,NSW,Maitland,Maitland Mutual Building Soc Ltd,417 High St (example only),012-773
https://www.thebsbnumbers.com/anz-bank/page/3/,146,ANZ Bank,NSW,Manly,Manly,59 The Corso,012-330
https://www.thebsbnumbers.com/anz-bank/page/3/,147,ANZ Bank,NSW,Maroubra,Maroubra Junction,1/707-745 Anzac Parade,012-336
https://www.thebsbnumbers.com/anz-bank/page/3/,148,ANZ Bank,NSW,Marrickville,Marrickville Metro,Shop 2  34 Victoria Road,012-301
https://www.thebsbnumbers.com/anz-bank/page/3/,149,ANZ Bank,NSW,Marrickville,Merged,merging with 012-301,012-340
https://www.thebsbnumbers.com/anz-bank/page/3/,150,ANZ Bank,NSW,Mascot,ANZ Foreign Exchange Branch,Link Road,012-756
https://www.thebsbnumbers.com/anz-bank/page/4/,,,,,,,
https://www.thebsbnumbers.com/anz-bank/page/4/,151,ANZ Bank,NSW,Mascot,Mascot,1191 Botany Road,012-345
https://www.thebsbnumbers.com/anz-bank/page/4/,152,ANZ Bank,NSW,Mascot,Remondis Australia Pty Ltd,(NBFI Agency to 016-000),016-989
https://www.thebsbnumbers.com/anz-bank/page/4/,153,ANZ Bank,NSW,Menai,Menai,"Shop T40, Menai Marketplace",012-081
https://www.thebsbnumbers.com/anz-bank/page/4/,154,ANZ Bank,NSW,Merimbula,Merimbula,Shop 4  17 Merimbula Drive,012-601
https://www.thebsbnumbers.com/anz-bank/page/4/,155,ANZ Bank,NSW,Merrylands,Merrylands,StocklandMerrylandSC MacFarlane St,012-347
https://www.thebsbnumbers.com/anz-bank/page/4/,156,ANZ Bank,NSW,Minto,Minto,S12 Minto Marketplc 10Brookfield Rd,012-318
https://www.thebsbnumbers.com/anz-bank/page/4/,157,ANZ Bank,NSW,Miranda,Miranda,Shop 1084 & 1085 Westfield,012-341
https://www.thebsbnumbers.com/anz-bank/page/4/,158,ANZ Bank,NSW,Mittagong,Mittagong,Sh 24 Highlands Mkt Pl Old Hume Hwy,012-276
https://www.thebsbnumbers.com/anz-bank/page/4/,159,ANZ Bank,NSW,Mona Vale,Mona Vale,10-12 Bungan Street,012-349
https://www.thebsbnumbers.com/anz-bank/page/4/,160,ANZ Bank,NSW,Moorebank,Salmat Limited,(NBFI Agency to 014-000),014-987
https://www.thebsbnumbers.com/anz-bank/page/4/,161,ANZ Bank,NSW,Moree,Moree,84 Balo Street,012-735
https://www.thebsbnumbers.com/anz-bank/page/4/,162,ANZ Bank,NSW,Mortdale,Mortdale,37 Morts Road,012-372
https://www.thebsbnumbers.com/anz-bank/page/4/,163,ANZ Bank,NSW,Mosman,Mosman Junction,793 Military Road,012-351
https://www.thebsbnumbers.com/anz-bank/page/4/,,,,,,,
https://www.thebsbnumbers.com/anz-bank/page/4/,164,ANZ Bank,NSW,Moss Vale,Moss Vale,322-324 Argyle Street,012-739
https://www.thebsbnumbers.com/anz-bank/page/4/,165,ANZ Bank,NSW,Mount Druitt,Mount Druitt,Shop 179 Cnr Carlisle & Luxford Rd,012-464
https://www.thebsbnumbers.com/anz-bank/page/4/,166,ANZ Bank,NSW,Mudgee,Mudgee,52 Church Street,012-740
https://www.thebsbnumbers.com/anz-bank/page/4/,167,ANZ Bank,NSW,Mullumbimby,Mullumbimby,35 Burringbar Street,012-742
https://www.thebsbnumbers.com/anz-bank/page/4/,168,ANZ Bank,NSW,Murwillumbah,Murwillumbah,99 Main Street,012-745
https://www.thebsbnumbers.com/anz-bank/page/4/,169,ANZ Bank,NSW,Muswellbrook,Muswellbrook,84 Bridge Street,012-750
https://www.thebsbnumbers.com/anz-bank/page/4/,170,ANZ Bank,NSW,Nambucca Heads,Nambucca Heads,Cnr Ridge and Bowra Streets,012-754
https://www.thebsbnumbers.com/anz-bank/page/4/,171,ANZ Bank,NSW,Narellan,Narellan,Shop 3 Gateway Building Town Centre,012-514
https://www.thebsbnumbers.com/anz-bank/page/4/,172,ANZ Bank,NSW,Narellan,Narellan Business Centre,Shop 403-404 326 Camden Valley Way,012-158
https://www.thebsbnumbers.com/anz-bank/page/4/,173,ANZ Bank,NSW,Narooma,Narooma,137 Wagonga Street,012-502
https://www.thebsbnumbers.com/anz-bank/page/4/,174,ANZ Bank,NSW,Narrabri,Narrabri,137 Maitland Street,012-755
https://www.thebsbnumbers.com/anz-bank/page/4/,175,ANZ Bank,NSW,Narrandera,Merged,Refer to BSB 012-712 12/14,012-760
https://www.thebsbnumbers.com/anz-bank/page/4/,176,ANZ Bank,NSW,Narromine,Narromine,Cnr Dandaloo & Nymagee Street,012-765
https://www.thebsbnumbers.com/anz-bank/page/4/,,,,,,,
https://www.thebsbnumbers.com/anz-bank/page/4/,177,ANZ Bank,NSW,Neutral Bay,Neutral Bay,218 Military Road,012-352
https://www.thebsbnumbers.com/anz-bank/page/4/,178,ANZ Bank,NSW,New Lambton,New Lambton,Shops 3 And 4  50 Regent Street,012-782
https://www.thebsbnumbers.com/anz-bank/page/4/,179,ANZ Bank,NSW,Newcastle,Closed,Refer to BSB 012-780 05/12,012-770
https://www.thebsbnumbers.com/anz-bank/page/4/,180,ANZ Bank,NSW,Newcastle West,Newcastle West,490 King Street,012-780
https://www.thebsbnumbers.com/anz-bank/page/4/,181,ANZ Bank,NSW,Newington,Newington,4  Lot 13 Avenue of the Americas,012-357
https://www.thebsbnumbers.com/anz-bank/page/4/,182,ANZ Bank,NSW,Newport Beach,Merged,Refer to BSB 012-349 05/14,012-353
https://www.thebsbnumbers.com/anz-bank/page/4/,183,ANZ Bank,NSW,Newtown,Newtown,244 King Street,012-356
https://www.thebsbnumbers.com/anz-bank/page/4/,184,ANZ Bank,NSW,North Parramatta,North Parramatta,Grd Flr  Shop 4  426 Church Road,012-097
https://www.thebsbnumbers.com/anz-bank/page/4/,185,ANZ Bank,NSW,North Rocks,North Rocks,Shop 3  L1 328-336 North Rocks Rd,012-417
https://www.thebsbnumbers.com/anz-bank/page/4/,186,ANZ Bank,NSW,North Ryde,North Ryde,Shp 433 Macquarie S Ctr  Herring Rd,012-327
https://www.thebsbnumbers.com/anz-bank/page/4/,187,ANZ Bank,NSW,North Sydney,North Sydney (116),116 Miller Street,012-361
https://www.thebsbnumbers.com/anz-bank/page/4/,,,,,,,
https://www.thebsbnumbers.com/anz-bank/page/4/,188,ANZ Bank,NSW,North Sydney,North Sydney (53),53 Walker Street,012-366
https://www.thebsbnumbers.com/anz-bank/page/4/,189,ANZ Bank,NSW,North Sydney,TPC Business Bank Support,100 Pacific Hwy,012-052
https://www.thebsbnumbers.com/anz-bank/page/4/,190,ANZ Bank,NSW,North Sydney,TPC Lockbox Services,100 Pacific Hwy,012-149
https://www.thebsbnumbers.com/anz-bank/page/4/,191,ANZ Bank,NSW,North Sydney,Zurich Insurance Australia Ltd,(NBFI Agency to 012-000),012-908
https://www.thebsbnumbers.com/anz-bank/page/4/,192,ANZ Bank,NSW,Nowra,Nowra,98-100 Junction Street,012-787
https://www.thebsbnumbers.com/anz-bank/page/4/,193,ANZ Bank,NSW,Orange,NSW Central West - CACHE,1/120 Summer St,012-555
https://www.thebsbnumbers.com/anz-bank/page/4/,194,ANZ Bank,NSW,Orange,Orange,210 Summer Street,012-790
https://www.thebsbnumbers.com/anz-bank/page/4/,195,ANZ Bank,NSW,Padstow,Merged,Refer to BSB 012-257 10/12,012-363
https://www.thebsbnumbers.com/anz-bank/page/4/,196,ANZ Bank,NSW,Pagewood,Eastgardens,Shp 172  East Gardens Shoppingtown,012-201
https://www.thebsbnumbers.com/anz-bank/page/4/,197,ANZ Bank,NSW,Panania,Closed,Refer to BSB 012-257 05/09,012-364
https://www.thebsbnumbers.com/anz-bank/page/4/,198,ANZ Bank,NSW,Parkes,Parkes,211 Clarinda Street,012-800
https://www.thebsbnumbers.com/anz-bank/page/4/,199,ANZ Bank,NSW,Parramatta,Bus Banking Western Region,L4/20 Smith Street,012-216
https://www.thebsbnumbers.com/anz-bank/page/4/,200,ANZ Bank,NSW,Parramatta,Corporate Banking ACT/NSW Prov,4/20 Smith Street,012-513
https://www.thebsbnumbers.com/anz-bank/page/5/,,,,,,,
https://www.thebsbnumbers.com/anz-bank/page/5/,201,ANZ Bank,NSW,Parramatta,Esanda,20 Smith St,012-138
https://www.thebsbnumbers.com/anz-bank/page/5/,202,ANZ Bank,NSW,Parramatta,Esanda NSW,20 Smith Street,012-009
https://www.thebsbnumbers.com/anz-bank/page/5/,203,ANZ Bank,NSW,Parramatta,FCA NSW,20 Smith Street,012-196
https://www.thebsbnumbers.com/anz-bank/page/5/,204,ANZ Bank,NSW,Parramatta,Parramatta,219 Church Street,012-370
https://www.thebsbnumbers.com/anz-bank/page/5/,205,ANZ Bank,NSW,Parramatta,Parramatta,W'Field S/C Cnr Church & Argyle Sts,012-437
https://www.thebsbnumbers.com/anz-bank/page/5/,206,ANZ Bank,NSW,Parramatta,Parramatta Home Loan Centre,159-175 Church St,012-083
https://www.thebsbnumbers.com/anz-bank/page/5/,207,ANZ Bank,NSW,Parramatta,Syd. N & W Zone,Fl 5  Cnr Smith And George Sts,012-044
https://www.thebsbnumbers.com/anz-bank/page/5/,208,ANZ Bank,NSW,Parramatta,Voucher Processing Srvcs NSW,111 Concord Road,012-005
https://www.thebsbnumbers.com/anz-bank/page/5/,209,ANZ Bank,NSW,Pennant Hills,Pennant Hills,3 Hillcrest Road,012-373
https://www.thebsbnumbers.com/anz-bank/page/5/,210,ANZ Bank,NSW,Penrith,Penrith,"Penrith Centre, 504-532 High Street",012-429
https://www.thebsbnumbers.com/anz-bank/page/5/,211,ANZ Bank,NSW,Penrith,Penrith Westfield,Shop 1-047 Henry St,012-433
https://www.thebsbnumbers.com/anz-bank/page/5/,212,ANZ Bank,NSW,Plumpton,Plumpton,Cnr Hyatts & Jersey Road,012-492
https://www.thebsbnumbers.com/anz-bank/page/5/,213,ANZ Bank,NSW,Port Macquarie,Port Macquarie,49 Horton Street,012-804
https://www.thebsbnumbers.com/anz-bank/page/5/,,,,,,,
https://www.thebsbnumbers.com/anz-bank/page/5/,214,ANZ Bank,NSW,Port Macquarie,Port Macquarie,Sh 9-10 West Port Village Oxley Hwy,012-111
https://www.thebsbnumbers.com/anz-bank/page/5/,215,ANZ Bank,NSW,Pyrmont,Seven Network (Operations) Limited,(NBFI Agency to 013-000),013-995
https://www.thebsbnumbers.com/anz-bank/page/5/,216,ANZ Bank,NSW,Queanbeyan,Queanbeyan,73 Monaro St,012-812
https://www.thebsbnumbers.com/anz-bank/page/5/,217,ANZ Bank,NSW,Randwick,Randwick,12-14 Belmore Road,012-390
https://www.thebsbnumbers.com/anz-bank/page/5/,218,ANZ Bank,NSW,Raymond Terrace,Raymond Terrace,19 William Street,012-821
https://www.thebsbnumbers.com/anz-bank/page/5/,219,ANZ Bank,NSW,Revesby,Revesby,Sh 3-5 Palm S/C 23-35 Selems Parade,012-257
https://www.thebsbnumbers.com/anz-bank/page/5/,220,ANZ Bank,NSW,Rhodes,Rhodes,Shop 55  1 Rhodes Shopping Centre,012-475
https://www.thebsbnumbers.com/anz-bank/page/5/,221,ANZ Bank,NSW,Richmond,Richmond,SHP 4&5 Windsor Street,012-822
https://www.thebsbnumbers.com/anz-bank/page/5/,222,ANZ Bank,NSW,Rockdale,Rockdale,481 Princes Highway,012-395
https://www.thebsbnumbers.com/anz-bank/page/5/,223,ANZ Bank,NSW,Rose Bay,Rose Bay,720 New South Head Road,012-396
https://www.thebsbnumbers.com/anz-bank/page/5/,224,ANZ Bank,NSW,Roselands,Roselands,Shop G  49 Shopping Centre,012-397
https://www.thebsbnumbers.com/anz-bank/page/5/,225,ANZ Bank,NSW,Rouse Hill,Rouse Hill,54/55 Rouse Hill TC Windsor Rd,012-246
https://www.thebsbnumbers.com/anz-bank/page/5/,226,ANZ Bank,NSW,Ryde,Closed,Refer to BSB 012-256 08/07,012-434
https://www.thebsbnumbers.com/anz-bank/page/5/,,,,,,,
https://www.thebsbnumbers.com/anz-bank/page/5/,227,ANZ Bank,NSW,Ryde,Top Ryde Branch,Sh C3005 Cnr Blaxland Rd&Devlin St,012-295
https://www.thebsbnumbers.com/anz-bank/page/5/,228,ANZ Bank,NSW,Salamander Bay,Salamander Bay,Shop 26  2 Town Circuit,012-767
https://www.thebsbnumbers.com/anz-bank/page/5/,229,ANZ Bank,NSW,Scone,Scone,Scone Village Shopping Centre,012-522
https://www.thebsbnumbers.com/anz-bank/page/5/,230,ANZ Bank,NSW,Seven Hills,Seven Hills,Shp 51 224 Prospect Hwy,012-410
https://www.thebsbnumbers.com/anz-bank/page/5/,231,ANZ Bank,NSW,Shellharbour,Shellharbour,211 Lake Entrance Rd,012-827
https://www.thebsbnumbers.com/anz-bank/page/5/,232,ANZ Bank,NSW,Singleton,Singleton,126 John Street,012-819
https://www.thebsbnumbers.com/anz-bank/page/5/,233,ANZ Bank,NSW,Springwood,Springwood,166-168 Macquarie Road,012-836
https://www.thebsbnumbers.com/anz-bank/page/5/,234,ANZ Bank,NSW,St Ives,St Ives,St Ives Vge S/C 166 Mona Vale Road,012-403
https://www.thebsbnumbers.com/anz-bank/page/5/,235,ANZ Bank,NSW,St Leonards,St Leonards,207B Pacific Highway,012-405
https://www.thebsbnumbers.com/anz-bank/page/5/,236,ANZ Bank,NSW,St Marys,St Marys,72 Queen Street,012-408
https://www.thebsbnumbers.com/anz-bank/page/5/,237,ANZ Bank,NSW,Strathfield,Strathfield,6 The Boulevarde,012-401
https://www.thebsbnumbers.com/anz-bank/page/5/,,,,,,,
https://www.thebsbnumbers.com/anz-bank/page/5/,238,ANZ Bank,NSW,Surry Hills,Surry Hills,543 Crown Street,012-487
https://www.thebsbnumbers.com/anz-bank/page/5/,239,ANZ Bank,NSW,Sutherland,Sutherland,748 Princes Highway,012-430
https://www.thebsbnumbers.com/anz-bank/page/5/,240,ANZ Bank,NSW,Sydney,115 Pitt St Sydney,115 Pitt St,012-003
https://www.thebsbnumbers.com/anz-bank/page/5/,241,ANZ Bank,NSW,Sydney,242 Pitt St,242 Pitt St,012-013
https://www.thebsbnumbers.com/anz-bank/page/5/,242,ANZ Bank,NSW,Sydney,388 George Street Branch,388 George Street,012-006
https://www.thebsbnumbers.com/anz-bank/page/5/,243,ANZ Bank,NSW,Sydney,640 George St,Ground Floor 640 George Street,012-142
https://www.thebsbnumbers.com/anz-bank/page/5/,244,ANZ Bank,NSW,Sydney,Agri/Property,8/20 Martin Place,012-640
https://www.thebsbnumbers.com/anz-bank/page/5/,245,ANZ Bank,NSW,Sydney,Agricultural Bank of China,(NBFI Agency to 016-000),016-988
https://www.thebsbnumbers.com/anz-bank/page/5/,246,ANZ Bank,NSW,Sydney,Alinta Servo Pty Ltd,(NBFI Agency to 015-000),015-992
https://www.thebsbnumbers.com/anz-bank/page/5/,247,ANZ Bank,NSW,Sydney,ANZ CMTS,Level 8  20 Martin Place,012-902
https://www.thebsbnumbers.com/anz-bank/page/5/,248,ANZ Bank,NSW,Sydney,ANZ Private Bank,6/20 Martin Place,012-606
https://www.thebsbnumbers.com/anz-bank/page/5/,249,ANZ Bank,NSW,Sydney,ANZ Smart Choice,242 Pitt Street,012-614
https://www.thebsbnumbers.com/anz-bank/page/5/,250,ANZ Bank,NSW,Sydney,Bank of Amercia National Ass,L63 MLC Centre 19-29 Martin Place,012-777
https://www.thebsbnumbers.com/anz-bank/page/6/,,,,,,,
https://www.thebsbnumbers.com/anz-bank/page/6/,251,ANZ Bank,NSW,Sydney,Barrack & Clarence Sts,2 Barrack Street,012-251
https://www.thebsbnumbers.com/anz-bank/page/6/,252,ANZ Bank,NSW,Sydney,Bathurst & Castlereagh Sts,203 Castlereagh St,012-010
https://www.thebsbnumbers.com/anz-bank/page/6/,253,ANZ Bank,NSW,Sydney,Bureau de Change,20 Martin Place,012-674
https://www.thebsbnumbers.com/anz-bank/page/6/,254,ANZ Bank,NSW,Sydney,Bureau de Change,96 Pitt Street,012-746
https://www.thebsbnumbers.com/anz-bank/page/6/,255,ANZ Bank,NSW,Sydney,Bus Bank NSW Admin,12/20 Martin Place,012-043
https://www.thebsbnumbers.com/anz-bank/page/6/,256,ANZ Bank,NSW,Sydney,Business Services,8/20 Martin Place,012-641
https://www.thebsbnumbers.com/anz-bank/page/6/,257,ANZ Bank,NSW,Sydney,Chifley Square,1 Chifley Sq Cn Hunter&Elizabeth St,012-019
https://www.thebsbnumbers.com/anz-bank/page/6/,258,ANZ Bank,NSW,Sydney,China Construction Bank,Level 33  126 Phillip Street,012-906
https://www.thebsbnumbers.com/anz-bank/page/6/,259,ANZ Bank,NSW,Sydney,Chinatown,665 George St,012-071
https://www.thebsbnumbers.com/anz-bank/page/6/,260,ANZ Bank,NSW,Sydney,CMTS NSW,8/20 Martin Place,012-117
https://www.thebsbnumbers.com/anz-bank/page/6/,261,ANZ Bank,NSW,Sydney,Columbus Capital,(NBFI Agency to 012-000),012-989
https://www.thebsbnumbers.com/anz-bank/page/6/,262,ANZ Bank,NSW,Sydney,Corp Banking Region,Level 12  20 Martin Place,012-016
https://www.thebsbnumbers.com/anz-bank/page/6/,263,ANZ Bank,NSW,Sydney,Corporate & Structured Finance,2/20 Martin Place,012-076
https://www.thebsbnumbers.com/anz-bank/page/6/,,,,,,,
https://www.thebsbnumbers.com/anz-bank/page/6/,264,ANZ Bank,NSW,Sydney,Corporate & Structured Finance,2/20 Martin Place,012-078
https://www.thebsbnumbers.com/anz-bank/page/6/,265,ANZ Bank,NSW,Sydney,Corporate Affairs NSW/QLD,18/20 Martin Place,012-607
https://www.thebsbnumbers.com/anz-bank/page/6/,266,ANZ Bank,NSW,Sydney,Credit Suisse Sydney Branch,31/1 Macquarie Place,015-995
https://www.thebsbnumbers.com/anz-bank/page/6/,267,ANZ Bank,NSW,Sydney,DEXUS Property Services Pty Ltd,(NBFI Agency to 014-000),014-989
https://www.thebsbnumbers.com/anz-bank/page/6/,268,ANZ Bank,NSW,Sydney,E.Sun Commercial Bank Ltd,(NBFI Agency to 013-000),013-939
https://www.thebsbnumbers.com/anz-bank/page/6/,269,ANZ Bank,NSW,Sydney,Esanda,20 Martin Place,012-103
https://www.thebsbnumbers.com/anz-bank/page/6/,270,ANZ Bank,NSW,Sydney,Esanda,20 Martin Place,012-105
https://www.thebsbnumbers.com/anz-bank/page/6/,271,ANZ Bank,NSW,Sydney,Financial Institutions & Government,8/20 Martin Place,012-629
https://www.thebsbnumbers.com/anz-bank/page/6/,272,ANZ Bank,NSW,Sydney,Group Credit Management,18/68 Pitt Street,012-058
https://www.thebsbnumbers.com/anz-bank/page/6/,273,ANZ Bank,NSW,Sydney,Hua Nan Commercial Bank,Suite 603  60 Carrington Street,012-992
https://www.thebsbnumbers.com/anz-bank/page/6/,274,ANZ Bank,NSW,Sydney,International Services,4/20 Martin Place,012-092
https://www.thebsbnumbers.com/anz-bank/page/6/,275,ANZ Bank,NSW,Sydney,Lending Services-Commercial,Level 4/32 Martin Place,012-753
https://www.thebsbnumbers.com/anz-bank/page/6/,276,ANZ Bank,NSW,Sydney,Manufacturing,8/20 Martin Place,012-509
https://www.thebsbnumbers.com/anz-bank/page/6/,,,,,,,
https://www.thebsbnumbers.com/anz-bank/page/6/,277,ANZ Bank,NSW,Sydney,Markets - NSW,2/20 Martin Place,012-033
https://www.thebsbnumbers.com/anz-bank/page/6/,278,ANZ Bank,NSW,Sydney,Martin Place,Ground Floor  20 Martin Place,012-055
https://www.thebsbnumbers.com/anz-bank/page/6/,279,ANZ Bank,NSW,Sydney,Martin Place Business Centre,Ground Floor  20 Martin Place,012-192
https://www.thebsbnumbers.com/anz-bank/page/6/,280,ANZ Bank,NSW,Sydney,Media & Telecommunications,8/20 Martin Place,012-596
https://www.thebsbnumbers.com/anz-bank/page/6/,281,ANZ Bank,NSW,Sydney,Mercury ACT,Level 15  1 Market Street,012-887
https://www.thebsbnumbers.com/anz-bank/page/6/,282,ANZ Bank,NSW,Sydney,Mercury NSW,Level 15  1 Market Street,012-888
https://www.thebsbnumbers.com/anz-bank/page/6/,283,ANZ Bank,NSW,Sydney,Mercury NT,Level 15  1 Market Street,015-587
https://www.thebsbnumbers.com/anz-bank/page/6/,284,ANZ Bank,NSW,Sydney,Mercury Qld,Level 15  1 Market Street,014-888
https://www.thebsbnumbers.com/anz-bank/page/6/,285,ANZ Bank,NSW,Sydney,Mercury SA,Level 15  1 Market Street,015-588
https://www.thebsbnumbers.com/anz-bank/page/6/,286,ANZ Bank,NSW,Sydney,Mercury Tas,Level 15  1 Market Street,017-888
https://www.thebsbnumbers.com/anz-bank/page/6/,287,ANZ Bank,NSW,Sydney,Mercury Vic,Level 15  1 Market Street,013-888
https://www.thebsbnumbers.com/anz-bank/page/6/,,,,,,,
https://www.thebsbnumbers.com/anz-bank/page/6/,288,ANZ Bank,NSW,Sydney,Mercury WA,Level 15  1 Market Street,016-888
https://www.thebsbnumbers.com/anz-bank/page/6/,289,ANZ Bank,NSW,Sydney,Merged,Refer to BSB 012-006 06/13,012-040
https://www.thebsbnumbers.com/anz-bank/page/6/,290,ANZ Bank,NSW,Sydney,OFI 1,115 Pitt St,013-641
https://www.thebsbnumbers.com/anz-bank/page/6/,291,ANZ Bank,NSW,Sydney,OFI 2,115 Pitt St,013-629
https://www.thebsbnumbers.com/anz-bank/page/6/,292,ANZ Bank,NSW,Sydney,OnePath Funds Management,(NBFI Agency to 015-000),015-906
https://www.thebsbnumbers.com/anz-bank/page/6/,293,ANZ Bank,NSW,Sydney,OnePath Life Limited,(NBFI Agency to 012-000),012-911
https://www.thebsbnumbers.com/anz-bank/page/6/,294,ANZ Bank,NSW,Sydney,OnePath Life Limited,Level 12  68 Pitt St,012-023
https://www.thebsbnumbers.com/anz-bank/page/6/,295,ANZ Bank,NSW,Sydney,Onesteel Trading Ltd,(NBFI Agency to 012-000),012-987
https://www.thebsbnumbers.com/anz-bank/page/6/,296,ANZ Bank,NSW,Sydney,PayClear Services Pty Ltd,(NBFI Agency to 013-000),013-987
https://www.thebsbnumbers.com/anz-bank/page/6/,297,ANZ Bank,NSW,Sydney,PayClear Services Pty Ltd,(NBFI Agency to 016-000),016-907
https://www.thebsbnumbers.com/anz-bank/page/6/,298,ANZ Bank,NSW,Sydney,PCF NSW Corporate,9/20 Martin Place,012-806
https://www.thebsbnumbers.com/anz-bank/page/6/,299,ANZ Bank,NSW,Sydney,PCF NSW Residential,15/20 Martin Place,012-808
https://www.thebsbnumbers.com/anz-bank/page/6/,300,ANZ Bank,NSW,Sydney,Relationship Banking Northern,7/20 Martin Place,012-037
https://www.thebsbnumbers.com/anz-bank/page/7/,,,,,,,
https://www.thebsbnumbers.com/anz-bank/page/7/,301,ANZ Bank,NSW,Sydney,Resources NSW,8/20 Martin Place,012-568
https://www.thebsbnumbers.com/anz-bank/page/7/,302,ANZ Bank,NSW,Sydney,Retail & Distribution,8/20 Martin Place,012-540
https://www.thebsbnumbers.com/anz-bank/page/7/,303,ANZ Bank,NSW,Sydney,Shinhan Bank Co Ltd,(NBFI Agency to 012-000),012-905
https://www.thebsbnumbers.com/anz-bank/page/7/,304,ANZ Bank,NSW,Sydney,State Securities Centre NSW,20/1 Market Street,012-135
https://www.thebsbnumbers.com/anz-bank/page/7/,305,ANZ Bank,NSW,Sydney,Strategic Finance Origination,Level 15/20 Martin Place,012-116
https://www.thebsbnumbers.com/anz-bank/page/7/,306,ANZ Bank,NSW,Sydney,Sydney (37 Pitt Street),37 Pitt Street,012-110
https://www.thebsbnumbers.com/anz-bank/page/7/,307,ANZ Bank,NSW,Sydney,Sydney CBD & Southern Zone,King & George Sts,012-045
https://www.thebsbnumbers.com/anz-bank/page/7/,308,ANZ Bank,NSW,Sydney,Sydney CBD North,Level 7  10 Bridge St,012-017
https://www.thebsbnumbers.com/anz-bank/page/7/,309,ANZ Bank,NSW,Sydney,Sydney CBD South Business ctr,16/1 Market St,012-255
https://www.thebsbnumbers.com/anz-bank/page/7/,310,ANZ Bank,NSW,Sydney,SydneyYork and Market St,Corner York And Market Streets,012-172
https://www.thebsbnumbers.com/anz-bank/page/7/,311,ANZ Bank,NSW,Sydney,Taiwan Cooperative Bank Ltd,Suit 101  Level 1  50 Carrington St,012-990
https://www.thebsbnumbers.com/anz-bank/page/7/,312,ANZ Bank,NSW,Sydney,Total Risk Management Pty Ltd,(NBFI Agency to 014-000),014-906
https://www.thebsbnumbers.com/anz-bank/page/7/,313,ANZ Bank,NSW,Sydney,Total Risk Management Pty Ltd,(NBFI Agency to 014-000),014-988
https://www.thebsbnumbers.com/anz-bank/page/7/,,,,,,,
https://www.thebsbnumbers.com/anz-bank/page/7/,314,ANZ Bank,NSW,Sydney,Utilities,8/20 Martin Place,012-164
https://www.thebsbnumbers.com/anz-bank/page/7/,315,ANZ Bank,NSW,Sydney,Woori Bank,"Suite 25.03, 25/363 George Street",015-989
https://www.thebsbnumbers.com/anz-bank/page/7/,316,ANZ Bank,NSW,Sydney ,ANZ Smart Choice,115 Pitt Street,012-002
https://www.thebsbnumbers.com/anz-bank/page/7/,317,ANZ Bank,NSW,Sydney Markets,Sydney Markets,Shop 2 250-318 Parramatta Rd,012-432
https://www.thebsbnumbers.com/anz-bank/page/7/,318,ANZ Bank,NSW,Tahmoor,Merged,Refer to BSB 012-559 08/14,012-484
https://www.thebsbnumbers.com/anz-bank/page/7/,319,ANZ Bank,NSW,Tamworth,Tamworth,479 Peel Street,012-830
https://www.thebsbnumbers.com/anz-bank/page/7/,320,ANZ Bank,NSW,Taree,Taree,61 Manning St,012-834
https://www.thebsbnumbers.com/anz-bank/page/7/,321,ANZ Bank,NSW,Temora,Temora,165 Hoskins Street,012-840
https://www.thebsbnumbers.com/anz-bank/page/7/,322,ANZ Bank,NSW,Thirroul,Thirroul,Cnr King St & Lawrence Hargrave Dr,012-482
https://www.thebsbnumbers.com/anz-bank/page/7/,323,ANZ Bank,NSW,Toormina,Toormina,Shp 39N 5 Toormina Road,012-848
https://www.thebsbnumbers.com/anz-bank/page/7/,324,ANZ Bank,NSW,Toronto,Toronto,54 The Boulevarde,012-842
https://www.thebsbnumbers.com/anz-bank/page/7/,325,ANZ Bank,NSW,Toukley,Merged,Refer to BSB 012-877 06/14,012-847
https://www.thebsbnumbers.com/anz-bank/page/7/,326,ANZ Bank,NSW,Tuggerah,Tuggerah,Shop 2055 Cnr Cobbs & Gavenlock Rds,012-623
https://www.thebsbnumbers.com/anz-bank/page/7/,,,,,,,
https://www.thebsbnumbers.com/anz-bank/page/7/,327,ANZ Bank,NSW,Tumut,Tumut,Cnr Wynyard & Russell Streets,012-855
https://www.thebsbnumbers.com/anz-bank/page/7/,328,ANZ Bank,NSW,Tweed Heads South,Merged,Refer to BSB 012-820 02/16,012-096
https://www.thebsbnumbers.com/anz-bank/page/7/,329,ANZ Bank,NSW,Tweed Heads South,Tweed Heads South,Shop 4  Tweed City Shopping Centre,012-820
https://www.thebsbnumbers.com/anz-bank/page/7/,330,ANZ Bank,NSW,Ulladulla,Ulladulla,Shop 2  113 Princes Hwy,012-851
https://www.thebsbnumbers.com/anz-bank/page/7/,331,ANZ Bank,NSW,Wagga Wagga,Closed,Refer to BSB 012-823 07/09,012-650
https://www.thebsbnumbers.com/anz-bank/page/7/,332,ANZ Bank,NSW,Wagga Wagga South,Wagga Wagga South,98-100 Baylis Street,012-823
https://www.thebsbnumbers.com/anz-bank/page/7/,333,ANZ Bank,NSW,Warrawong,Warrawong,Shop 8  55 King St (Cnr Cowper St),012-863
https://www.thebsbnumbers.com/anz-bank/page/7/,334,ANZ Bank,NSW,Waterloo,Branded Financial Services P/L,(NBFI Agency to 012-000),012-986
https://www.thebsbnumbers.com/anz-bank/page/7/,335,ANZ Bank,NSW,Wauchope,Wauchope,43 High Street,012-864
https://www.thebsbnumbers.com/anz-bank/page/7/,336,ANZ Bank,NSW,Wee Waa,Wee Waa,91 Rose Street,012-865
https://www.thebsbnumbers.com/anz-bank/page/7/,337,ANZ Bank,NSW,Wentworthville,Wentworthville,61 Dunmore Street,012-463
https://www.thebsbnumbers.com/anz-bank/page/7/,,,,,,,
https://www.thebsbnumbers.com/anz-bank/page/7/,338,ANZ Bank,NSW,West Ryde ,Merged,Refer to BSB 012-295 08/14,012-256
https://www.thebsbnumbers.com/anz-bank/page/7/,339,ANZ Bank,NSW,Wetherill Park,Wetherill Park,239 Stockland 561-583 Polding St,012-468
https://www.thebsbnumbers.com/anz-bank/page/7/,340,ANZ Bank,NSW,Willoughby North,Willoughby North,147-149 Victoria Avenue,012-474
https://www.thebsbnumbers.com/anz-bank/page/7/,341,ANZ Bank,NSW,Windsor,Windsor,215 George Street,012-874
https://www.thebsbnumbers.com/anz-bank/page/7/,342,ANZ Bank,NSW,Winston Hills,Winston Hills Mall,Shp 4 Caroline Chisholm Dr,012-478
https://www.thebsbnumbers.com/anz-bank/page/7/,343,ANZ Bank,NSW,Wollongong,Wollongong,96 Crown Street,012-878
https://www.thebsbnumbers.com/anz-bank/page/7/,344,ANZ Bank,NSW,Woy Woy,Woy Woy,Shop 2  Peninsula Plaza Shpg Ctr,012-881
https://www.thebsbnumbers.com/anz-bank/page/7/,345,ANZ Bank,NSW,Yamba,Yamba,Shp 4  Yamba Shpgworld Yamba Street,012-889
https://www.thebsbnumbers.com/anz-bank/page/7/,346,ANZ Bank,NSW,Young,Young,147 Boorowa Street,012-900
https://www.thebsbnumbers.com/anz-bank/page/7/,347,ANZ Bank,NT,Alice Springs,Alice Springs,Cnr Parson & Todd Streets,015-881
https://www.thebsbnumbers.com/anz-bank/page/7/,348,ANZ Bank,NT,Alyangula,Groote Eylandt,Bougainvillea Dr,015-030
https://www.thebsbnumbers.com/anz-bank/page/7/,349,ANZ Bank,NT,Casuarina,Casuarina,"GD260A Casuarina Sq, 247 Trower Rd",015-883
https://www.thebsbnumbers.com/anz-bank/page/7/,350,ANZ Bank,NT,Darwin,Darwin,69 Smith Street,015-901
https://www.thebsbnumbers.com/anz-bank/page/8/,,,,,,,
https://www.thebsbnumbers.com/anz-bank/page/8/,351,ANZ Bank,NT,Katherine,Katherine,40 Katherine Terrace,015-884
https://www.thebsbnumbers.com/anz-bank/page/8/,352,ANZ Bank,NT,Palmerston,Palmerston,The Boulevard & Palmerston Circuit,015-891
https://www.thebsbnumbers.com/anz-bank/page/8/,353,ANZ Bank,NT,Parap,Merged,Refer to BSB 015-901 02/14,015-886
https://www.thebsbnumbers.com/anz-bank/page/8/,354,ANZ Bank,NT,Tennant Creek,Tennant Creek,Paterson Street,015-889
https://www.thebsbnumbers.com/anz-bank/page/8/,355,ANZ Bank,NT,Winnellie,Winnellie,Cnr Albatross & Catterthun Sts,015-896
https://www.thebsbnumbers.com/anz-bank/page/8/,356,ANZ Bank,NT,Yulara,Yulara,Yulara Village,015-027
https://www.thebsbnumbers.com/anz-bank/page/8/,357,ANZ Bank,QLD,Acacia Ridge,Acacia Ridge,Cnr Beaudesert & Kerry Roads,014-202
https://www.thebsbnumbers.com/anz-bank/page/8/,358,ANZ Bank,QLD,Acacia Ridge,Corp Bkg Queensland South,Cnr Beaudesert & Kerry Road,014-080
https://www.thebsbnumbers.com/anz-bank/page/8/,359,ANZ Bank,QLD,Aitkenvale,Aitkenvale,"Shop 213, Stockland Townsville",014-490
https://www.thebsbnumbers.com/anz-bank/page/8/,360,ANZ Bank,QLD,Aitkenvale,Branch Securities,298 Ross River Road,014-001
https://www.thebsbnumbers.com/anz-bank/page/8/,361,ANZ Bank,QLD,Ashgrove,Ashgrove,237 Waterworks Road,014-210
https://www.thebsbnumbers.com/anz-bank/page/8/,362,ANZ Bank,QLD,Ashmore,Ashmore,Cnr Currumburra & Nerang Rds,014-527
https://www.thebsbnumbers.com/anz-bank/page/8/,363,ANZ Bank,QLD,Aspley,Aspley,S16 HyperMarket  59 Albany Creek Rd,014-209
https://www.thebsbnumbers.com/anz-bank/page/8/,,,,,,,
https://www.thebsbnumbers.com/anz-bank/page/8/,364,ANZ Bank,QLD,Aspley,Merged,Refer to BSB 014-209 02/16,014-201
https://www.thebsbnumbers.com/anz-bank/page/8/,365,ANZ Bank,QLD,Atherton,Atherton,Cnr Main and Vernon Streets,014-503
https://www.thebsbnumbers.com/anz-bank/page/8/,366,ANZ Bank,QLD,Ayr,Ayr,154 Queen Street,014-500
https://www.thebsbnumbers.com/anz-bank/page/8/,367,ANZ Bank,QLD,Beaudesert,Beaudesert,Cnr William and Anna Streets,014-509
https://www.thebsbnumbers.com/anz-bank/page/8/,368,ANZ Bank,QLD,Beenleigh,Beenleigh,Shop 46A-47 Beenleigh Market Place,014-506
https://www.thebsbnumbers.com/anz-bank/page/8/,369,ANZ Bank,QLD,Beerwah,Beerwah,66 Simpson Street,014-507
https://www.thebsbnumbers.com/anz-bank/page/8/,370,ANZ Bank,QLD,Bellara,Bribie Island,Shp 1 Benabrow Ave & Eucalypt St,014-508
https://www.thebsbnumbers.com/anz-bank/page/8/,371,ANZ Bank,QLD,Benowa,Benowa Gardens,Cnr Ashmore and Benowa Rds,014-526
https://www.thebsbnumbers.com/anz-bank/page/8/,372,ANZ Bank,QLD,Biloela,Biloela,Cnr Kariboe and Melton Street,014-510
https://www.thebsbnumbers.com/anz-bank/page/8/,373,ANZ Bank,QLD,Birtinya,Lake Kawana,G01&G03 Inv Hse8 Innovation Parkway,014-306
https://www.thebsbnumbers.com/anz-bank/page/8/,374,ANZ Bank,QLD,Blackwater,Blackwater,Town Centre Blain Street,014-511
https://www.thebsbnumbers.com/anz-bank/page/8/,375,ANZ Bank,QLD,Bowen,Bowen,36 Powell Street,014-504
https://www.thebsbnumbers.com/anz-bank/page/8/,376,ANZ Bank,QLD,Brisbane,ANZ Funds Management,21/324 Queen Street,014-016
https://www.thebsbnumbers.com/anz-bank/page/8/,,,,,,,
https://www.thebsbnumbers.com/anz-bank/page/8/,377,ANZ Bank,QLD,Brisbane,ANZ Leasing (Esanda),19/324 Queen Street,014-138
https://www.thebsbnumbers.com/anz-bank/page/8/,378,ANZ Bank,QLD,Brisbane,ANZ Private Bank,25/324 Queen Street,014-606
https://www.thebsbnumbers.com/anz-bank/page/8/,379,ANZ Bank,QLD,Brisbane,Brisbane Bureau de Change,146 Queen Street Mall,014-046
https://www.thebsbnumbers.com/anz-bank/page/8/,380,ANZ Bank,QLD,Brisbane,Brisbane Gold Coast Zone,25/324 Queen Street,014-017
https://www.thebsbnumbers.com/anz-bank/page/8/,381,ANZ Bank,QLD,Brisbane,CB Richard Ellis,(NBFI Agency to 016-000),016-911
https://www.thebsbnumbers.com/anz-bank/page/8/,382,ANZ Bank,QLD,Brisbane,CB Richard Ellis (C) Pty Ltd,(NBFI Agency to 014-000),014-991
https://www.thebsbnumbers.com/anz-bank/page/8/,383,ANZ Bank,QLD,Brisbane,CB Richard Ellis (V) Pty Ltd,(NBFI Agency to 013-000),013-906
https://www.thebsbnumbers.com/anz-bank/page/8/,384,ANZ Bank,QLD,Brisbane,CB Richard Ellis Pty Ltd,(NBFI Agency to 012-000),012-985
https://www.thebsbnumbers.com/anz-bank/page/8/,385,ANZ Bank,QLD,Brisbane,Corp Bank - Brisbane,"Level 3, 324 Queen Street",014-044
https://www.thebsbnumbers.com/anz-bank/page/8/,386,ANZ Bank,QLD,Brisbane,Corporate Banking-Provincial Region,Level 3  324 Queen Street,014-114
https://www.thebsbnumbers.com/anz-bank/page/8/,387,ANZ Bank,QLD,Brisbane,Eagle St,123 Eagle St,014-015
https://www.thebsbnumbers.com/anz-bank/page/8/,,,,,,,
https://www.thebsbnumbers.com/anz-bank/page/8/,388,ANZ Bank,QLD,Brisbane,Esanda,324 Queen Street,014-103
https://www.thebsbnumbers.com/anz-bank/page/8/,389,ANZ Bank,QLD,Brisbane,Esanda QLD Region,324 Queen Street,014-009
https://www.thebsbnumbers.com/anz-bank/page/8/,390,ANZ Bank,QLD,Brisbane,FCA QLD Region,324 Queen Street,014-196
https://www.thebsbnumbers.com/anz-bank/page/8/,391,ANZ Bank,QLD,Brisbane,Financial Inst/Govt Qld,Level 3  324 Queen Street,014-629
https://www.thebsbnumbers.com/anz-bank/page/8/,392,ANZ Bank,QLD,Brisbane,First Commercial Bank Ltd,M Floor M  199 George Street,015-990
https://www.thebsbnumbers.com/anz-bank/page/8/,393,ANZ Bank,QLD,Brisbane,Group Credit Management,22/324 Queen Street,014-026
https://www.thebsbnumbers.com/anz-bank/page/8/,394,ANZ Bank,QLD,Brisbane,Lending Services Commercial,7/324 Queen St,014-913
https://www.thebsbnumbers.com/anz-bank/page/8/,395,ANZ Bank,QLD,Brisbane,Lending Services-Commercial,Level 7/324 Queen St,014-753
https://www.thebsbnumbers.com/anz-bank/page/8/,396,ANZ Bank,QLD,Brisbane,Markets Division,8/324 Queen Street,014-033
https://www.thebsbnumbers.com/anz-bank/page/8/,397,ANZ Bank,QLD,Brisbane,Merged,Refer to BSB 014-002 05/14,014-195
https://www.thebsbnumbers.com/anz-bank/page/8/,398,ANZ Bank,QLD,Brisbane,MICE QLD,8/324 Queen Street,014-029
https://www.thebsbnumbers.com/anz-bank/page/8/,399,ANZ Bank,QLD,Brisbane,Mortgages Docs & Settlement QLD,Level 2  324 Queen Street,014-040
https://www.thebsbnumbers.com/anz-bank/page/8/,400,ANZ Bank,QLD,Brisbane,On George,414 George Street,014-043
https://www.thebsbnumbers.com/anz-bank/page/9/,,,,,,,
https://www.thebsbnumbers.com/anz-bank/page/9/,401,ANZ Bank,QLD,Brisbane,Property and Construction Finance,20/324 Queen Street,014-808
https://www.thebsbnumbers.com/anz-bank/page/9/,402,ANZ Bank,QLD,Brisbane,Qld Country Zone,1/324 Queen Street,014-185
https://www.thebsbnumbers.com/anz-bank/page/9/,403,ANZ Bank,QLD,Brisbane,Queen and Creek Sts,324 Queen Street (Cnr Creek St),014-002
https://www.thebsbnumbers.com/anz-bank/page/9/,404,ANZ Bank,QLD,Brisbane,Queen Street Mall,146 Queen Street,014-010
https://www.thebsbnumbers.com/anz-bank/page/9/,405,ANZ Bank,QLD,Brisbane,Suncorp-Metway Ltd,36 Wickham Tce,014-764
https://www.thebsbnumbers.com/anz-bank/page/9/,406,ANZ Bank,QLD,Brisbane,Trade Services Delivery,7/324 Queen Street,014-032
https://www.thebsbnumbers.com/anz-bank/page/9/,407,ANZ Bank,QLD,Brisbane,Wholsale Banking ACT,1/324 Queen St,012-974
https://www.thebsbnumbers.com/anz-bank/page/9/,408,ANZ Bank,QLD,Brisbane,Wholsale Banking NSW,1/324 Queen St,012-074
https://www.thebsbnumbers.com/anz-bank/page/9/,409,ANZ Bank,QLD,Brisbane,Wholsale Banking NT,1/324 Queen St,015-974
https://www.thebsbnumbers.com/anz-bank/page/9/,410,ANZ Bank,QLD,Brisbane,Wholsale Banking QLD,1/324 Queen St,014-074
https://www.thebsbnumbers.com/anz-bank/page/9/,411,ANZ Bank,QLD,Brisbane,Wholsale Banking SA,1/324 Queen St,015-074
https://www.thebsbnumbers.com/anz-bank/page/9/,412,ANZ Bank,QLD,Brisbane,Wholsale Banking TAS,1/324 Queen St,017-074
https://www.thebsbnumbers.com/anz-bank/page/9/,413,ANZ Bank,QLD,Brisbane,Wholsale Banking VIC,1/324 Queen St,013-574
https://www.thebsbnumbers.com/anz-bank/page/9/,,,,,,,
https://www.thebsbnumbers.com/anz-bank/page/9/,414,ANZ Bank,QLD,Brisbane,Wholsale Banking WA,1/324 Queen St,016-076
https://www.thebsbnumbers.com/anz-bank/page/9/,415,ANZ Bank,QLD,Brisbane City,Chubb,Refer BSB 014-001,014-614
https://www.thebsbnumbers.com/anz-bank/page/9/,416,ANZ Bank,QLD,Broadbeach,Broadbeach,Pacific Fair S/C  Gold Coast Hwy,014-688
https://www.thebsbnumbers.com/anz-bank/page/9/,417,ANZ Bank,QLD,Broadbeach,Broadbeach,"Tenancy 1E 09-11, 4 Charles Ave",014-513
https://www.thebsbnumbers.com/anz-bank/page/9/,418,ANZ Bank,QLD,Broadbeach,Southern Cross Austereo,(NBFI Agency to 015-000),015-909
https://www.thebsbnumbers.com/anz-bank/page/9/,419,ANZ Bank,QLD,Broadbeach,Southern Cross Austereo,(NBFI Agency to 016-000),016-993
https://www.thebsbnumbers.com/anz-bank/page/9/,420,ANZ Bank,QLD,Browns Plains,Browns Plains,Browns Plains Rd & Grand Plaza Dve,014-215
https://www.thebsbnumbers.com/anz-bank/page/9/,421,ANZ Bank,QLD,Buddina,Kawana Waters,Shop 300 119 Point Cartwright Drive,014-616
https://www.thebsbnumbers.com/anz-bank/page/9/,422,ANZ Bank,QLD,Buderim,Buderim,40 Burnett Street,014-512
https://www.thebsbnumbers.com/anz-bank/page/9/,423,ANZ Bank,QLD,Bundaberg,Bundaberg,64 Bourbong Street,014-515
https://www.thebsbnumbers.com/anz-bank/page/9/,424,ANZ Bank,QLD,Bundaberg,Bundaberg West,12 Heidke Street,014-522
https://www.thebsbnumbers.com/anz-bank/page/9/,425,ANZ Bank,QLD,Bundall,Merged,Refer to BSB 014-704 06/14,014-518
https://www.thebsbnumbers.com/anz-bank/page/9/,426,ANZ Bank,QLD,Burpengary,Burpengary,Sh8 Bpg Ctrl S/C 164-168 Station Rd,014-524
https://www.thebsbnumbers.com/anz-bank/page/9/,,,,,,,
https://www.thebsbnumbers.com/anz-bank/page/9/,427,ANZ Bank,QLD,Caboolture,Merged,Refer to BSB 014-305 06/14,014-520
https://www.thebsbnumbers.com/anz-bank/page/9/,428,ANZ Bank,QLD,Cairns,Cairns Central,Shp 41 Cnr McLeod & Spence Sts,014-538
https://www.thebsbnumbers.com/anz-bank/page/9/,429,ANZ Bank,QLD,Cairns,Cairns Square,42-58 Abbott Street,014-734
https://www.thebsbnumbers.com/anz-bank/page/9/,430,ANZ Bank,QLD,Caloundra,Caloundra,55 Bulcock Street,014-531
https://www.thebsbnumbers.com/anz-bank/page/9/,431,ANZ Bank,QLD,Cannonvale,Airlie Beach,Shop 32 Whitsunday Shpg Centre,014-502
https://www.thebsbnumbers.com/anz-bank/page/9/,432,ANZ Bank,QLD,Capalaba,Capalaba,38-62 Moreton Bay Rd,014-218
https://www.thebsbnumbers.com/anz-bank/page/9/,433,ANZ Bank,QLD,Carindale,Carindale,Creek & Old Cleveland Roads,014-221
https://www.thebsbnumbers.com/anz-bank/page/9/,434,ANZ Bank,QLD,Charters Towers,Charters Towers,40 Gill St,014-535
https://www.thebsbnumbers.com/anz-bank/page/9/,435,ANZ Bank,QLD,Chermside,Chermside Branch,Shop 176  Westfield Shoppingtown,014-219
https://www.thebsbnumbers.com/anz-bank/page/9/,436,ANZ Bank,QLD,Childers,Childers,52 Churchill Street,014-540
https://www.thebsbnumbers.com/anz-bank/page/9/,437,ANZ Bank,QLD,Chinchilla,Chinchilla,Cnr Heeney and Bell Streets,014-545
https://www.thebsbnumbers.com/anz-bank/page/9/,,,,,,,
https://www.thebsbnumbers.com/anz-bank/page/9/,438,ANZ Bank,QLD,Clermont,Clermont,Cnr Capella & Daintree Sts,014-550
https://www.thebsbnumbers.com/anz-bank/page/9/,439,ANZ Bank,QLD,Cleveland,Cleveland,111 Bloomfield Street,014-231
https://www.thebsbnumbers.com/anz-bank/page/9/,440,ANZ Bank,QLD,Cooktown,Cooktown,115 Charlotte Street,014-303
https://www.thebsbnumbers.com/anz-bank/page/9/,441,ANZ Bank,QLD,Coolangatta,Coolangatta,44 Griffith Street,014-555
https://www.thebsbnumbers.com/anz-bank/page/9/,442,ANZ Bank,QLD,Coolum Beach,Coolum Beach,Cnr David Low Way & Birtwill Street,014-556
https://www.thebsbnumbers.com/anz-bank/page/9/,443,ANZ Bank,QLD,Coomera,,76-84 Waterway Drive,014-301
https://www.thebsbnumbers.com/anz-bank/page/9/,444,ANZ Bank,QLD,Coopers Plains,Wanless Enviro Services P/L,(NBFI Agency to 015-000),015-985
https://www.thebsbnumbers.com/anz-bank/page/9/,445,ANZ Bank,QLD,Cooroy,Cooroy,Cnr Maple and Emerald Streets,014-557
https://www.thebsbnumbers.com/anz-bank/page/9/,446,ANZ Bank,QLD,Dalby,Dalby,81 Cunningham Street,014-570
https://www.thebsbnumbers.com/anz-bank/page/9/,447,ANZ Bank,QLD,Dysart,Merged,Refer to BSB 014-662 10/12,014-568
https://www.thebsbnumbers.com/anz-bank/page/9/,448,ANZ Bank,QLD,Eagle Farm,DHL Express (Australia) Pty Ltd,(NBFI Agency to 012-000),012-903
https://www.thebsbnumbers.com/anz-bank/page/9/,449,ANZ Bank,QLD,Earlville,Earlville,467 Mulgrave Road,014-577
https://www.thebsbnumbers.com/anz-bank/page/9/,450,ANZ Bank,QLD,Elanora,The Pines Elanora,Shop 69 The Pines Shopping Centre,014-636
https://www.thebsbnumbers.com/anz-bank/page/10/,,,,,,,
https://www.thebsbnumbers.com/anz-bank/page/10/,451,ANZ Bank,QLD,Emerald,Emerald,1 Anakie Street,014-572
https://www.thebsbnumbers.com/anz-bank/page/10/,452,ANZ Bank,QLD,Everton Park,Everton Park,793 Stafford Road,014-234
https://www.thebsbnumbers.com/anz-bank/page/10/,453,ANZ Bank,QLD,Fortitude Valley,Cohort Solutions Pty Ltd,5/269 Wickham St,015-988
https://www.thebsbnumbers.com/anz-bank/page/10/,454,ANZ Bank,QLD,Fortitude Valley,Fortitude Valley,"The Arcade, 315 Brunswick St",014-240
https://www.thebsbnumbers.com/anz-bank/page/10/,455,ANZ Bank,QLD,Gatton,Gatton,44 Railway Street,014-589
https://www.thebsbnumbers.com/anz-bank/page/10/,456,ANZ Bank,QLD,Gayndah,Gayndah,51 Capper Street,014-575
https://www.thebsbnumbers.com/anz-bank/page/10/,457,ANZ Bank,QLD,Gladstone,Gladstone,86 Goondoon Street,014-580
https://www.thebsbnumbers.com/anz-bank/page/10/,458,ANZ Bank,QLD,Goodna,Goodna,19 Queen Street,014-257
https://www.thebsbnumbers.com/anz-bank/page/10/,459,ANZ Bank,QLD,Goondiwindi,Goondiwindi,74 Marshall Street,014-583
https://www.thebsbnumbers.com/anz-bank/page/10/,460,ANZ Bank,QLD,Gympie,Gympie,Mary & Smithfields Streets,014-585
https://www.thebsbnumbers.com/anz-bank/page/10/,461,ANZ Bank,QLD,Hamilton,Hamilton,115-117 Racecourse Road,014-247
https://www.thebsbnumbers.com/anz-bank/page/10/,462,ANZ Bank,QLD,Helensvale,Helensvale,Shop 1111 Westfield Helensvale,014-596
https://www.thebsbnumbers.com/anz-bank/page/10/,463,ANZ Bank,QLD,Helensvale,Merged,Refer to BSB 014-596 06/12,014-310
https://www.thebsbnumbers.com/anz-bank/page/10/,,,,,,,
https://www.thebsbnumbers.com/anz-bank/page/10/,464,ANZ Bank,QLD,Hermit Park,Hermit Park,195-197 Charters Towers Road,014-592
https://www.thebsbnumbers.com/anz-bank/page/10/,465,ANZ Bank,QLD,Highfields,Highfields,Highfields Plaza S/C  Plaza Circle,014-312
https://www.thebsbnumbers.com/anz-bank/page/10/,466,ANZ Bank,QLD,Home Hill,Merged,Refer to BSB 014-500 12/11,014-595
https://www.thebsbnumbers.com/anz-bank/page/10/,467,ANZ Bank,QLD,Hughenden,Hughenden,Cnr Brodie and Gray Streets,014-600
https://www.thebsbnumbers.com/anz-bank/page/10/,468,ANZ Bank,QLD,Indooroopilly,Indooroopilly,322 Moggill Road,014-018
https://www.thebsbnumbers.com/anz-bank/page/10/,469,ANZ Bank,QLD,Indooroopilly,Merged,Refer to BSB 014-018 02/16,014-211
https://www.thebsbnumbers.com/anz-bank/page/10/,470,ANZ Bank,QLD,Ingham,Ingham,39 Lannercost Street,014-603
https://www.thebsbnumbers.com/anz-bank/page/10/,471,ANZ Bank,QLD,Innisfail,Innisfail,Cnr Edith & Rankin Streets,014-604
https://www.thebsbnumbers.com/anz-bank/page/10/,472,ANZ Bank,QLD,Ipswich,Merged,Refer to BSB 014-314 05/14,014-610
https://www.thebsbnumbers.com/anz-bank/page/10/,473,ANZ Bank,QLD,Ipswich,Merged,Refer to BSB 014-314 12/15,014-505
https://www.thebsbnumbers.com/anz-bank/page/10/,474,ANZ Bank,QLD,Ipswich,Riverlink,Cnr Pine St & The Terrace,014-314
https://www.thebsbnumbers.com/anz-bank/page/10/,475,ANZ Bank,QLD,Jandowae,Jandowae,56 High Street,014-615
https://www.thebsbnumbers.com/anz-bank/page/10/,476,ANZ Bank,QLD,Kangaroo Point,TPC Business Bank Support,310 Vulture Street,014-052
https://www.thebsbnumbers.com/anz-bank/page/10/,,,,,,,
https://www.thebsbnumbers.com/anz-bank/page/10/,477,ANZ Bank,QLD,Kangaroo Point,TPC Trans Processing Support,310 Vulture Street,014-039
https://www.thebsbnumbers.com/anz-bank/page/10/,478,ANZ Bank,QLD,Kangaroo Point,Transaction Processing Centre,310 Vulture Street,014-061
https://www.thebsbnumbers.com/anz-bank/page/10/,479,ANZ Bank,QLD,Kangaroo Point,Transaction Processing Support,310 Vulture Street,014-105
https://www.thebsbnumbers.com/anz-bank/page/10/,480,ANZ Bank,QLD,Kangaroo Point,Voucher Processing Srvcs QLD,310 Vulture Street,014-005
https://www.thebsbnumbers.com/anz-bank/page/10/,481,ANZ Bank,QLD,Kenmore,Kenmore Village,Cnr Moggill and Brookfield Rds,014-249
https://www.thebsbnumbers.com/anz-bank/page/10/,482,ANZ Bank,QLD,Kilcoy,Kilcoy,36 William Streets,014-619
https://www.thebsbnumbers.com/anz-bank/page/10/,483,ANZ Bank,QLD,Kin Kora,Kin Kora,191 Philip Street,014-541
https://www.thebsbnumbers.com/anz-bank/page/10/,484,ANZ Bank,QLD,Kingaroy,Kingaroy,19 Alford Street,014-630
https://www.thebsbnumbers.com/anz-bank/page/10/,485,ANZ Bank,QLD,Kippa-Ring,Kippa Ring,Shop 1 284 Anzac Ave,014-228
https://www.thebsbnumbers.com/anz-bank/page/10/,486,ANZ Bank,QLD,Kirwan,Kirwan,2 Thuringowa Drive,014-707
https://www.thebsbnumbers.com/anz-bank/page/10/,487,ANZ Bank,QLD,Loganholme,Loganholme,4 Mandew Street,014-227
https://www.thebsbnumbers.com/anz-bank/page/10/,,,,,,,
https://www.thebsbnumbers.com/anz-bank/page/10/,488,ANZ Bank,QLD,Longreach,Merged,Refer to BSB 014-572 12/12,014-635
https://www.thebsbnumbers.com/anz-bank/page/10/,489,ANZ Bank,QLD,Mackay,Caneland Central,2 Mangrove Road,014-023
https://www.thebsbnumbers.com/anz-bank/page/10/,490,ANZ Bank,QLD,Mackay,Mackay,Cnr Sydney and Victoria Streets,014-640
https://www.thebsbnumbers.com/anz-bank/page/10/,491,ANZ Bank,QLD,Mackay North,Mackay North,Mt Pleasant Shp Ctr  Phillip Street,014-676
https://www.thebsbnumbers.com/anz-bank/page/10/,492,ANZ Bank,QLD,Maleny,Maleny,Cnr Teak and Maple Streets,014-645
https://www.thebsbnumbers.com/anz-bank/page/10/,493,ANZ Bank,QLD,Mango Hill,North Lakes,Cnr Nth Lake Drive & Anzac Avenue,014-309
https://www.thebsbnumbers.com/anz-bank/page/10/,494,ANZ Bank,QLD,Mareeba,Mareeba,174 Byrnes Street,014-648
https://www.thebsbnumbers.com/anz-bank/page/10/,495,ANZ Bank,QLD,Maroochydore,Maroochydore,135 Horton Parade,014-650
https://www.thebsbnumbers.com/anz-bank/page/10/,496,ANZ Bank,QLD,Maroochydore,Sunshine Plaza,Horton Parade,014-316
https://www.thebsbnumbers.com/anz-bank/page/10/,497,ANZ Bank,QLD,Maryborough,Maryborough,221 Adelaide Street,014-655
https://www.thebsbnumbers.com/anz-bank/page/10/,498,ANZ Bank,QLD,Miami,Miami,1934 Gold Coast Highway,014-544
https://www.thebsbnumbers.com/anz-bank/page/10/,499,ANZ Bank,QLD,Middlemount,Middlemount,Middlemount Mall  Leichhardt Dv,014-651
https://www.thebsbnumbers.com/anz-bank/page/10/,500,ANZ Bank,QLD,Milton,Holcim (Australia) Pty Ltd,(NBFI Agency to 017-000),017-906
https://www.thebsbnumbers.com/anz-bank/page/11/,,,,,,,
https://www.thebsbnumbers.com/anz-bank/page/11/,501,ANZ Bank,QLD,Mitchelton,Brookside,Brookside SC 159 Osborne Road,014-203
https://www.thebsbnumbers.com/anz-bank/page/11/,502,ANZ Bank,QLD,Moranbah,Moranbah,Griffin Street,014-662
https://www.thebsbnumbers.com/anz-bank/page/11/,503,ANZ Bank,QLD,Morayfield,Morayfield,171 Morayfield Road,014-305
https://www.thebsbnumbers.com/anz-bank/page/11/,504,ANZ Bank,QLD,Morningside,Morningside,618 Wynnum Road,014-253
https://www.thebsbnumbers.com/anz-bank/page/11/,505,ANZ Bank,QLD,Mossman,Mossman,Front Street,014-663
https://www.thebsbnumbers.com/anz-bank/page/11/,506,ANZ Bank,QLD,Mount Gravatt,Mount Gravatt,55 Creek Road,014-254
https://www.thebsbnumbers.com/anz-bank/page/11/,507,ANZ Bank,QLD,Mount Isa,Mount Isa,16 Miles Street,014-664
https://www.thebsbnumbers.com/anz-bank/page/11/,508,ANZ Bank,QLD,Mount Ommaney,Mount Ommaney,Mt Ommaney Ctr  Dandenong Road,014-295
https://www.thebsbnumbers.com/anz-bank/page/11/,509,ANZ Bank,QLD,Moura,Moura,88 Dawson Highway,014-667
https://www.thebsbnumbers.com/anz-bank/page/11/,510,ANZ Bank,QLD,Nambour,Nambour,66 Currie Street,014-669
https://www.thebsbnumbers.com/anz-bank/page/11/,511,ANZ Bank,QLD,Nerang,Nerang,Cnr Price and Lavelle Streets,014-679
https://www.thebsbnumbers.com/anz-bank/page/11/,512,ANZ Bank,QLD,Newstead,Newstead,2/3 Breakfast Creek Road,014-245
https://www.thebsbnumbers.com/anz-bank/page/11/,513,ANZ Bank,QLD,Noosa Heads,Noosa Heads,23 Sunshine Beach Road,014-672
https://www.thebsbnumbers.com/anz-bank/page/11/,,,,,,,
https://www.thebsbnumbers.com/anz-bank/page/11/,514,ANZ Bank,QLD,Noosaville,Noosa Civic,10 Eenie Creek Road,014-311
https://www.thebsbnumbers.com/anz-bank/page/11/,515,ANZ Bank,QLD,North Cairns,North Cairns,361-363 Sheridan Street,014-681
https://www.thebsbnumbers.com/anz-bank/page/11/,516,ANZ Bank,QLD,North Rockhampton,Merged,Refer to BSB 014-690 10/14,014-673
https://www.thebsbnumbers.com/anz-bank/page/11/,517,ANZ Bank,QLD,Oakey,Oakey,101 Campbell Street,014-675
https://www.thebsbnumbers.com/anz-bank/page/11/,518,ANZ Bank,QLD,Paddington,Paddington,244 Given Tce,014-256
https://www.thebsbnumbers.com/anz-bank/page/11/,519,ANZ Bank,QLD,Pialba,Pialba,Cnr Central Avenue & Bay Drive,014-699
https://www.thebsbnumbers.com/anz-bank/page/11/,520,ANZ Bank,QLD,Pittsworth,Pittsworth,80 Yandilla Street,014-680
https://www.thebsbnumbers.com/anz-bank/page/11/,521,ANZ Bank,QLD,Pomona,Merged,Refer to BSB 014-557 12/14,014-683
https://www.thebsbnumbers.com/anz-bank/page/11/,522,ANZ Bank,QLD,Port Douglas,Port Douglas,23Port VillageSC 11-17Macrossan St,014-709
https://www.thebsbnumbers.com/anz-bank/page/11/,523,ANZ Bank,QLD,Proserpine,Proserpine,41 Main Street,014-691
https://www.thebsbnumbers.com/anz-bank/page/11/,524,ANZ Bank,QLD,Redcliffe,Redcliffe,Shops 6 Cnr Anzac Ave & Sutton St,014-262
https://www.thebsbnumbers.com/anz-bank/page/11/,525,ANZ Bank,QLD,Redland Bay,Redland Bay,Shops 12 133 Broadwater Tce,014-226
https://www.thebsbnumbers.com/anz-bank/page/11/,526,ANZ Bank,QLD,Robina,Robina,"Shop 4138, Robina Town Centre",014-536
https://www.thebsbnumbers.com/anz-bank/page/11/,,,,,,,
https://www.thebsbnumbers.com/anz-bank/page/11/,527,ANZ Bank,QLD,Rockhampton,Rockhampton,214 Bolsover Street,014-690
https://www.thebsbnumbers.com/anz-bank/page/11/,528,ANZ Bank,QLD,Rockhampton,Rockhampton Shopping Fair,Yaamba Rd & Bruce Hwy,014-729
https://www.thebsbnumbers.com/anz-bank/page/11/,529,ANZ Bank,QLD,Roma,Roma,Cnr McDowall & Wyndham Streets,014-695
https://www.thebsbnumbers.com/anz-bank/page/11/,530,ANZ Bank,QLD,Runaway Bay,Runaway Bay,Runaway Bay Shpg Ctr,014-696
https://www.thebsbnumbers.com/anz-bank/page/11/,531,ANZ Bank,QLD,Samford,Merged,Refer to BSB 014-203 09/12,014-307
https://www.thebsbnumbers.com/anz-bank/page/11/,532,ANZ Bank,QLD,Sandgate,Sandgate,Cnr Brighton Road & Third Avenue,014-260
https://www.thebsbnumbers.com/anz-bank/page/11/,533,ANZ Bank,QLD,Sippy Downs,Chancellor Park,Shop 8  1-9 Village Boulevard,014-304
https://www.thebsbnumbers.com/anz-bank/page/11/,534,ANZ Bank,QLD,Smithfield,Smithfield,Cnr Captain Cook & Kennedy Hway,014-713
https://www.thebsbnumbers.com/anz-bank/page/11/,535,ANZ Bank,QLD,South Brisbane,Parmalat Australia Pty Ltd,(NBFI Agency to 014-000),014-993
https://www.thebsbnumbers.com/anz-bank/page/11/,536,ANZ Bank,QLD,Southport,Southport,81 Scarborough Street,014-701
https://www.thebsbnumbers.com/anz-bank/page/11/,537,ANZ Bank,QLD,Springfield,Orion Springfield,31-32 Main Street,014-315
https://www.thebsbnumbers.com/anz-bank/page/11/,,,,,,,
https://www.thebsbnumbers.com/anz-bank/page/11/,538,ANZ Bank,QLD,Springsure,Springsure,Cnr Eclipse and Charles Streets,014-702
https://www.thebsbnumbers.com/anz-bank/page/11/,539,ANZ Bank,QLD,Springwood,Merged,Refer to BSB 014-279 10/12,014-263
https://www.thebsbnumbers.com/anz-bank/page/11/,540,ANZ Bank,QLD,St Lucia,University Of Qld,Staff House Road,014-281
https://www.thebsbnumbers.com/anz-bank/page/11/,541,ANZ Bank,QLD,Stanthorpe,Stanthorpe,5-7 Maryland Street,014-711
https://www.thebsbnumbers.com/anz-bank/page/11/,542,ANZ Bank,QLD,Strathpine,Strathpine,Shop 105-107 295 Gympie Rd,014-271
https://www.thebsbnumbers.com/anz-bank/page/11/,543,ANZ Bank,QLD,Sunnybank,Sunnybank,Time Square  250 McCullough Street,014-269
https://www.thebsbnumbers.com/anz-bank/page/11/,544,ANZ Bank,QLD,Sunnybank Hills,Sunnybank Hills,Cnr Calam and Compton Roads,014-286
https://www.thebsbnumbers.com/anz-bank/page/11/,545,ANZ Bank,QLD,Surfers Paradise,Surfers Paradise,3171 Gold Coast Blvd,014-704
https://www.thebsbnumbers.com/anz-bank/page/11/,546,ANZ Bank,QLD,Tannum Sands,Tannum Sands,Garnet Street,014-708
https://www.thebsbnumbers.com/anz-bank/page/11/,547,ANZ Bank,QLD,Tewantin,Tewantin,115 Poinciana Avenue,014-706
https://www.thebsbnumbers.com/anz-bank/page/11/,548,ANZ Bank,QLD,Theodore,Theodore,Cnr The Boulvard & Sixth Avenue,014-705
https://www.thebsbnumbers.com/anz-bank/page/11/,549,ANZ Bank,QLD,Toogoolawah,Toogoolawah,Cressbrook Street,014-710
https://www.thebsbnumbers.com/anz-bank/page/11/,550,ANZ Bank,QLD,Toombul,Toombul,Sh 105 Wstfld Shpg 1015 Sandgate Rd,014-255
https://www.thebsbnumbers.com/anz-bank/page/12/,,,,,,,
https://www.thebsbnumbers.com/anz-bank/page/12/,551,ANZ Bank,QLD,Toowong,Toowong,3 Sherwood Road,014-272
https://www.thebsbnumbers.com/anz-bank/page/12/,552,ANZ Bank,QLD,Toowoomba,Clifford Gardens,Shp 69  Cnr James St & Anzac Ave,014-657
https://www.thebsbnumbers.com/anz-bank/page/12/,553,ANZ Bank,QLD,Toowoomba,Heritage Bank Limited,(NBFI Agency to 014-000),014-996
https://www.thebsbnumbers.com/anz-bank/page/12/,554,ANZ Bank,QLD,Toowoomba,Toowoomba,367 Ruthven Street,014-720
https://www.thebsbnumbers.com/anz-bank/page/12/,555,ANZ Bank,QLD,Torquay,Torquay,Cnr Bideford & Freshwater Sts,014-726
https://www.thebsbnumbers.com/anz-bank/page/12/,556,ANZ Bank,QLD,Townsville,QLD Farmgate Corporate - CAP,121 Sturt St,014-220
https://www.thebsbnumbers.com/anz-bank/page/12/,557,ANZ Bank,QLD,Townsville,Townsville,121 Sturt Street,014-730
https://www.thebsbnumbers.com/anz-bank/page/12/,558,ANZ Bank,QLD,Underwood,Underwood,Sh 1 Underwood Market Place,014-279
https://www.thebsbnumbers.com/anz-bank/page/12/,559,ANZ Bank,QLD,Upper Mount Gravatt,Mt Gravatt Upper (Garden City),Logan Road,014-289
https://www.thebsbnumbers.com/anz-bank/page/12/,560,ANZ Bank,QLD,Victoria Point,Victoria Point,2-34 Bunker Rd,014-298
https://www.thebsbnumbers.com/anz-bank/page/12/,561,ANZ Bank,QLD,Virginia,Virginia,94 Robinson Road East,014-275
https://www.thebsbnumbers.com/anz-bank/page/12/,562,ANZ Bank,QLD,Warwick,Warwick,135 Palmerin Street,014-735
https://www.thebsbnumbers.com/anz-bank/page/12/,563,ANZ Bank,QLD,West Burleigh,West Burleigh,West Burleigh Road,014-739
https://www.thebsbnumbers.com/anz-bank/page/12/,,,,,,,
https://www.thebsbnumbers.com/anz-bank/page/12/,564,ANZ Bank,QLD,West End,Inner Southern Brisbane -CACHE,Level 1  113 Boundary St,014-229
https://www.thebsbnumbers.com/anz-bank/page/12/,565,ANZ Bank,QLD,West End,Inner Southern Brisbane -CAP,Level 1  113 Boundary St,014-224
https://www.thebsbnumbers.com/anz-bank/page/12/,566,ANZ Bank,QLD,West End,West End,113 Boundary Street,014-274
https://www.thebsbnumbers.com/anz-bank/page/12/,567,ANZ Bank,QLD,Woodford,Woodford,94 Archer Street,014-740
https://www.thebsbnumbers.com/anz-bank/page/12/,568,ANZ Bank,QLD,Woolloongabba,Merged,Refer to BSB 014-278 08/12,014-313
https://www.thebsbnumbers.com/anz-bank/page/12/,569,ANZ Bank,QLD,Woolloongabba,Woolloongabba,31 Ipswich Road,014-278
https://www.thebsbnumbers.com/anz-bank/page/12/,570,ANZ Bank,QLD,Wynnum,Wynnum,154 Bay Terrace,014-285
https://www.thebsbnumbers.com/anz-bank/page/12/,571,ANZ Bank,QLD,Yeppoon,Yeppoon,10 Normanby Street,014-760
https://www.thebsbnumbers.com/anz-bank/page/12/,572,ANZ Bank,SA,Adelaide,121 King William,121 King William Street,015-010
https://www.thebsbnumbers.com/anz-bank/page/12/,573,ANZ Bank,SA,Adelaide,Adelaide,Floor 6 13 Grenfell Street,015-361
https://www.thebsbnumbers.com/anz-bank/page/12/,574,ANZ Bank,SA,Adelaide,Adelaide Metro Zone,Floor 10  13 Grenfell Street,015-110
https://www.thebsbnumbers.com/anz-bank/page/12/,575,ANZ Bank,SA,Adelaide,ANZ Funds Management,9/13 Grenfell Street,015-017
https://www.thebsbnumbers.com/anz-bank/page/12/,576,ANZ Bank,SA,Adelaide,ANZ Private Bank SA,Level 21  11-29 Waymouth Street,015-606
https://www.thebsbnumbers.com/anz-bank/page/12/,,,,,,,
https://www.thebsbnumbers.com/anz-bank/page/12/,577,ANZ Bank,SA,Adelaide,Bus Bank Commercial Real Estate,16/13 Grenfell Street,015-808
https://www.thebsbnumbers.com/anz-bank/page/12/,578,ANZ Bank,SA,Adelaide,Business Banking SA/NT,Level 21  11 Waymouth Street,015-043
https://www.thebsbnumbers.com/anz-bank/page/12/,579,ANZ Bank,SA,Adelaide,Corporate Portfolio Managment SA,Level 15  13 Grenfell Street,015-093
https://www.thebsbnumbers.com/anz-bank/page/12/,580,ANZ Bank,SA,Adelaide,Esanda,13 Grenfell Street,015-103
https://www.thebsbnumbers.com/anz-bank/page/12/,581,ANZ Bank,SA,Adelaide,Esanda,13 Grenfell Street,015-138
https://www.thebsbnumbers.com/anz-bank/page/12/,582,ANZ Bank,SA,Adelaide,Esanda,13 Grenfell Street,015-196
https://www.thebsbnumbers.com/anz-bank/page/12/,583,ANZ Bank,SA,Adelaide,Esanda SA,2/13 Grenfell Street,015-009
https://www.thebsbnumbers.com/anz-bank/page/12/,584,ANZ Bank,SA,Adelaide,Gouger St,107 Gouger Street,015-025
https://www.thebsbnumbers.com/anz-bank/page/12/,585,ANZ Bank,SA,Adelaide,Group Credit Management,10/13 Grenfell Street,015-026
https://www.thebsbnumbers.com/anz-bank/page/12/,586,ANZ Bank,SA,Adelaide,Hutt Street,185 Hutt Street,015-056
https://www.thebsbnumbers.com/anz-bank/page/12/,587,ANZ Bank,SA,Adelaide,International Services,8/13 Grenfell Street,015-021
https://www.thebsbnumbers.com/anz-bank/page/12/,,,,,,,
https://www.thebsbnumbers.com/anz-bank/page/12/,588,ANZ Bank,SA,Adelaide,Lending Services-Commercial,20/11-29 Waymouth St,015-753
https://www.thebsbnumbers.com/anz-bank/page/12/,589,ANZ Bank,SA,Adelaide,Lifeplan Aust Building Soc,(NBFI Agency to 015-000),015-991
https://www.thebsbnumbers.com/anz-bank/page/12/,590,ANZ Bank,SA,Adelaide,Markets Division,3/13 Grenfell Street,015-033
https://www.thebsbnumbers.com/anz-bank/page/12/,591,ANZ Bank,SA,Adelaide,Mortgages SA/NT,ANZ City Cntl L19 11-29 Waymouth St,015-073
https://www.thebsbnumbers.com/anz-bank/page/12/,592,ANZ Bank,SA,Adelaide,Rundle Mall,112 Rundle Mall,015-140
https://www.thebsbnumbers.com/anz-bank/page/12/,593,ANZ Bank,SA,Adelaide,TPC Business Bank Support,118 Franklin Street,015-052
https://www.thebsbnumbers.com/anz-bank/page/12/,594,ANZ Bank,SA,Adelaide,TPC Trans Processing Centre,118 Franklin Street,015-066
https://www.thebsbnumbers.com/anz-bank/page/12/,595,ANZ Bank,SA,Adelaide,Transaction Processing Centre,118 Franklin Street,015-061
https://www.thebsbnumbers.com/anz-bank/page/12/,596,ANZ Bank,SA,Adelaide,Voucher Processing Srvcs SA&NT,118 Franklin Street,015-005
https://www.thebsbnumbers.com/anz-bank/page/12/,597,ANZ Bank,SA,Angaston,Angaston,43 Murray Street,015-500
https://www.thebsbnumbers.com/anz-bank/page/12/,598,ANZ Bank,SA,Balaklava,Balaklava,16 George Steet,015-525
https://www.thebsbnumbers.com/anz-bank/page/12/,599,ANZ Bank,SA,Berri,Berri,20 Vaughan Street,015-513
https://www.thebsbnumbers.com/anz-bank/page/12/,600,ANZ Bank,SA,Blackwood,Blackwood,Cnr Young Street and Main Road,015-210
https://www.thebsbnumbers.com/anz-bank/page/13/,,,,,,,
https://www.thebsbnumbers.com/anz-bank/page/13/,601,ANZ Bank,SA,Blackwood,Closed,Refer to BSB 015-210 - 12/07,015-134
https://www.thebsbnumbers.com/anz-bank/page/13/,602,ANZ Bank,SA,Booleroo Centre,Booleroo Centre,28 Stephens St,015-524
https://www.thebsbnumbers.com/anz-bank/page/13/,603,ANZ Bank,SA,Bordertown,Bordertown,84 Woolshed Street,015-530
https://www.thebsbnumbers.com/anz-bank/page/13/,604,ANZ Bank,SA,Brighton,Merged,Refer to BSB 015-220 08/14,015-209
https://www.thebsbnumbers.com/anz-bank/page/13/,605,ANZ Bank,SA,Campbelltown,Campbelltown,606 Lower North East Road,015-211
https://www.thebsbnumbers.com/anz-bank/page/13/,606,ANZ Bank,SA,Ceduna,Ceduna,27 Poynton Street,015-555
https://www.thebsbnumbers.com/anz-bank/page/13/,607,ANZ Bank,SA,Clare,Clare,243 Main Street,015-552
https://www.thebsbnumbers.com/anz-bank/page/13/,608,ANZ Bank,SA,Cleve,Cleve,29 Main Street,015-558
https://www.thebsbnumbers.com/anz-bank/page/13/,609,ANZ Bank,SA,Crystal Brook,Merged,Refer to BSB 015-693 10/14,015-562
https://www.thebsbnumbers.com/anz-bank/page/13/,610,ANZ Bank,SA,Edwardstown,Edwardstown,Castle Plaza Shp 1  992 South Road,015-225
https://www.thebsbnumbers.com/anz-bank/page/13/,611,ANZ Bank,SA,Elizabeth,Elizabeth,Sh93 50 Elizabeth Way Elizabeth S/C,015-203
https://www.thebsbnumbers.com/anz-bank/page/13/,612,ANZ Bank,SA,Firle,Firle,151 Glyburn Road,015-237
https://www.thebsbnumbers.com/anz-bank/page/13/,613,ANZ Bank,SA,Fulham Gardens,Fulham Gardens,447-165 Tapleys Hill Road,015-135
https://www.thebsbnumbers.com/anz-bank/page/13/,,,,,,,
https://www.thebsbnumbers.com/anz-bank/page/13/,614,ANZ Bank,SA,Gawler,Gawler,93 Murray Street,015-560
https://www.thebsbnumbers.com/anz-bank/page/13/,615,ANZ Bank,SA,Glenelg,Glenelg,81 Jetty Road,015-250
https://www.thebsbnumbers.com/anz-bank/page/13/,616,ANZ Bank,SA,Glenside,Burnside,362 Greenhill Road,015-257
https://www.thebsbnumbers.com/anz-bank/page/13/,617,ANZ Bank,SA,Golden Grove,Golden Grove,Golden Grove Village Shpg Ctr,015-249
https://www.thebsbnumbers.com/anz-bank/page/13/,618,ANZ Bank,SA,Goolwa,Goolwa,12 Cadell Street,015-566
https://www.thebsbnumbers.com/anz-bank/page/13/,619,ANZ Bank,SA,Hallett Cove,Hallett Cove,Shp 7-8 Lonsdale Road,015-259
https://www.thebsbnumbers.com/anz-bank/page/13/,620,ANZ Bank,SA,Hawker,Merged,Refer to BSB 015-206 11/12,015-575
https://www.thebsbnumbers.com/anz-bank/page/13/,621,ANZ Bank,SA,Hindmarsh,Closed,Refer to BSB 015-354 05/09,015-255
https://www.thebsbnumbers.com/anz-bank/page/13/,622,ANZ Bank,SA,Jamestown,Jamestown,55 Ayr Street,015-580
https://www.thebsbnumbers.com/anz-bank/page/13/,623,ANZ Bank,SA,Kadina,Kadina,36 Graves Street,015-590
https://www.thebsbnumbers.com/anz-bank/page/13/,624,ANZ Bank,SA,Keith,Keith,Hender Street,015-595
https://www.thebsbnumbers.com/anz-bank/page/13/,625,ANZ Bank,SA,Kimba,Kimba,34 High Street,015-462
https://www.thebsbnumbers.com/anz-bank/page/13/,626,ANZ Bank,SA,Kingscote,Kingscote,62 Dauncy Street,015-600
https://www.thebsbnumbers.com/anz-bank/page/13/,,,,,,,
https://www.thebsbnumbers.com/anz-bank/page/13/,627,ANZ Bank,SA,Kingston Se,Kingston,17 Agnes Street,015-610
https://www.thebsbnumbers.com/anz-bank/page/13/,628,ANZ Bank,SA,Kurralta Park,Kurralta Park,Shop 2 153 Anzac Hwy,015-343
https://www.thebsbnumbers.com/anz-bank/page/13/,629,ANZ Bank,SA,Lameroo,Lameroo,72 Railway Terrace North,015-615
https://www.thebsbnumbers.com/anz-bank/page/13/,630,ANZ Bank,SA,Lobethal,Lobethal,54 Main Street,015-621
https://www.thebsbnumbers.com/anz-bank/page/13/,631,ANZ Bank,SA,Loxton,Loxton,31 East Terrace,015-625
https://www.thebsbnumbers.com/anz-bank/page/13/,632,ANZ Bank,SA,Maitland,Maitland,26 Robert Street,015-630
https://www.thebsbnumbers.com/anz-bank/page/13/,633,ANZ Bank,SA,Mawson Lakes,Mawson Lakes,18-20 Main Street,015-142
https://www.thebsbnumbers.com/anz-bank/page/13/,634,ANZ Bank,SA,Mclaren Vale,McLaren Vale,Shop 3  McLaren Vale Shpg Ctr,015-627
https://www.thebsbnumbers.com/anz-bank/page/13/,635,ANZ Bank,SA,Millicent,Millicent,54 George Street,015-638
https://www.thebsbnumbers.com/anz-bank/page/13/,636,ANZ Bank,SA,Minlaton,Minlaton,44 Main Street,015-642
https://www.thebsbnumbers.com/anz-bank/page/13/,637,ANZ Bank,SA,Morphett Vale,Morphett Vale Nth,50 Hilliers Road,015-305
https://www.thebsbnumbers.com/anz-bank/page/13/,,,,,,,
https://www.thebsbnumbers.com/anz-bank/page/13/,638,ANZ Bank,SA,Mount Barker,Mount Barker,16 Gawler Street,015-650
https://www.thebsbnumbers.com/anz-bank/page/13/,639,ANZ Bank,SA,Mount Gambier,Mount Gambier,8 Commercial Street West,015-660
https://www.thebsbnumbers.com/anz-bank/page/13/,640,ANZ Bank,SA,Mount Pleasant,Merged,Refer to BSB 015-621 02/14,015-663
https://www.thebsbnumbers.com/anz-bank/page/13/,641,ANZ Bank,SA,Murray Bridge,Closed,Refer to BSB 015-665 07/12,015-629
https://www.thebsbnumbers.com/anz-bank/page/13/,642,ANZ Bank,SA,Murray Bridge,Murray Bridge,27 Bridge Street,015-665
https://www.thebsbnumbers.com/anz-bank/page/13/,643,ANZ Bank,SA,Naracoorte,Naracoorte,99 Smith Street,015-670
https://www.thebsbnumbers.com/anz-bank/page/13/,644,ANZ Bank,SA,Noarlunga Centre,Colonnades,Centre Colonnades S/C Beach Road,015-217
https://www.thebsbnumbers.com/anz-bank/page/13/,645,ANZ Bank,SA,Noarlunga Downs,Merged,Refer to BSB 015-217 12/15,015-236
https://www.thebsbnumbers.com/anz-bank/page/13/,646,ANZ Bank,SA,North Adelaide,North Adelaide,37-39 O'Connell Street,015-311
https://www.thebsbnumbers.com/anz-bank/page/13/,647,ANZ Bank,SA,Norwood,Norwood,192 The Parade,015-310
https://www.thebsbnumbers.com/anz-bank/page/13/,648,ANZ Bank,SA,Oaklands Park,Marion,297 Diagonal Road,015-220
https://www.thebsbnumbers.com/anz-bank/page/13/,649,ANZ Bank,SA,Penola,Penola,40 Church Street,015-680
https://www.thebsbnumbers.com/anz-bank/page/13/,650,ANZ Bank,SA,Pinnaroo,Pinnaroo,10 Railway Terrace,015-029
https://www.thebsbnumbers.com/anz-bank/page/14/,,,,,,,
https://www.thebsbnumbers.com/anz-bank/page/14/,651,ANZ Bank,SA,Port Adelaide,Port Adelaide,79 Dale Street,015-350
https://www.thebsbnumbers.com/anz-bank/page/14/,652,ANZ Bank,SA,Port Augusta,Port Augusta,37 Commercial Road,015-206
https://www.thebsbnumbers.com/anz-bank/page/14/,653,ANZ Bank,SA,Port Lincoln,Port Lincoln,76 Tasman Terrace,015-420
https://www.thebsbnumbers.com/anz-bank/page/14/,654,ANZ Bank,SA,Port Pirie,Port Pirie,152 Ellen Street,015-693
https://www.thebsbnumbers.com/anz-bank/page/14/,655,ANZ Bank,SA,Ridgehaven,Modbury,Modbury  1011 North East Road,015-300
https://www.thebsbnumbers.com/anz-bank/page/14/,656,ANZ Bank,SA,Riverton,Riverton,23 Torrens Road,015-708
https://www.thebsbnumbers.com/anz-bank/page/14/,657,ANZ Bank,SA,Salisbury,Salisbury,81 John Street,015-356
https://www.thebsbnumbers.com/anz-bank/page/14/,658,ANZ Bank,SA,Seaford,Seaford,The Parade & Commercila Road,015-205
https://www.thebsbnumbers.com/anz-bank/page/14/,659,ANZ Bank,SA,Sefton Park,Enfield,255 Main North Road,015-228
https://www.thebsbnumbers.com/anz-bank/page/14/,660,ANZ Bank,SA,Smithfield,Munno Para,600 Main North Road,015-204
https://www.thebsbnumbers.com/anz-bank/page/14/,661,ANZ Bank,SA,Stirling,Stirling,Tiers Shpg Ctr  57 Mt Barker Road,015-367
https://www.thebsbnumbers.com/anz-bank/page/14/,662,ANZ Bank,SA,Streaky Bay,Streaky Bay,Bay Road,015-436
https://www.thebsbnumbers.com/anz-bank/page/14/,663,ANZ Bank,SA,Tanunda,Tanunda,44 Murray Street,015-726
https://www.thebsbnumbers.com/anz-bank/page/14/,,,,,,,
https://www.thebsbnumbers.com/anz-bank/page/14/,664,ANZ Bank,SA,Torrensville,Torrensville,156 Henley Beach Road,015-354
https://www.thebsbnumbers.com/anz-bank/page/14/,665,ANZ Bank,SA,Unley,Business Banking - Unley,1/123 Unley Rd,015-506
https://www.thebsbnumbers.com/anz-bank/page/14/,666,ANZ Bank,SA,Unley,Unley,123 Unley Road,015-208
https://www.thebsbnumbers.com/anz-bank/page/14/,667,ANZ Bank,SA,Victor Harbor,Victor Harbor,20 Coral Street,015-716
https://www.thebsbnumbers.com/anz-bank/page/14/,668,ANZ Bank,SA,Waikerie,Waikerie,5 McCoy Street,015-448
https://www.thebsbnumbers.com/anz-bank/page/14/,669,ANZ Bank,SA,West Lakes,West Lakes,West Lakes Mall  West Lakes Bvd,015-214
https://www.thebsbnumbers.com/anz-bank/page/14/,670,ANZ Bank,SA,Whyalla,Whyalla,Cnr Forsyth & Farrel Streets,015-720
https://www.thebsbnumbers.com/anz-bank/page/14/,671,ANZ Bank,SA,Willunga,Merged,Refer to BSB 015-627 11/12,015-456
https://www.thebsbnumbers.com/anz-bank/page/14/,672,ANZ Bank,SA,Wingfield,Closed,Refer to BSB 015-450 05/09,015-458
https://www.thebsbnumbers.com/anz-bank/page/14/,673,ANZ Bank,SA,Woodville North,Woodville North,1 Hanson Road,015-450
https://www.thebsbnumbers.com/anz-bank/page/14/,674,ANZ Bank,SA,Yankalilla,Yankalilla,99 Main Street,015-464
https://www.thebsbnumbers.com/anz-bank/page/14/,675,ANZ Bank,SA,Yorketown,Yorketown,40 Warooka Road,015-468
https://www.thebsbnumbers.com/anz-bank/page/14/,676,ANZ Bank,TAS,Bellerive,Bellerive,48 Cambridge Road,017-200
https://www.thebsbnumbers.com/anz-bank/page/14/,,,,,,,
https://www.thebsbnumbers.com/anz-bank/page/14/,677,ANZ Bank,TAS,Burnie,Burnie,16 Cattley Street,017-500
https://www.thebsbnumbers.com/anz-bank/page/14/,678,ANZ Bank,TAS,Deloraine,Deloraine,54 Emu Bay Road,017-520
https://www.thebsbnumbers.com/anz-bank/page/14/,679,ANZ Bank,TAS,Devonport,Devonport,36 Rooke Street,017-526
https://www.thebsbnumbers.com/anz-bank/page/14/,680,ANZ Bank,TAS,Glenorchy,Closed,Refer to BSB 017-209 05/09,017-038
https://www.thebsbnumbers.com/anz-bank/page/14/,681,ANZ Bank,TAS,Glenorchy,Glenorchy,362 Main Road,017-209
https://www.thebsbnumbers.com/anz-bank/page/14/,682,ANZ Bank,TAS,Glenorchy,Merged,Refer to BSB 017-209 02/16,017-008
https://www.thebsbnumbers.com/anz-bank/page/14/,683,ANZ Bank,TAS,Hobart,Esanda Tasmania,1/22 Elizabeth Street,017-009
https://www.thebsbnumbers.com/anz-bank/page/14/,684,ANZ Bank,TAS,Hobart,Hobart (40 Elizabeth),40 Elizabeth Street,017-010
https://www.thebsbnumbers.com/anz-bank/page/14/,685,ANZ Bank,TAS,Hobart,MDS Tasmania,Lower Ground Floor 40 Elizabeth St,017-018
https://www.thebsbnumbers.com/anz-bank/page/14/,686,ANZ Bank,TAS,Hobart,Mmkts Settmts ANZ Financial Markets,1/22 Elizabeth Street,017-033
https://www.thebsbnumbers.com/anz-bank/page/14/,687,ANZ Bank,TAS,Hobart,RuralCo Holdings Limited,(NBFI Agency to 015-000),015-987
https://www.thebsbnumbers.com/anz-bank/page/14/,,,,,,,
https://www.thebsbnumbers.com/anz-bank/page/14/,688,ANZ Bank,TAS,Hobart,Tasmania Zone,Floor 2 22 Elizabeth Street,017-006
https://www.thebsbnumbers.com/anz-bank/page/14/,689,ANZ Bank,TAS,Huonville,Huonville,31 Main Street,017-531
https://www.thebsbnumbers.com/anz-bank/page/14/,690,ANZ Bank,TAS,Kings Meadows,Kings Meadows,108 Hobart Road,017-539
https://www.thebsbnumbers.com/anz-bank/page/14/,691,ANZ Bank,TAS,Kingston,Kingston,45 Channel Highway,017-214
https://www.thebsbnumbers.com/anz-bank/page/14/,692,ANZ Bank,TAS,Latrobe,Latrobe,130 Gilbert Street,017-536
https://www.thebsbnumbers.com/anz-bank/page/14/,693,ANZ Bank,TAS,Launceston,Launceston,69 Brisbane Street,017-042
https://www.thebsbnumbers.com/anz-bank/page/14/,694,ANZ Bank,TAS,Longford,Longford,Shop 5  7 Wellington St Longford,017-014
https://www.thebsbnumbers.com/anz-bank/page/14/,695,ANZ Bank,TAS,Mowbray,Mowbray,391 Invermay Road,017-542
https://www.thebsbnumbers.com/anz-bank/page/14/,696,ANZ Bank,TAS,New Norfolk,New Norfolk,24 High Street,017-046
https://www.thebsbnumbers.com/anz-bank/page/14/,697,ANZ Bank,TAS,North Hobart,Closed,Refer to BSB 017-010 05/12,017-312
https://www.thebsbnumbers.com/anz-bank/page/14/,698,ANZ Bank,TAS,Oatlands,Merged,Refer to BSB 017-046 10/14,017-048
https://www.thebsbnumbers.com/anz-bank/page/14/,699,ANZ Bank,TAS,Prospect Vale,Prospect Vale,209 Westbury Road,017-545
https://www.thebsbnumbers.com/anz-bank/page/14/,700,ANZ Bank,TAS,Rosebery,Rosebery,22 Agnes Street,017-012
https://www.thebsbnumbers.com/anz-bank/page/15/,,,,,,,
https://www.thebsbnumbers.com/anz-bank/page/15/,701,ANZ Bank,TAS,Rosny Park,Rosny Park,2/11 Bayfield Street,017-318
https://www.thebsbnumbers.com/anz-bank/page/15/,702,ANZ Bank,TAS,Sandy Bay,Lending Services-Commercial,1/198 Sandy Bay Rd,017-753
https://www.thebsbnumbers.com/anz-bank/page/15/,703,ANZ Bank,TAS,Sandy Bay,Sandy Bay,198 Sandy Bay Road,017-324
https://www.thebsbnumbers.com/anz-bank/page/15/,704,ANZ Bank,TAS,Scottsdale,Scottsdale,17 King Street,017-537
https://www.thebsbnumbers.com/anz-bank/page/15/,705,ANZ Bank,TAS,Smithton,Smithton,42 Emmett Street,017-538
https://www.thebsbnumbers.com/anz-bank/page/15/,706,ANZ Bank,TAS,St Helens,St Helens,38 Quall Street,017-548
https://www.thebsbnumbers.com/anz-bank/page/15/,707,ANZ Bank,TAS,Ulverstone,Ulverstone,44 Reibey Street,017-553
https://www.thebsbnumbers.com/anz-bank/page/15/,708,ANZ Bank,TAS,Wynyard,Wynyard,70 Goldie Street,017-570
https://www.thebsbnumbers.com/anz-bank/page/15/,709,ANZ Bank,TAS,Zeehan,Zeehan,Main Street,017-577
https://www.thebsbnumbers.com/anz-bank/page/15/,710,ANZ Bank,VIC,Abbotsford,Abbotsford,445 Victoria Street,013-200
https://www.thebsbnumbers.com/anz-bank/page/15/,711,ANZ Bank,VIC,Airport West,Airport West,Shop A147 Airport West  29 Louis St,013-442
https://www.thebsbnumbers.com/anz-bank/page/15/,712,ANZ Bank,VIC,Altona North,Altona North,Cnr McArthurs Rd & Borrack Sq,013-202
https://www.thebsbnumbers.com/anz-bank/page/15/,713,ANZ Bank,VIC,Ararat,Ararat,107 Barkly Street,013-504
https://www.thebsbnumbers.com/anz-bank/page/15/,,,,,,,
https://www.thebsbnumbers.com/anz-bank/page/15/,714,ANZ Bank,VIC,Ascot Vale,Showgrounds,"Shop 23, 320-380 Epsom Rd",013-365
https://www.thebsbnumbers.com/anz-bank/page/15/,715,ANZ Bank,VIC,Ashburton,Ashburton,240 High Street,013-210
https://www.thebsbnumbers.com/anz-bank/page/15/,716,ANZ Bank,VIC,Bacchus Marsh,Bacchus Marsh,194 Main Street,013-511
https://www.thebsbnumbers.com/anz-bank/page/15/,717,ANZ Bank,VIC,Bairnsdale,Bairnsdale,134 Main Street,013-510
https://www.thebsbnumbers.com/anz-bank/page/15/,718,ANZ Bank,VIC,Balaclava,Balaclava,227 Carlisle Street,013-214
https://www.thebsbnumbers.com/anz-bank/page/15/,719,ANZ Bank,VIC,Ballarat,Ballarat,927 Sturt Street,013-516
https://www.thebsbnumbers.com/anz-bank/page/15/,720,ANZ Bank,VIC,Ballarat,Ballarat East,81 Bridge Street Mall,013-520
https://www.thebsbnumbers.com/anz-bank/page/15/,721,ANZ Bank,VIC,Balwyn,Balwyn,288 Whitehorse Road,013-215
https://www.thebsbnumbers.com/anz-bank/page/15/,722,ANZ Bank,VIC,Belmont,Belmont,167 High Street,013-523
https://www.thebsbnumbers.com/anz-bank/page/15/,723,ANZ Bank,VIC,Benalla,Benalla,24 Bridge Street,013-525
https://www.thebsbnumbers.com/anz-bank/page/15/,724,ANZ Bank,VIC,Bendigo,Bendigo,91 Mitchell Street,013-533
https://www.thebsbnumbers.com/anz-bank/page/15/,725,ANZ Bank,VIC,Bentleigh,Bentleigh,413-415 Centre Road,013-220
https://www.thebsbnumbers.com/anz-bank/page/15/,726,ANZ Bank,VIC,Berwick,Berwick,92 High Street,013-542
https://www.thebsbnumbers.com/anz-bank/page/15/,,,,,,,
https://www.thebsbnumbers.com/anz-bank/page/15/,727,ANZ Bank,VIC,Boronia,Boronia,234 Dorset Road,013-223
https://www.thebsbnumbers.com/anz-bank/page/15/,728,ANZ Bank,VIC,Box Hill,Box Hill,10 Main Street,013-225
https://www.thebsbnumbers.com/anz-bank/page/15/,729,ANZ Bank,VIC,Braeside,Braeside,244 Boundary Road,013-233
https://www.thebsbnumbers.com/anz-bank/page/15/,730,ANZ Bank,VIC,Bright,Bright,Gavan Street,013-545
https://www.thebsbnumbers.com/anz-bank/page/15/,731,ANZ Bank,VIC,Brighton,Middle Brighton,54 Church Street,013-355
https://www.thebsbnumbers.com/anz-bank/page/15/,732,ANZ Bank,VIC,Broadmeadows,Broadmeadows,Shop G47  Broadmeadows Town Centre,013-230
https://www.thebsbnumbers.com/anz-bank/page/15/,733,ANZ Bank,VIC,Brunswick,Brunswick,392 Sydney Road,013-236
https://www.thebsbnumbers.com/anz-bank/page/15/,734,ANZ Bank,VIC,Bundoora,Bundoora,33 Plenty Road,013-243
https://www.thebsbnumbers.com/anz-bank/page/15/,735,ANZ Bank,VIC,Burwood,Deakin University,Burwood Highway,013-656
https://www.thebsbnumbers.com/anz-bank/page/15/,736,ANZ Bank,VIC,Burwood,Merged,Refer to BSB 013-247 08/14,013-250
https://www.thebsbnumbers.com/anz-bank/page/15/,737,ANZ Bank,VIC,Camberwell,Camberwell,614 Burke Road,013-247
https://www.thebsbnumbers.com/anz-bank/page/15/,,,,,,,
https://www.thebsbnumbers.com/anz-bank/page/15/,738,ANZ Bank,VIC,Camberwell,WEX Australia Pty Ltd,(NBFI Agency to 017-000),017-907
https://www.thebsbnumbers.com/anz-bank/page/15/,739,ANZ Bank,VIC,Campbellfield,GoodYear & Dunlop Tyres Pty Ltd,(NBFI Agency to 013-000),013-990
https://www.thebsbnumbers.com/anz-bank/page/15/,740,ANZ Bank,VIC,Camperdown,Camperdown,172 Manifold Street,013-550
https://www.thebsbnumbers.com/anz-bank/page/15/,741,ANZ Bank,VIC,Carlton,Carlton,"Ground Floor, 205 Lygon St",013-259
https://www.thebsbnumbers.com/anz-bank/page/15/,742,ANZ Bank,VIC,Carlton,Merged,Refer to BSB 013-259 10/15,013-374
https://www.thebsbnumbers.com/anz-bank/page/15/,743,ANZ Bank,VIC,Carnegie,Carnegie,77 Koornang Road,013-260
https://www.thebsbnumbers.com/anz-bank/page/15/,744,ANZ Bank,VIC,Caroline Springs,Caroline Springs,Shop 20 CS Square Caroline Springs,013-599
https://www.thebsbnumbers.com/anz-bank/page/15/,745,ANZ Bank,VIC,Carrum Downs,Carrum Downs,Shp 33A 100 Hall Road,013-241
https://www.thebsbnumbers.com/anz-bank/page/15/,746,ANZ Bank,VIC,Casterton,Closed,Refer to BSB 013-655 05/12,013-555
https://www.thebsbnumbers.com/anz-bank/page/15/,747,ANZ Bank,VIC,Castlemaine,Castlemaine,57 Mostyn Street,013-560
https://www.thebsbnumbers.com/anz-bank/page/15/,748,ANZ Bank,VIC,Chadstone,Chadstone,1341 Dandenong Rd,013-257
https://www.thebsbnumbers.com/anz-bank/page/15/,749,ANZ Bank,VIC,Chelsea,Chelsea,411 Nepean Highway,013-264
https://www.thebsbnumbers.com/anz-bank/page/15/,750,ANZ Bank,VIC,Cheltenham,Closed,Refer to BSB 016-008 09/13,013-267
https://www.thebsbnumbers.com/anz-bank/page/16/,,,,,,,
https://www.thebsbnumbers.com/anz-bank/page/16/,751,ANZ Bank,VIC,Cheltenham,Southland,Southland SC Nepean Hwy,013-483
https://www.thebsbnumbers.com/anz-bank/page/16/,752,ANZ Bank,VIC,Cheltenham,VIC Country Zone,1/13 Chesterville Road,013-185
https://www.thebsbnumbers.com/anz-bank/page/16/,753,ANZ Bank,VIC,Chirnside Park,Merged,Refer to BSB 013-344 12/13,013-526
https://www.thebsbnumbers.com/anz-bank/page/16/,754,ANZ Bank,VIC,Clayton,Clayton,349 Clayton Road,013-268
https://www.thebsbnumbers.com/anz-bank/page/16/,755,ANZ Bank,VIC,Clayton,Linfox Australia Pty Ltd,(NBFI Agency to 013-000),013-992
https://www.thebsbnumbers.com/anz-bank/page/16/,756,ANZ Bank,VIC,Cobram,Cobram,37 Bank Street,013-575
https://www.thebsbnumbers.com/anz-bank/page/16/,757,ANZ Bank,VIC,Coburg,Coburg,444 Sydney Road,013-270
https://www.thebsbnumbers.com/anz-bank/page/16/,758,ANZ Bank,VIC,Cohuna,Cohuna,87 King George Street,013-580
https://www.thebsbnumbers.com/anz-bank/page/16/,759,ANZ Bank,VIC,Colac,Colac,108 Murray Street,013-587
https://www.thebsbnumbers.com/anz-bank/page/16/,760,ANZ Bank,VIC,Collingwood,Collingwood,219 Smith Street,013-275
https://www.thebsbnumbers.com/anz-bank/page/16/,761,ANZ Bank,VIC,Corio,Corio,Cnr Purnell & Bacchus Marsh Rds,013-589
https://www.thebsbnumbers.com/anz-bank/page/16/,762,ANZ Bank,VIC,Corryong,Corryong,Hansen Street,013-590
https://www.thebsbnumbers.com/anz-bank/page/16/,763,ANZ Bank,VIC,Cowes,Cowes,41 Thompson Avenue,013-588
https://www.thebsbnumbers.com/anz-bank/page/16/,,,,,,,
https://www.thebsbnumbers.com/anz-bank/page/16/,764,ANZ Bank,VIC,Craigieburn,Craigieburn,Cnr Main St & Craigieburn Rd,013-276
https://www.thebsbnumbers.com/anz-bank/page/16/,765,ANZ Bank,VIC,Cranbourne,Cranbourne,74-76 High Street,013-593
https://www.thebsbnumbers.com/anz-bank/page/16/,766,ANZ Bank,VIC,Croydon,Croydon,111 Main Street,013-278
https://www.thebsbnumbers.com/anz-bank/page/16/,767,ANZ Bank,VIC,Dandenong,Dandenong,237 Lonsdale Street,013-280
https://www.thebsbnumbers.com/anz-bank/page/16/,768,ANZ Bank,VIC,Dandenong,Dandenong Plaza,49-55 McCrae Street,013-289
https://www.thebsbnumbers.com/anz-bank/page/16/,769,ANZ Bank,VIC,Daylesford,Daylesford,52 Vincent Street,013-600
https://www.thebsbnumbers.com/anz-bank/page/16/,770,ANZ Bank,VIC,Deer Park,Brimbank In-Centre Branch,Shop T45A  Cnr Neale & Station Road,013-145
https://www.thebsbnumbers.com/anz-bank/page/16/,771,ANZ Bank,VIC,Derrinallum,Merged,Refer to BSB 013-743 12/14,013-602
https://www.thebsbnumbers.com/anz-bank/page/16/,772,ANZ Bank,VIC,Diamond Creek ,Merged,Refer to BSB 013-308 05/14,013-292
https://www.thebsbnumbers.com/anz-bank/page/16/,773,ANZ Bank,VIC,Docklands,ANZ V2 Plus NSW,5/833 Collins St,012-141
https://www.thebsbnumbers.com/anz-bank/page/16/,774,ANZ Bank,VIC,Docklands,ANZ V2 Plus Qld,5/833 Collins St,014-141
https://www.thebsbnumbers.com/anz-bank/page/16/,775,ANZ Bank,VIC,Docklands,ANZ V2 Plus SA,5/833 Collins St,015-141
https://www.thebsbnumbers.com/anz-bank/page/16/,776,ANZ Bank,VIC,Docklands,ANZ V2 Plus WA,5/833 Collins St,016-141
https://www.thebsbnumbers.com/anz-bank/page/16/,,,,,,,
https://www.thebsbnumbers.com/anz-bank/page/16/,777,ANZ Bank,VIC,Docklands,Deposits,Level 6B  833 Collins St,013-026
https://www.thebsbnumbers.com/anz-bank/page/16/,778,ANZ Bank,VIC,Docklands,Deposits,Level 6B  833 Collins St,013-798
https://www.thebsbnumbers.com/anz-bank/page/16/,779,ANZ Bank,VIC,Docklands,Docklands,833 Collins Street,013-265
https://www.thebsbnumbers.com/anz-bank/page/16/,780,ANZ Bank,VIC,Docklands,Efraud Case Management,Level 5A  833 Collins St,013-583
https://www.thebsbnumbers.com/anz-bank/page/16/,781,ANZ Bank,VIC,Docklands,Esanda Treasury Trans Services,Lvl 5B.2  833 Collins St,013-193
https://www.thebsbnumbers.com/anz-bank/page/16/,782,ANZ Bank,VIC,Docklands,FPS Australia,Level 7  833 Collins Street,014-179
https://www.thebsbnumbers.com/anz-bank/page/16/,783,ANZ Bank,VIC,Docklands,ING OneAnswer CMA,Level 6  833 Collins St,013-023
https://www.thebsbnumbers.com/anz-bank/page/16/,784,ANZ Bank,VIC,Docklands,Mortgages Credit Assessment,4/833 Collins St,013-102
https://www.thebsbnumbers.com/anz-bank/page/16/,785,ANZ Bank,VIC,Docklands,One Direct - NSW,6/833 Collins St,012-652
https://www.thebsbnumbers.com/anz-bank/page/16/,786,ANZ Bank,VIC,Docklands,One Direct - QLD,6/833 Collins St,014-652
https://www.thebsbnumbers.com/anz-bank/page/16/,787,ANZ Bank,VIC,Docklands,One Direct - SA,6/833 Collins St,015-652
https://www.thebsbnumbers.com/anz-bank/page/16/,,,,,,,
https://www.thebsbnumbers.com/anz-bank/page/16/,788,ANZ Bank,VIC,Docklands,One Direct - TAS,6/833 Collins St,017-652
https://www.thebsbnumbers.com/anz-bank/page/16/,789,ANZ Bank,VIC,Docklands,One Direct - VIC,6/833 Collins St,013-652
https://www.thebsbnumbers.com/anz-bank/page/16/,790,ANZ Bank,VIC,Docklands,One Direct - WA,6/833 Collins St,016-652
https://www.thebsbnumbers.com/anz-bank/page/16/,791,ANZ Bank,VIC,Docklands,Russell Investments,Level 6  833 Collins St,013-559
https://www.thebsbnumbers.com/anz-bank/page/16/,792,ANZ Bank,VIC,Docklands,Russell RPAP CMA,Level 6  833 Collins St,013-190
https://www.thebsbnumbers.com/anz-bank/page/16/,793,ANZ Bank,VIC,Docklands,Transaction Services,Level 5B  833 Collins St,013-129
https://www.thebsbnumbers.com/anz-bank/page/16/,794,ANZ Bank,VIC,Docklands,Woolworth Prepaid Reloadable,6/833 Collins Street,013-038
https://www.thebsbnumbers.com/anz-bank/page/16/,795,ANZ Bank,VIC,Donald,Donald,60 Woods Street,013-605
https://www.thebsbnumbers.com/anz-bank/page/16/,796,ANZ Bank,VIC,Doncaster,Doncaster Shoppingtown,Shop 239  Westfield Shoppingtown,013-148
https://www.thebsbnumbers.com/anz-bank/page/16/,797,ANZ Bank,VIC,Doncaster,Merged,Refer to BSB 013-148 02/16,013-354
https://www.thebsbnumbers.com/anz-bank/page/16/,798,ANZ Bank,VIC,Doncaster,Merged,Refer to BSB 013-148 10/13,013-284
https://www.thebsbnumbers.com/anz-bank/page/16/,799,ANZ Bank,VIC,Doncaster East,The Pines,Shop 36  The Pines Shopping Centre,013-189
https://www.thebsbnumbers.com/anz-bank/page/16/,800,ANZ Bank,VIC,Donvale,Donvale,18 Tunstall Square,013-287
https://www.thebsbnumbers.com/anz-bank/page/17/,,,,,,,
https://www.thebsbnumbers.com/anz-bank/page/17/,801,ANZ Bank,VIC,Drouin,Drouin,17 Princes Highway,013-610
https://www.thebsbnumbers.com/anz-bank/page/17/,802,ANZ Bank,VIC,Drysdale,Drysdale,Shop 4  3 Wyndham Street,013-611
https://www.thebsbnumbers.com/anz-bank/page/17/,803,ANZ Bank,VIC,Echuca,Echuca,179 Hare Street,013-620
https://www.thebsbnumbers.com/anz-bank/page/17/,804,ANZ Bank,VIC,Elsternwick,Elsternwick,394 Glen Huntly Road,013-304
https://www.thebsbnumbers.com/anz-bank/page/17/,805,ANZ Bank,VIC,Eltham,Eltham,950 Main Road,013-308
https://www.thebsbnumbers.com/anz-bank/page/17/,806,ANZ Bank,VIC,Emerald,Emerald,325 Main Rd,013-623
https://www.thebsbnumbers.com/anz-bank/page/17/,807,ANZ Bank,VIC,Endeavour Hills,Endeavour Hills,Endeavour Hills Shopping Centre,013-288
https://www.thebsbnumbers.com/anz-bank/page/17/,808,ANZ Bank,VIC,Epping,Lalor,Shop 113  Epping Plaza Shopping Ctr,013-347
https://www.thebsbnumbers.com/anz-bank/page/17/,809,ANZ Bank,VIC,Essendon North,Closed,Refer to BSB 013-373 05/12,013-317
https://www.thebsbnumbers.com/anz-bank/page/17/,810,ANZ Bank,VIC,Euroa,Merged,Refer to BSB 013-525 12/14,013-625
https://www.thebsbnumbers.com/anz-bank/page/17/,811,ANZ Bank,VIC,Footscray,Footscray Mall,116-120 Nicholson St,013-481
https://www.thebsbnumbers.com/anz-bank/page/17/,812,ANZ Bank,VIC,Forest Hill,Forest Hill,Shop 10B  29 Mahoney Road,013-328
https://www.thebsbnumbers.com/anz-bank/page/17/,813,ANZ Bank,VIC,Foster,Foster,64 Main Street,013-635
https://www.thebsbnumbers.com/anz-bank/page/17/,,,,,,,
https://www.thebsbnumbers.com/anz-bank/page/17/,814,ANZ Bank,VIC,Fountain Gate,Fountain Gate,Shop 1066  Fountain Gate Shpg Ctr,013-312
https://www.thebsbnumbers.com/anz-bank/page/17/,815,ANZ Bank,VIC,Frankston,Frankston,48 Wells Street,013-322
https://www.thebsbnumbers.com/anz-bank/page/17/,816,ANZ Bank,VIC,Garfield,Closed,Refer to BSB 013-610 04/12,013-639
https://www.thebsbnumbers.com/anz-bank/page/17/,817,ANZ Bank,VIC,Geelong,Geelong,83 Malop Street,013-645
https://www.thebsbnumbers.com/anz-bank/page/17/,818,ANZ Bank,VIC,Geelong West,Geelong West,Shop 3  190 Pakington Street,013-642
https://www.thebsbnumbers.com/anz-bank/page/17/,819,ANZ Bank,VIC,Gladstone Park,Gladstone Park,Shp 152  Gladstone Park Shpg Ctr,013-303
https://www.thebsbnumbers.com/anz-bank/page/17/,820,ANZ Bank,VIC,Glen Waverley,Glen Waverley,2 Kingsway,013-326
https://www.thebsbnumbers.com/anz-bank/page/17/,821,ANZ Bank,VIC,Glenferrie South,Glenferrie,687 Glenferrie Road,013-332
https://www.thebsbnumbers.com/anz-bank/page/17/,822,ANZ Bank,VIC,Greensborough,Greensborough,45-47 Main Street,013-333
https://www.thebsbnumbers.com/anz-bank/page/17/,823,ANZ Bank,VIC,Hamilton,Hamilton,76 Grey Street,013-655
https://www.thebsbnumbers.com/anz-bank/page/17/,824,ANZ Bank,VIC,Hampton,Hampton,420 Hampton Street,013-334
https://www.thebsbnumbers.com/anz-bank/page/17/,825,ANZ Bank,VIC,Hampton Park,Hampton Park,Shp 23  Foodcourt Hampton Pk S/C,013-310
https://www.thebsbnumbers.com/anz-bank/page/17/,826,ANZ Bank,VIC,Healesville,Merged,Refer to BSB 013-344 08/14,013-662
https://www.thebsbnumbers.com/anz-bank/page/17/,,,,,,,
https://www.thebsbnumbers.com/anz-bank/page/17/,827,ANZ Bank,VIC,Heidelberg,Heidelberg,Shop 18  56 Burgundy Street,013-313
https://www.thebsbnumbers.com/anz-bank/page/17/,828,ANZ Bank,VIC,Hoppers Crossing,Werribee Plaza,Shop 67A Cnr Derrimut & Heaths Rds,013-664
https://www.thebsbnumbers.com/anz-bank/page/17/,829,ANZ Bank,VIC,Horsham,Horsham,69-71 Firebrace Street,013-665
https://www.thebsbnumbers.com/anz-bank/page/17/,830,ANZ Bank,VIC,Ivanhoe,Ivanhoe,182 Upper Heidelberg Road,013-338
https://www.thebsbnumbers.com/anz-bank/page/17/,831,ANZ Bank,VIC,Kangaroo Flat,Kangaroo Flat,105 High Street,013-671
https://www.thebsbnumbers.com/anz-bank/page/17/,832,ANZ Bank,VIC,Karingal,Karingal,Shop 26 Karingal Hub Shop/Ctr,013-494
https://www.thebsbnumbers.com/anz-bank/page/17/,833,ANZ Bank,VIC,Kerang,Kerang,52 Victoria Street,013-681
https://www.thebsbnumbers.com/anz-bank/page/17/,834,ANZ Bank,VIC,Kew,Kew,197-199 High St,013-345
https://www.thebsbnumbers.com/anz-bank/page/17/,835,ANZ Bank,VIC,Keysborough,Parkmore,317 Cheltenham Road,013-547
https://www.thebsbnumbers.com/anz-bank/page/17/,836,ANZ Bank,VIC,Knoxfield,PFD Food Services (Melb) Pty Ltd,(NBFI Agency to 017-000),017-996
https://www.thebsbnumbers.com/anz-bank/page/17/,837,ANZ Bank,VIC,Koo Wee Rup,Closed,Refer to BSB 013-684,013-704
https://www.thebsbnumbers.com/anz-bank/page/17/,,,,,,,
https://www.thebsbnumbers.com/anz-bank/page/17/,838,ANZ Bank,VIC,Koo Wee Rup,Koo-Wee-Rup,Station Street,013-684
https://www.thebsbnumbers.com/anz-bank/page/17/,839,ANZ Bank,VIC,Koroit,Koroit,174 Commercial Road,013-904
https://www.thebsbnumbers.com/anz-bank/page/17/,840,ANZ Bank,VIC,Korumburra,Merged,Refer to BSB 013-705 10/14,013-695
https://www.thebsbnumbers.com/anz-bank/page/17/,841,ANZ Bank,VIC,Kyabram,Kyabram,152 Allan Street,013-700
https://www.thebsbnumbers.com/anz-bank/page/17/,842,ANZ Bank,VIC,Kyneton,Kyneton,34 High Street,013-706
https://www.thebsbnumbers.com/anz-bank/page/17/,843,ANZ Bank,VIC,Lakes Entrance,Lakes Entrance,11 Myer Street,013-701
https://www.thebsbnumbers.com/anz-bank/page/17/,844,ANZ Bank,VIC,Laverton North,Corp Bkg Western Region - Vic,Cnr Boundary & Little Boundary,013-474
https://www.thebsbnumbers.com/anz-bank/page/17/,845,ANZ Bank,VIC,Laverton North,Visy Paper Pty Ltd,(NBFI Agency to 013-000),013-908
https://www.thebsbnumbers.com/anz-bank/page/17/,846,ANZ Bank,VIC,Leongatha,Leongatha,34 Blair Street,013-705
https://www.thebsbnumbers.com/anz-bank/page/17/,847,ANZ Bank,VIC,Lilydale,Lilydale,Shop 52 33-45 Hutchinson Street,013-344
https://www.thebsbnumbers.com/anz-bank/page/17/,848,ANZ Bank,VIC,Lyndhurst,Lynbrook Village,Lynbrook Vil SC Sh 4-5 Lynbrook Blv,013-232
https://www.thebsbnumbers.com/anz-bank/page/17/,849,ANZ Bank,VIC,Maffra,Maffra,139 Johnston Street,013-713
https://www.thebsbnumbers.com/anz-bank/page/17/,850,ANZ Bank,VIC,Malvern,Malvern,150 Glenferrie Road,013-350
https://www.thebsbnumbers.com/anz-bank/page/18/,,,,,,,
https://www.thebsbnumbers.com/anz-bank/page/18/,851,ANZ Bank,VIC,Mansfield,Mansfield,77 High Street,013-714
https://www.thebsbnumbers.com/anz-bank/page/18/,852,ANZ Bank,VIC,Mansfield,Merged,Refer to BSB 013-714 12/15,013-500
https://www.thebsbnumbers.com/anz-bank/page/18/,853,ANZ Bank,VIC,Maribyrnong,Highpoint Shopping Centre,Highpoint SC 120 Rosamond Rd,013-162
https://www.thebsbnumbers.com/anz-bank/page/18/,854,ANZ Bank,VIC,Maryborough,Maryborough,162 High Street,013-720
https://www.thebsbnumbers.com/anz-bank/page/18/,855,ANZ Bank,VIC,Melbourne,230 Swanston St,230 Swanston Street,013-160
https://www.thebsbnumbers.com/anz-bank/page/18/,856,ANZ Bank,VIC,Melbourne,600 Bourke St,600 Bourke Street,013-017
https://www.thebsbnumbers.com/anz-bank/page/18/,857,ANZ Bank,VIC,Melbourne,ANZ Banking Group,(NBFI Agency to 013-000),013-994
https://www.thebsbnumbers.com/anz-bank/page/18/,858,ANZ Bank,VIC,Melbourne,ANZ Banking Group Limited,(NBFI Agency to 013-000),013-988
https://www.thebsbnumbers.com/anz-bank/page/18/,859,ANZ Bank,VIC,Melbourne,ANZ Banking Group Ltd,(NBFI Agency to 013-000),013-993
https://www.thebsbnumbers.com/anz-bank/page/18/,860,ANZ Bank,VIC,Melbourne,ANZ Direct Banking ACT,18/530 Collins Street,012-471
https://www.thebsbnumbers.com/anz-bank/page/18/,861,ANZ Bank,VIC,Melbourne,ANZ Direct Banking NSW,18/530 Collins Street,012-794
https://www.thebsbnumbers.com/anz-bank/page/18/,862,ANZ Bank,VIC,Melbourne,ANZ Direct Banking QLD,18/530 Collins Street,014-566
https://www.thebsbnumbers.com/anz-bank/page/18/,863,ANZ Bank,VIC,Melbourne,ANZ Direct Banking SA,18/530 Collins Street,015-218
https://www.thebsbnumbers.com/anz-bank/page/18/,,,,,,,
https://www.thebsbnumbers.com/anz-bank/page/18/,864,ANZ Bank,VIC,Melbourne,ANZ Foreign Exchange Branch,Lvl 1 Departures Melbourne Airport,013-460
https://www.thebsbnumbers.com/anz-bank/page/18/,865,ANZ Bank,VIC,Melbourne,ANZ Funds Management,19/530 Collins Street,013-068
https://www.thebsbnumbers.com/anz-bank/page/18/,866,ANZ Bank,VIC,Melbourne,ANZ Insurance,Level 25  100 Queen Street,013-166
https://www.thebsbnumbers.com/anz-bank/page/18/,867,ANZ Bank,VIC,Melbourne,ANZ Internet Banking NT,18/530 Collins Street,015-312
https://www.thebsbnumbers.com/anz-bank/page/18/,868,ANZ Bank,VIC,Melbourne,ANZ Internet Banking TAS,18/530 Collins Street,017-219
https://www.thebsbnumbers.com/anz-bank/page/18/,869,ANZ Bank,VIC,Melbourne,ANZ Internet Banking WA,18/530 Collins Street,016-339
https://www.thebsbnumbers.com/anz-bank/page/18/,870,ANZ Bank,VIC,Melbourne,ANZ Leasing (Esanda),6/85 Spring Street,013-138
https://www.thebsbnumbers.com/anz-bank/page/18/,871,ANZ Bank,VIC,Melbourne,ANZ Mortgages Direct,18/530 Collins Street,013-049
https://www.thebsbnumbers.com/anz-bank/page/18/,872,ANZ Bank,VIC,Melbourne,ANZ Mortgages Direct,18/530 Collins Street,013-733
https://www.thebsbnumbers.com/anz-bank/page/18/,873,ANZ Bank,VIC,Melbourne,ANZ PB Marketing,Level 2  100 Queen Street,013-306
https://www.thebsbnumbers.com/anz-bank/page/18/,874,ANZ Bank,VIC,Melbourne,ANZ PB Project Vantage,2/100 Queen Street,012-020
https://www.thebsbnumbers.com/anz-bank/page/18/,875,ANZ Bank,VIC,Melbourne,ANZ PB-IB Client Accounts,2/100 Queen Street,013-551
https://www.thebsbnumbers.com/anz-bank/page/18/,876,ANZ Bank,VIC,Melbourne,ANZ Staff Super (Aust) P/L,(NBFI Agency to 014-000),014-909
https://www.thebsbnumbers.com/anz-bank/page/18/,,,,,,,
https://www.thebsbnumbers.com/anz-bank/page/18/,877,ANZ Bank,VIC,Melbourne,ANZ V2 Plus ACT,Locked Bag 3000  Collins St. West,012-941
https://www.thebsbnumbers.com/anz-bank/page/18/,878,ANZ Bank,VIC,Melbourne,ANZ V2 Plus NT,Locked Bag 3000  Collins St. West,015-941
https://www.thebsbnumbers.com/anz-bank/page/18/,879,ANZ Bank,VIC,Melbourne,ANZ V2 Plus Tas,Locked Bag 3000  Collins St. West,017-141
https://www.thebsbnumbers.com/anz-bank/page/18/,880,ANZ Bank,VIC,Melbourne,Asia Pacific,16/595 Collins St,013-527
https://www.thebsbnumbers.com/anz-bank/page/18/,881,ANZ Bank,VIC,Melbourne,Australia Post,111 Bourke St,014-481
https://www.thebsbnumbers.com/anz-bank/page/18/,882,ANZ Bank,VIC,Melbourne,Australia Post ATO,111 Bourke St,014-482
https://www.thebsbnumbers.com/anz-bank/page/18/,883,ANZ Bank,VIC,Melbourne,Backout CBS,17/100 Queen Street,013-098
https://www.thebsbnumbers.com/anz-bank/page/18/,884,ANZ Bank,VIC,Melbourne,Backout Tasman,17/100 Queen Street,013-060
https://www.thebsbnumbers.com/anz-bank/page/18/,885,ANZ Bank,VIC,Melbourne,BB Inner East Melb R Post,2/287 Collins Street,013-085
https://www.thebsbnumbers.com/anz-bank/page/18/,886,ANZ Bank,VIC,Melbourne,BB Inner East Melb S Post,2/287 Collins Street,013-080
https://www.thebsbnumbers.com/anz-bank/page/18/,887,ANZ Bank,VIC,Melbourne,Bell Potter Securities Limited,(NBFI Agency to 013-000),013-986
https://www.thebsbnumbers.com/anz-bank/page/18/,,,,,,,
https://www.thebsbnumbers.com/anz-bank/page/18/,888,ANZ Bank,VIC,Melbourne,BIS Cleanaway Ltd - C&I,(NBFI Agency to 014-000),014-985
https://www.thebsbnumbers.com/anz-bank/page/18/,889,ANZ Bank,VIC,Melbourne,Bourke St Mall,309-325 Bourke St Mall,013-132
https://www.thebsbnumbers.com/anz-bank/page/18/,890,ANZ Bank,VIC,Melbourne,Bus Bank Commercial Real Estate,3/287 Collins Street,013-808
https://www.thebsbnumbers.com/anz-bank/page/18/,891,ANZ Bank,VIC,Melbourne,Bus Bank Corporate Region VIC,8/287 Collins Street,013-557
https://www.thebsbnumbers.com/anz-bank/page/18/,892,ANZ Bank,VIC,Melbourne,Bus Bank Head Office,13/100 Queen Street,013-116
https://www.thebsbnumbers.com/anz-bank/page/18/,893,ANZ Bank,VIC,Melbourne,Bus Bank Vic Admin,1/287 Collins Street,013-043
https://www.thebsbnumbers.com/anz-bank/page/18/,894,ANZ Bank,VIC,Melbourne,Busserv Hlth - Group Credit Mgmt,13/100 Queen Street,013-693
https://www.thebsbnumbers.com/anz-bank/page/18/,895,ANZ Bank,VIC,Melbourne,Call Centre Banking,12/452 Flinders Street,017-220
https://www.thebsbnumbers.com/anz-bank/page/18/,896,ANZ Bank,VIC,Melbourne,Cleanaway Pty Ltd,7/600 St Kilda Road,014-985
https://www.thebsbnumbers.com/anz-bank/page/18/,897,ANZ Bank,VIC,Melbourne,Closed,Refer to BSB 013-040 05/12,013-165
https://www.thebsbnumbers.com/anz-bank/page/18/,898,ANZ Bank,VIC,Melbourne,Commercial Banking,2/100 QueenSt,013-591
https://www.thebsbnumbers.com/anz-bank/page/18/,899,ANZ Bank,VIC,Melbourne,Corp Prop NSW,3/100 Queen Street,012-802
https://www.thebsbnumbers.com/anz-bank/page/18/,900,ANZ Bank,VIC,Melbourne,Corp Prop Qld,3/100 Queen Street,014-802
https://www.thebsbnumbers.com/anz-bank/page/19/,,,,,,,
https://www.thebsbnumbers.com/anz-bank/page/19/,901,ANZ Bank,VIC,Melbourne,Corp Prop SA,3/100 Queen Street,015-502
https://www.thebsbnumbers.com/anz-bank/page/19/,902,ANZ Bank,VIC,Melbourne,Corp Prop Vic,3/100 Queen Street,013-802
https://www.thebsbnumbers.com/anz-bank/page/19/,903,ANZ Bank,VIC,Melbourne,Corp Prop WA,3/100 Queen Street,016-802
https://www.thebsbnumbers.com/anz-bank/page/19/,904,ANZ Bank,VIC,Melbourne,Corp Risk Management,30/100 Queen Street,013-813
https://www.thebsbnumbers.com/anz-bank/page/19/,905,ANZ Bank,VIC,Melbourne,Corporate & Structured Finance,17/530 Collins Street,013-076
https://www.thebsbnumbers.com/anz-bank/page/19/,906,ANZ Bank,VIC,Melbourne,Corporate & Structured Finance,17/530 Collins Street,013-077
https://www.thebsbnumbers.com/anz-bank/page/19/,907,ANZ Bank,VIC,Melbourne,Corporate & Structured Finance,17/530 Collins Street,013-095
https://www.thebsbnumbers.com/anz-bank/page/19/,908,ANZ Bank,VIC,Melbourne,Corporate & Structured Finance,17/530 Collins Street,013-108
https://www.thebsbnumbers.com/anz-bank/page/19/,909,ANZ Bank,VIC,Melbourne,Corporate Banking,2/100 Queen St,013-072
https://www.thebsbnumbers.com/anz-bank/page/19/,910,ANZ Bank,VIC,Melbourne,Corporate Banking C6,1/96 Bell Street,013-066
https://www.thebsbnumbers.com/anz-bank/page/19/,911,ANZ Bank,VIC,Melbourne,Corporate Banking C8,8/287 Collins Street,013-037
https://www.thebsbnumbers.com/anz-bank/page/19/,912,ANZ Bank,VIC,Melbourne,Corporate Financial Services,7/287 Collins Street,013-062
https://www.thebsbnumbers.com/anz-bank/page/19/,913,ANZ Bank,VIC,Melbourne,CSF Relationship Bus Service,530 Collins Street,013-480
https://www.thebsbnumbers.com/anz-bank/page/19/,,,,,,,
https://www.thebsbnumbers.com/anz-bank/page/19/,914,ANZ Bank,VIC,Melbourne,Customers Funds Transfer,19/55 Collins Street,013-090
https://www.thebsbnumbers.com/anz-bank/page/19/,915,ANZ Bank,VIC,Melbourne,Domestic Guarantees,Level 22  100 Queen St,013-579
https://www.thebsbnumbers.com/anz-bank/page/19/,916,ANZ Bank,VIC,Melbourne,Domestic Guarantees (BB),22/100 Queen St,013-115
https://www.thebsbnumbers.com/anz-bank/page/19/,917,ANZ Bank,VIC,Melbourne,Domestic Guarantees (RCB),22/100 Queen St,012-070
https://www.thebsbnumbers.com/anz-bank/page/19/,918,ANZ Bank,VIC,Melbourne,Domestic Guarantees Revenue,Level 20  55 Collins St,013-418
https://www.thebsbnumbers.com/anz-bank/page/19/,919,ANZ Bank,VIC,Melbourne,Esanda,287 Collins Street,013-103
https://www.thebsbnumbers.com/anz-bank/page/19/,920,ANZ Bank,VIC,Melbourne,Esanda,85 Spring Street,013-105
https://www.thebsbnumbers.com/anz-bank/page/19/,921,ANZ Bank,VIC,Melbourne,Esanda Cent ANZ,11/85 Spring Street,015-155
https://www.thebsbnumbers.com/anz-bank/page/19/,922,ANZ Bank,VIC,Melbourne,Esanda Cent Broker,11/85 Spring Street,015-157
https://www.thebsbnumbers.com/anz-bank/page/19/,923,ANZ Bank,VIC,Melbourne,Esanda Cent Dealer,11/85 Spring Street,015-151
https://www.thebsbnumbers.com/anz-bank/page/19/,924,ANZ Bank,VIC,Melbourne,Esanda Cent E-Comm,11/85 Spring Street,015-156
https://www.thebsbnumbers.com/anz-bank/page/19/,925,ANZ Bank,VIC,Melbourne,Esanda Cent Teles,11/85 Spring Street,015-153
https://www.thebsbnumbers.com/anz-bank/page/19/,926,ANZ Bank,VIC,Melbourne,Esanda Cent. Relat.,11/85 Spring Street,015-154
https://www.thebsbnumbers.com/anz-bank/page/19/,,,,,,,
https://www.thebsbnumbers.com/anz-bank/page/19/,927,ANZ Bank,VIC,Melbourne,Esanda Finance Head Office,85 Spring Street,013-194
https://www.thebsbnumbers.com/anz-bank/page/19/,928,ANZ Bank,VIC,Melbourne,Esanda NSW ANZ,11/85 Spring Street,012-155
https://www.thebsbnumbers.com/anz-bank/page/19/,929,ANZ Bank,VIC,Melbourne,Esanda NSW Broker,11/85 Spring Street,012-152
https://www.thebsbnumbers.com/anz-bank/page/19/,930,ANZ Bank,VIC,Melbourne,Esanda NSW Dealer,11/85 Spring Street,012-151
https://www.thebsbnumbers.com/anz-bank/page/19/,931,ANZ Bank,VIC,Melbourne,Esanda NSW E-Comm,11/85 Spring Street,012-156
https://www.thebsbnumbers.com/anz-bank/page/19/,932,ANZ Bank,VIC,Melbourne,Esanda Nthn ANZ,11/85 Spring Street,014-155
https://www.thebsbnumbers.com/anz-bank/page/19/,933,ANZ Bank,VIC,Melbourne,Esanda Nthn Broker,11/85 Spring Street,014-152
https://www.thebsbnumbers.com/anz-bank/page/19/,934,ANZ Bank,VIC,Melbourne,Esanda Nthn Dealer,11/85 Spring Street,014-151
https://www.thebsbnumbers.com/anz-bank/page/19/,935,ANZ Bank,VIC,Melbourne,Esanda Nthn Teles,11/85 Spring Street,014-153
https://www.thebsbnumbers.com/anz-bank/page/19/,936,ANZ Bank,VIC,Melbourne,Esanda Sthn ANZ,11/85 Spring Street,013-155
https://www.thebsbnumbers.com/anz-bank/page/19/,937,ANZ Bank,VIC,Melbourne,Esanda Sthn Broker,11/85 Spring Street,013-152
https://www.thebsbnumbers.com/anz-bank/page/19/,,,,,,,
https://www.thebsbnumbers.com/anz-bank/page/19/,938,ANZ Bank,VIC,Melbourne,Esanda Sthn CBD SL,11/85 Spring Street,013-153
https://www.thebsbnumbers.com/anz-bank/page/19/,939,ANZ Bank,VIC,Melbourne,Esanda Sthn Dealer,11/85 Spring Street,013-151
https://www.thebsbnumbers.com/anz-bank/page/19/,940,ANZ Bank,VIC,Melbourne,Esanda Sthn E-Comm,11/85 Spring Street,013-156
https://www.thebsbnumbers.com/anz-bank/page/19/,941,ANZ Bank,VIC,Melbourne,Esanda Sthn Relati'p,11/85 Spring Street,013-150
https://www.thebsbnumbers.com/anz-bank/page/19/,942,ANZ Bank,VIC,Melbourne,Esanda Term Deposit,Private Bag 5 Collins St West,013-248
https://www.thebsbnumbers.com/anz-bank/page/19/,943,ANZ Bank,VIC,Melbourne,Esanda VIC Region,85 Spring Street,013-009
https://www.thebsbnumbers.com/anz-bank/page/19/,944,ANZ Bank,VIC,Melbourne,Esanda West ANZ,11/85 Spring Street,016-155
https://www.thebsbnumbers.com/anz-bank/page/19/,945,ANZ Bank,VIC,Melbourne,Esanda West Broker,11/85 Spring Street,016-152
https://www.thebsbnumbers.com/anz-bank/page/19/,946,ANZ Bank,VIC,Melbourne,Esanda West Dealer,11/85 Spring Street,016-151
https://www.thebsbnumbers.com/anz-bank/page/19/,947,ANZ Bank,VIC,Melbourne,Esanda West E-Comm,11/85 Spring Street,016-156
https://www.thebsbnumbers.com/anz-bank/page/19/,948,ANZ Bank,VIC,Melbourne,Esanda West Teles,11/85 Spring Street,016-154
https://www.thebsbnumbers.com/anz-bank/page/19/,949,ANZ Bank,VIC,Melbourne,FCA Head Office,85 Spring Street,013-195
https://www.thebsbnumbers.com/anz-bank/page/19/,950,ANZ Bank,VIC,Melbourne,Fin Inst Govt - Group Credit Mgmt,13/100 Queen Street,013-691
https://www.thebsbnumbers.com/anz-bank/page/20/,,,,,,,
https://www.thebsbnumbers.com/anz-bank/page/20/,951,ANZ Bank,VIC,Melbourne,First Home Saver Account,14/530 Collins Street,013-293
https://www.thebsbnumbers.com/anz-bank/page/20/,952,ANZ Bank,VIC,Melbourne,Food Agri Bus - Group Credit Mgmt,13/100 Queen Street,013-692
https://www.thebsbnumbers.com/anz-bank/page/20/,953,ANZ Bank,VIC,Melbourne,Global Asset Finance,833 Collins St,013-563
https://www.thebsbnumbers.com/anz-bank/page/20/,954,ANZ Bank,VIC,Melbourne,Global Cards,11/452 Flinders Street,013-011
https://www.thebsbnumbers.com/anz-bank/page/20/,955,ANZ Bank,VIC,Melbourne,Global Cards - Finance,Level 11  452 Flinders Street,013-029
https://www.thebsbnumbers.com/anz-bank/page/20/,956,ANZ Bank,VIC,Melbourne,Global Markets Operations,16/100 Queen Street,013-033
https://www.thebsbnumbers.com/anz-bank/page/20/,957,ANZ Bank,VIC,Melbourne,Group Headquarters,6/100 Queen Street,013-997
https://www.thebsbnumbers.com/anz-bank/page/20/,958,ANZ Bank,VIC,Melbourne,Healthscope Ltd,(NBFI Agency to 016-000),016-906
https://www.thebsbnumbers.com/anz-bank/page/20/,959,ANZ Bank,VIC,Melbourne,Healthscope Ltd,(NBFI Agency to 017-000),017-988
https://www.thebsbnumbers.com/anz-bank/page/20/,960,ANZ Bank,VIC,Melbourne,HPFS NSW,ANZ-LSAF  17/530 Collins Street,012-089
https://www.thebsbnumbers.com/anz-bank/page/20/,961,ANZ Bank,VIC,Melbourne,HPFS QLD,ANZ-LSAF  17/530 Collins Street,014-024
https://www.thebsbnumbers.com/anz-bank/page/20/,962,ANZ Bank,VIC,Melbourne,HPFS SA,ANZ-LSAF  17/530 Collins Street,015-105
https://www.thebsbnumbers.com/anz-bank/page/20/,963,ANZ Bank,VIC,Melbourne,HPFS VIC,ANZ-LSAF  17/530 Collins Street,013-124
https://www.thebsbnumbers.com/anz-bank/page/20/,,,,,,,
https://www.thebsbnumbers.com/anz-bank/page/20/,964,ANZ Bank,VIC,Melbourne,HPFS WA,ANZ-LSAF  17/530 Collins Street,016-022
https://www.thebsbnumbers.com/anz-bank/page/20/,965,ANZ Bank,VIC,Melbourne,I & I Products FP,25/100 Queen Street,017-068
https://www.thebsbnumbers.com/anz-bank/page/20/,966,ANZ Bank,VIC,Melbourne,Inner East Melbourne C-Posts,2/100 Queen Street,013-120
https://www.thebsbnumbers.com/anz-bank/page/20/,967,ANZ Bank,VIC,Melbourne,Ins Core Consumer,530 Collins Street,012-343
https://www.thebsbnumbers.com/anz-bank/page/20/,968,ANZ Bank,VIC,Melbourne,Ins Core Fig,530 Collins Street,012-229
https://www.thebsbnumbers.com/anz-bank/page/20/,969,ANZ Bank,VIC,Melbourne,Ins Core Food-Agri,530 Collins Street,012-240
https://www.thebsbnumbers.com/anz-bank/page/20/,970,ANZ Bank,VIC,Melbourne,Ins Core Industrial,530 Collins Street,012-250
https://www.thebsbnumbers.com/anz-bank/page/20/,971,ANZ Bank,VIC,Melbourne,Ins Core Property,530 Collins Street,012-508
https://www.thebsbnumbers.com/anz-bank/page/20/,972,ANZ Bank,VIC,Melbourne,Ins Core Resources,530 Collins Street,012-068
https://www.thebsbnumbers.com/anz-bank/page/20/,973,ANZ Bank,VIC,Melbourne,Ins Core Struc Prop Fin,530 Collins Street,012-206
https://www.thebsbnumbers.com/anz-bank/page/20/,974,ANZ Bank,VIC,Melbourne,Ins Core Utilities,530 Collins Street,012-248
https://www.thebsbnumbers.com/anz-bank/page/20/,975,ANZ Bank,VIC,Melbourne,Ins FIG NSW Govt,530 Collins Street,012-329
https://www.thebsbnumbers.com/anz-bank/page/20/,976,ANZ Bank,VIC,Melbourne,International Payments,75 Dorcas Street,013-042
https://www.thebsbnumbers.com/anz-bank/page/20/,,,,,,,
https://www.thebsbnumbers.com/anz-bank/page/20/,977,ANZ Bank,VIC,Melbourne,International Payments,Lobby  100 Queen Street,013-946
https://www.thebsbnumbers.com/anz-bank/page/20/,978,ANZ Bank,VIC,Melbourne,International Payments Central,21/530 Collins Street,013-413
https://www.thebsbnumbers.com/anz-bank/page/20/,979,ANZ Bank,VIC,Melbourne,International Services,20/55 Collins Street,013-073
https://www.thebsbnumbers.com/anz-bank/page/20/,980,ANZ Bank,VIC,Melbourne,Lending Services-Commercial,Level 2/100 Queen St,013-753
https://www.thebsbnumbers.com/anz-bank/page/20/,981,ANZ Bank,VIC,Melbourne,Linear Asset Management Pty Ltd,Lvl 9 252 Flinders St,013-918
https://www.thebsbnumbers.com/anz-bank/page/20/,982,ANZ Bank,VIC,Melbourne,LP IB TMET,530 Collins Street,012-115
https://www.thebsbnumbers.com/anz-bank/page/20/,983,ANZ Bank,VIC,Melbourne,Manufacture - Group Credit Mgmt,13/100 Queen Street,013-686
https://www.thebsbnumbers.com/anz-bank/page/20/,984,ANZ Bank,VIC,Melbourne,Margin Lending Online Investment,Level 15  100 Queen Street,013-158
https://www.thebsbnumbers.com/anz-bank/page/20/,985,ANZ Bank,VIC,Melbourne,Melbourne,420 St Kilda Road,013-423
https://www.thebsbnumbers.com/anz-bank/page/20/,986,ANZ Bank,VIC,Melbourne,Melbourne (353 Elizabeth),353 Elizabeth Street,013-040
https://www.thebsbnumbers.com/anz-bank/page/20/,987,ANZ Bank,VIC,Melbourne,Melbourne (388 Collins),388 Collins Street,013-006
https://www.thebsbnumbers.com/anz-bank/page/20/,,,,,,,
https://www.thebsbnumbers.com/anz-bank/page/20/,988,ANZ Bank,VIC,Melbourne,Melbourne (55 Collins),Ground Fl. 55 Collins Street,013-030
https://www.thebsbnumbers.com/anz-bank/page/20/,989,ANZ Bank,VIC,Melbourne,Melbourne (91 William),91 William Street,013-035
https://www.thebsbnumbers.com/anz-bank/page/20/,990,ANZ Bank,VIC,Melbourne,Melbourne (Royal),Royal Bank 293 Collins Street,013-128
https://www.thebsbnumbers.com/anz-bank/page/20/,991,ANZ Bank,VIC,Melbourne,Melbourne (State Admin),23-24/530 Collins Street,013-010
https://www.thebsbnumbers.com/anz-bank/page/20/,992,ANZ Bank,VIC,Melbourne,Merged,Refer to BSB 013-030 04/14,013-013
https://www.thebsbnumbers.com/anz-bank/page/20/,993,ANZ Bank,VIC,Melbourne,MICE NSW,ANZ-LSAF  17/530 Collins Street,012-091
https://www.thebsbnumbers.com/anz-bank/page/20/,994,ANZ Bank,VIC,Melbourne,MICE SA,ANZ-LSAF  17/530 Collins Street,015-003
https://www.thebsbnumbers.com/anz-bank/page/20/,995,ANZ Bank,VIC,Melbourne,MICE VIC,ANZ-LSAF  17/530 Collins Street,013-131
https://www.thebsbnumbers.com/anz-bank/page/20/,996,ANZ Bank,VIC,Melbourne,MICE WA,ANZ-LSAF  17/530 Collins Street,016-027
https://www.thebsbnumbers.com/anz-bank/page/20/,997,ANZ Bank,VIC,Melbourne,Northern Territory Non Prime,85 Spring Street,015-051
https://www.thebsbnumbers.com/anz-bank/page/20/,998,ANZ Bank,VIC,Melbourne,Origin Aust Capital Territory,14/100 Queen Street,012-667
https://www.thebsbnumbers.com/anz-bank/page/20/,999,ANZ Bank,VIC,Melbourne,Origin New South Wales,14/100 Queen Street,012-666
https://www.thebsbnumbers.com/anz-bank/page/20/,1000,ANZ Bank,VIC,Melbourne,Origin Northern Territory,14/100 Queen Street,015-667
https://www.thebsbnumbers.com/anz-bank/page/21/,,,,,,,
https://www.thebsbnumbers.com/anz-bank/page/21/,1001,ANZ Bank,VIC,Melbourne,Origin Queensland,14/100 Queen Street,014-666
https://www.thebsbnumbers.com/anz-bank/page/21/,1002,ANZ Bank,VIC,Melbourne,Origin South Australia,14/100 Queen Street,015-666
https://www.thebsbnumbers.com/anz-bank/page/21/,1003,ANZ Bank,VIC,Melbourne,Origin Tasmania,14/100 Queen Street,017-666
https://www.thebsbnumbers.com/anz-bank/page/21/,1004,ANZ Bank,VIC,Melbourne,Origin Victoria,14/100 Queen Street,013-666
https://www.thebsbnumbers.com/anz-bank/page/21/,1005,ANZ Bank,VIC,Melbourne,Origin Western Australia,14/100 Queen Street,016-666
https://www.thebsbnumbers.com/anz-bank/page/21/,1006,ANZ Bank,VIC,Melbourne,Powerwrap Limited,(NBFI Agency to 013-000),013-985
https://www.thebsbnumbers.com/anz-bank/page/21/,1007,ANZ Bank,VIC,Melbourne,Private Banking,Level 44  55 Collins St,013-606
https://www.thebsbnumbers.com/anz-bank/page/21/,1008,ANZ Bank,VIC,Melbourne,Relationship Banking Southern,16/530 Collins Street,013-056
https://www.thebsbnumbers.com/anz-bank/page/21/,1009,ANZ Bank,VIC,Melbourne,Resources - Group Credit Mgmt,13/100 Queen Street,013-683
https://www.thebsbnumbers.com/anz-bank/page/21/,1010,ANZ Bank,VIC,Melbourne,Resources VIC,16/530 Collins Street,013-568
https://www.thebsbnumbers.com/anz-bank/page/21/,1011,ANZ Bank,VIC,Melbourne,Retail-Dist - Group Credit Mgmt,13/100 Queen Street,013-687
https://www.thebsbnumbers.com/anz-bank/page/21/,1012,ANZ Bank,VIC,Melbourne,Settlements & Control,Level 11  452 Flinders Street,013-059
https://www.thebsbnumbers.com/anz-bank/page/21/,1013,ANZ Bank,VIC,Melbourne,Small Business Operations,13/452 Flinders Street,013-594
https://www.thebsbnumbers.com/anz-bank/page/21/,,,,,,,
https://www.thebsbnumbers.com/anz-bank/page/21/,1014,ANZ Bank,VIC,Melbourne,SMEDC,Level 17  530 Collins Street,012-004
https://www.thebsbnumbers.com/anz-bank/page/21/,1015,ANZ Bank,VIC,Melbourne,Spotless Facility Services Pty Ltd,(NBFI Agency to 013-000),013-909
https://www.thebsbnumbers.com/anz-bank/page/21/,1016,ANZ Bank,VIC,Melbourne,Spotless Facility Services Pty Ltd,(NBFI Agency to 013-000),013-911
https://www.thebsbnumbers.com/anz-bank/page/21/,1017,ANZ Bank,VIC,Melbourne,State Securities Centre,6/530 Collins Street,013-188
https://www.thebsbnumbers.com/anz-bank/page/21/,1018,ANZ Bank,VIC,Melbourne,SWIFT & Messaging,16/55 Collins Street,013-091
https://www.thebsbnumbers.com/anz-bank/page/21/,1019,ANZ Bank,VIC,Melbourne,Sydney N & W LSC,Level 9  452 Flinders Street,012-161
https://www.thebsbnumbers.com/anz-bank/page/21/,1020,ANZ Bank,VIC,Melbourne,Telcos Media - Group Credit Mgmt,13/100 Queen Street,013-689
https://www.thebsbnumbers.com/anz-bank/page/21/,1021,ANZ Bank,VIC,Melbourne,Utlities - Group Credit Mgmt,13/100 Queen Street,013-685
https://www.thebsbnumbers.com/anz-bank/page/21/,1022,ANZ Bank,VIC,Melbourne,V2 Plus - Victoria,388 Collins Street,013-141
https://www.thebsbnumbers.com/anz-bank/page/21/,1023,ANZ Bank,VIC,Melbourne,V2 Plus Service Centre,Locked Bag 3000 Collins St West,013-197
https://www.thebsbnumbers.com/anz-bank/page/21/,1024,ANZ Bank,VIC,Melbourne,Vic-Health Specialisation,Level 1/287 Collins Street,013-178
https://www.thebsbnumbers.com/anz-bank/page/21/,1025,ANZ Bank,VIC,Melton,Melton,Shop 111 Woodgrove SC 533 High St,013-723
https://www.thebsbnumbers.com/anz-bank/page/21/,1026,ANZ Bank,VIC,Mentone,Closed,Refer to BSB 013-352 - 03/11,013-217
https://www.thebsbnumbers.com/anz-bank/page/21/,,,,,,,
https://www.thebsbnumbers.com/anz-bank/page/21/,1027,ANZ Bank,VIC,Mentone,Mentone,81&83 Balcombe Rd Mentone VIC 3194,013-352
https://www.thebsbnumbers.com/anz-bank/page/21/,1028,ANZ Bank,VIC,Merlynston,Merged,Refer to BSB 013-270 12/11,013-353
https://www.thebsbnumbers.com/anz-bank/page/21/,1029,ANZ Bank,VIC,Mildura,Mildura,Cnr Deakin Avenue & Eighth Street,013-725
https://www.thebsbnumbers.com/anz-bank/page/21/,1030,ANZ Bank,VIC,Mildura,Mildura South,Mildura Centre Plaza,013-163
https://www.thebsbnumbers.com/anz-bank/page/21/,1031,ANZ Bank,VIC,Mildura,Riverland & Mallee Cache,Cnr Deakin Ave & Eighth St,013-543
https://www.thebsbnumbers.com/anz-bank/page/21/,1032,ANZ Bank,VIC,Mitcham,Mitcham,540 Whitehorse Road,013-384
https://www.thebsbnumbers.com/anz-bank/page/21/,1033,ANZ Bank,VIC,Moe,Moe,Cnr Albert and Moore Streets,013-735
https://www.thebsbnumbers.com/anz-bank/page/21/,1034,ANZ Bank,VIC,Monbulk,Monbulk,90 Main Street,013-736
https://www.thebsbnumbers.com/anz-bank/page/21/,1035,ANZ Bank,VIC,Moonee Ponds,Moonee Ponds,75 Puckle Street,013-497
https://www.thebsbnumbers.com/anz-bank/page/21/,1036,ANZ Bank,VIC,Mooroopna,Mooroopna,102 McLennan Street,013-737
https://www.thebsbnumbers.com/anz-bank/page/21/,1037,ANZ Bank,VIC,Mordialloc,Mordialloc,541 Main Street,013-302
https://www.thebsbnumbers.com/anz-bank/page/21/,,,,,,,
https://www.thebsbnumbers.com/anz-bank/page/21/,1038,ANZ Bank,VIC,Mornington,Mornington,100 Main Street,013-740
https://www.thebsbnumbers.com/anz-bank/page/21/,1039,ANZ Bank,VIC,Mortlake,Mortlake,113 Dunlop Street,013-743
https://www.thebsbnumbers.com/anz-bank/page/21/,1040,ANZ Bank,VIC,Morwell,Morwell,184 Commercial Road,013-745
https://www.thebsbnumbers.com/anz-bank/page/21/,1041,ANZ Bank,VIC,Mount Beauty,Mount Beauty,24 Hollonds Street,013-747
https://www.thebsbnumbers.com/anz-bank/page/21/,1042,ANZ Bank,VIC,Mount Eliza,Mount Eliza,96 Mount Eliza Way,013-396
https://www.thebsbnumbers.com/anz-bank/page/21/,1043,ANZ Bank,VIC,Mount Waverley,Merged,Refer to BSB 013-366 12/11,013-471
https://www.thebsbnumbers.com/anz-bank/page/21/,1044,ANZ Bank,VIC,Mount Waverley,Mount Waverley,43 Hamilton Place,013-366
https://www.thebsbnumbers.com/anz-bank/page/21/,1045,ANZ Bank,VIC,Mulgrave,Brandon Park,Shop 54  Brandon Park Shpg Centre,013-231
https://www.thebsbnumbers.com/anz-bank/page/21/,1046,ANZ Bank,VIC,Mulgrave,Melbourne SE Zone,700 Springvale Road,013-237
https://www.thebsbnumbers.com/anz-bank/page/21/,1047,ANZ Bank,VIC,Mulgrave,Waverley Gardens,Shop 41 Cnr Police & Jackson Roads,013-271
https://www.thebsbnumbers.com/anz-bank/page/21/,1048,ANZ Bank,VIC,Myrtleford,Myrtleford,23 Clyde Street,013-749
https://www.thebsbnumbers.com/anz-bank/page/21/,1049,ANZ Bank,VIC,Niddrie,Merged,Refer to BSB 013-373 02/16,013-274
https://www.thebsbnumbers.com/anz-bank/page/21/,1050,ANZ Bank,VIC,Niddrie,Niddrie,S16  383 Keilor Rd,013-373
https://www.thebsbnumbers.com/anz-bank/page/22/,,,,,,,
https://www.thebsbnumbers.com/anz-bank/page/22/,1051,ANZ Bank,VIC,North Melbourne,North Melbourne,77 Errol Street,013-377
https://www.thebsbnumbers.com/anz-bank/page/22/,1052,ANZ Bank,VIC,Northcote,Northcote,409 High Street,013-375
https://www.thebsbnumbers.com/anz-bank/page/22/,1053,ANZ Bank,VIC,Northland Centre,Northland,Shop 22  Northland Shopping Centre,013-381
https://www.thebsbnumbers.com/anz-bank/page/22/,1054,ANZ Bank,VIC,Numurkah,Closed,Refer to BSB 013-755 - 07/11,013-750
https://www.thebsbnumbers.com/anz-bank/page/22/,1055,ANZ Bank,VIC,Numurkah,Numurkah,54 Melville Street,013-755
https://www.thebsbnumbers.com/anz-bank/page/22/,1056,ANZ Bank,VIC,Oakleigh,Oakleigh,27 Eaton Street,013-380
https://www.thebsbnumbers.com/anz-bank/page/22/,1057,ANZ Bank,VIC,Ocean Grove,Ocean Grove,72 The Terrace,013-761
https://www.thebsbnumbers.com/anz-bank/page/22/,1058,ANZ Bank,VIC,Ouyen,Ouyen,Cnr Oke and Pickering Streets,013-756
https://www.thebsbnumbers.com/anz-bank/page/22/,1059,ANZ Bank,VIC,Pakenham,Pakenham,140 Main Street,013-757
https://www.thebsbnumbers.com/anz-bank/page/22/,1060,ANZ Bank,VIC,Parkville,HealthScope,(NBFI Agency to 014-000),014-908
https://www.thebsbnumbers.com/anz-bank/page/22/,1061,ANZ Bank,VIC,Patterson Lakes,Patterson Lakes,Shp 21  Lakeview Shopping Centre,013-472
https://www.thebsbnumbers.com/anz-bank/page/22/,1062,ANZ Bank,VIC,Port Fairy,Port Fairy,24 Sackville Street,013-760
https://www.thebsbnumbers.com/anz-bank/page/22/,1063,ANZ Bank,VIC,Port Melbourne,Port Melbourne,158 Bay St,013-395
https://www.thebsbnumbers.com/anz-bank/page/22/,,,,,,,
https://www.thebsbnumbers.com/anz-bank/page/22/,1064,ANZ Bank,VIC,Portland,Portland,44 Percy Street,013-762
https://www.thebsbnumbers.com/anz-bank/page/22/,1065,ANZ Bank,VIC,Prahran,Prahran,Pran Central SC 325 Chapel St,013-400
https://www.thebsbnumbers.com/anz-bank/page/22/,1066,ANZ Bank,VIC,Preston,Corporate Nth Region,1/96 Bell Street,013-468
https://www.thebsbnumbers.com/anz-bank/page/22/,1067,ANZ Bank,VIC,Preston,Preston,457 High Street,013-405
https://www.thebsbnumbers.com/anz-bank/page/22/,1068,ANZ Bank,VIC,Queenscliff,Queenscliff,71 Hesse Street,013-765
https://www.thebsbnumbers.com/anz-bank/page/22/,1069,ANZ Bank,VIC,Reservoir,Reservoir,291 Spring Street,013-408
https://www.thebsbnumbers.com/anz-bank/page/22/,1070,ANZ Bank,VIC,Richmond,Inner East Melbourne C-Posts,3-543 Bridge Road,013-119
https://www.thebsbnumbers.com/anz-bank/page/22/,1071,ANZ Bank,VIC,Richmond,Payments Operations,570 Church Street,013-024
https://www.thebsbnumbers.com/anz-bank/page/22/,1072,ANZ Bank,VIC,Richmond,Richmond (133),240 Swan Street,013-410
https://www.thebsbnumbers.com/anz-bank/page/22/,1073,ANZ Bank,VIC,Richmond,Richmond (Bridge Rd),"Tenancy 2, 143-151 Bridge Rd",013-412
https://www.thebsbnumbers.com/anz-bank/page/22/,1074,ANZ Bank,VIC,Richmond,TPC Business Bank Support,2/570 Church Street,013-052
https://www.thebsbnumbers.com/anz-bank/page/22/,1075,ANZ Bank,VIC,Richmond,TPC Business Bank Support Tas,2/570 Church Street,017-052
https://www.thebsbnumbers.com/anz-bank/page/22/,1076,ANZ Bank,VIC,Richmond,TPC Ops Vic/Tas,2/570 Church Street,017-005
https://www.thebsbnumbers.com/anz-bank/page/22/,,,,,,,
https://www.thebsbnumbers.com/anz-bank/page/22/,1077,ANZ Bank,VIC,Richmond,TPC Support Vic/Tas,2/570 Church Street,013-133
https://www.thebsbnumbers.com/anz-bank/page/22/,1078,ANZ Bank,VIC,Richmond,TPC Support Vic/Tas,2/570 Church Street,017-059
https://www.thebsbnumbers.com/anz-bank/page/22/,1079,ANZ Bank,VIC,Richmond,TPC Vic/Tas,2/570 Church Street,013-061
https://www.thebsbnumbers.com/anz-bank/page/22/,1080,ANZ Bank,VIC,Richmond,TPC Vic/Tas,2/570 Church Street,017-061
https://www.thebsbnumbers.com/anz-bank/page/22/,1081,ANZ Bank,VIC,Richmond,Transaction Processing Support,2/570 Church Street,013-106
https://www.thebsbnumbers.com/anz-bank/page/22/,1082,ANZ Bank,VIC,Richmond,Voucher Processing Srvcs VIC&TAS,2/570 Church Street,013-005
https://www.thebsbnumbers.com/anz-bank/page/22/,1083,ANZ Bank,VIC,Ringwood,Closed,Refer to BSB 013-414 09/13,013-507
https://www.thebsbnumbers.com/anz-bank/page/22/,1084,ANZ Bank,VIC,Ringwood,Corporate Banking Eastern Region,1/91 Maroondah Highway,013-294
https://www.thebsbnumbers.com/anz-bank/page/22/,1085,ANZ Bank,VIC,Ringwood,Corporate Banking Vic Prov & Tas,1/91 Maroondah Highway,013-668
https://www.thebsbnumbers.com/anz-bank/page/22/,1086,ANZ Bank,VIC,Ringwood,Eastland,"Shop L37-38, 171-175 Maroondah Hwy",013-414
https://www.thebsbnumbers.com/anz-bank/page/22/,1087,ANZ Bank,VIC,Ringwood,Ringwood North,190 Warrandyte Road,013-403
https://www.thebsbnumbers.com/anz-bank/page/22/,,,,,,,
https://www.thebsbnumbers.com/anz-bank/page/22/,1088,ANZ Bank,VIC,Robinvale,Robinvale,71 Perrin Street,013-768
https://www.thebsbnumbers.com/anz-bank/page/22/,1089,ANZ Bank,VIC,Rochester,Rochester,35 Moore Street,013-770
https://www.thebsbnumbers.com/anz-bank/page/22/,1090,ANZ Bank,VIC,Rosebud,Rosebud,1095 Point Nepean Road,013-775
https://www.thebsbnumbers.com/anz-bank/page/22/,1091,ANZ Bank,VIC,Rowville,Stud Park Shopping Centre,Shop 35 Stud Road,013-479
https://www.thebsbnumbers.com/anz-bank/page/22/,1092,ANZ Bank,VIC,Roxburgh Park,Roxburgh Park,ShRP-01 Roxburgh Park250Somerton Rd,013-226
https://www.thebsbnumbers.com/anz-bank/page/22/,1093,ANZ Bank,VIC,Sale,Sale,255 Raymond Street,013-795
https://www.thebsbnumbers.com/anz-bank/page/22/,1094,ANZ Bank,VIC,Sebastopol,Sebastopol,56 Albert Street,013-799
https://www.thebsbnumbers.com/anz-bank/page/22/,1095,ANZ Bank,VIC,Seymour,Seymour,Seymour Cntrl S/C 4/20 Tallarook St,013-661
https://www.thebsbnumbers.com/anz-bank/page/22/,1096,ANZ Bank,VIC,Shepparton,Shepparton,261 Wyndham Street,013-805
https://www.thebsbnumbers.com/anz-bank/page/22/,1097,ANZ Bank,VIC,Shepparton,Vic Central North Cache,261 Wyndham St,013-546
https://www.thebsbnumbers.com/anz-bank/page/22/,1098,ANZ Bank,VIC,Somerville,Merged,Refer to BSB 013-279 02/16,013-658
https://www.thebsbnumbers.com/anz-bank/page/22/,1099,ANZ Bank,VIC,Somerville,Somerville,17 Eramosa Road West,013-279
https://www.thebsbnumbers.com/anz-bank/page/22/,1100,ANZ Bank,VIC,South Melbourne,ANZ Direct Sales,Dorcas St,013-039
https://www.thebsbnumbers.com/anz-bank/page/23/,,,,,,,
https://www.thebsbnumbers.com/anz-bank/page/23/,1101,ANZ Bank,VIC,South Melbourne,ANZ E Trade Support,6/75 Dorcas Street,012-012
https://www.thebsbnumbers.com/anz-bank/page/23/,1102,ANZ Bank,VIC,South Melbourne,Banking Producst WA Internet,Level 7  75 Dorcas Street,016-125
https://www.thebsbnumbers.com/anz-bank/page/23/,1103,ANZ Bank,VIC,South Melbourne,Banking Product SA,7/75 Dorcas Street,015-045
https://www.thebsbnumbers.com/anz-bank/page/23/,1104,ANZ Bank,VIC,South Melbourne,Banking Products ACT Internet,Level 7  75 Dorcas Street,012-925
https://www.thebsbnumbers.com/anz-bank/page/23/,1105,ANZ Bank,VIC,South Melbourne,Banking Products ACT Phone,Level 7  75 Dorcas Street,012-928
https://www.thebsbnumbers.com/anz-bank/page/23/,1106,ANZ Bank,VIC,South Melbourne,Banking Products NSW Internet,Level 7  75 Dorcas Street,012-125
https://www.thebsbnumbers.com/anz-bank/page/23/,1107,ANZ Bank,VIC,South Melbourne,Banking Products NSW Phone,Level 7  75 Dorcas Street,012-028
https://www.thebsbnumbers.com/anz-bank/page/23/,1108,ANZ Bank,VIC,South Melbourne,Banking Products NT Internet,Level 7  75 Dorcas Street,015-925
https://www.thebsbnumbers.com/anz-bank/page/23/,1109,ANZ Bank,VIC,South Melbourne,Banking Products NT Phone,Level 7  75 Dorcas Street,015-928
https://www.thebsbnumbers.com/anz-bank/page/23/,1110,ANZ Bank,VIC,South Melbourne,Banking Products Qld Internet,Level 7  75 Dorcas Street,014-125
https://www.thebsbnumbers.com/anz-bank/page/23/,1111,ANZ Bank,VIC,South Melbourne,Banking Products Qld Phone,Level 7  75 Dorcas Street,014-028
https://www.thebsbnumbers.com/anz-bank/page/23/,1112,ANZ Bank,VIC,South Melbourne,Banking Products SA Phone,Level 7  75 Dorcas Street,015-028
https://www.thebsbnumbers.com/anz-bank/page/23/,1113,ANZ Bank,VIC,South Melbourne,Banking Products Tas Internet,Level 7  75 Dorcas Street,017-125
https://www.thebsbnumbers.com/anz-bank/page/23/,,,,,,,
https://www.thebsbnumbers.com/anz-bank/page/23/,1114,ANZ Bank,VIC,South Melbourne,Banking Products Tas Phone,Level 7  75 Dorcas Street,017-028
https://www.thebsbnumbers.com/anz-bank/page/23/,1115,ANZ Bank,VIC,South Melbourne,Banking Products Vic Internet,Level 7  75 Dorcas Street,013-125
https://www.thebsbnumbers.com/anz-bank/page/23/,1116,ANZ Bank,VIC,South Melbourne,Banking Products Vic Phone,Level 7  75 Dorcas Street,013-028
https://www.thebsbnumbers.com/anz-bank/page/23/,1117,ANZ Bank,VIC,South Melbourne,Banking Products WA Phone,Level 7  75 Dorcas Street,016-028
https://www.thebsbnumbers.com/anz-bank/page/23/,1118,ANZ Bank,VIC,South Melbourne,CF External Ops Processing,75 Docras Street,013-053
https://www.thebsbnumbers.com/anz-bank/page/23/,1119,ANZ Bank,VIC,South Melbourne,CONTACT CENTRE SALES,5/75 Dorcas St,013-147
https://www.thebsbnumbers.com/anz-bank/page/23/,1120,ANZ Bank,VIC,South Melbourne,Flow Tolling P/L,(NBFI Agency to 015-000),015-908
https://www.thebsbnumbers.com/anz-bank/page/23/,1121,ANZ Bank,VIC,South Melbourne,Mortgages Direct - ACT,Level 9/ 75 Dorcas St,012-897
https://www.thebsbnumbers.com/anz-bank/page/23/,1122,ANZ Bank,VIC,South Melbourne,Mortgages Direct - NSW,Level 9/ 75 Dorcas St,012-147
https://www.thebsbnumbers.com/anz-bank/page/23/,1123,ANZ Bank,VIC,South Melbourne,Mortgages Direct - NT,Level 9/ 75 Dorcas St,015-897
https://www.thebsbnumbers.com/anz-bank/page/23/,1124,ANZ Bank,VIC,South Melbourne,Mortgages Direct - QLD,Level 9/ 75 Dorcas St,014-147
https://www.thebsbnumbers.com/anz-bank/page/23/,1125,ANZ Bank,VIC,South Melbourne,Mortgages Direct - SA,Level 9/ 75 Dorcas St,015-147
https://www.thebsbnumbers.com/anz-bank/page/23/,1126,ANZ Bank,VIC,South Melbourne,Mortgages Direct - TAS,Level 9/ 75 Dorcas St,017-147
https://www.thebsbnumbers.com/anz-bank/page/23/,,,,,,,
https://www.thebsbnumbers.com/anz-bank/page/23/,1127,ANZ Bank,VIC,South Melbourne,Mortgages Direct - WA,Level 9/ 75 Dorcas St,016-147
https://www.thebsbnumbers.com/anz-bank/page/23/,1128,ANZ Bank,VIC,South Melbourne,Personal Loans ACT Internet,Level 9  75 Dorcas Street,012-926
https://www.thebsbnumbers.com/anz-bank/page/23/,1129,ANZ Bank,VIC,South Melbourne,Personal Loans NSW Internet,Level 9  75 Dorcas Street,012-126
https://www.thebsbnumbers.com/anz-bank/page/23/,1130,ANZ Bank,VIC,South Melbourne,Personal Loans NSW Phone,Level 9  75 Dorcas Street,012-127
https://www.thebsbnumbers.com/anz-bank/page/23/,1131,ANZ Bank,VIC,South Melbourne,Personal Loans NT Internet,Level 9  75 Dorcas Street,015-926
https://www.thebsbnumbers.com/anz-bank/page/23/,1132,ANZ Bank,VIC,South Melbourne,Personal Loans NT Phone,Level 9  75 Dorcas Street,015-927
https://www.thebsbnumbers.com/anz-bank/page/23/,1133,ANZ Bank,VIC,South Melbourne,Personal Loans Qld Internet,Level 9  75 Dorcas Street,014-126
https://www.thebsbnumbers.com/anz-bank/page/23/,1134,ANZ Bank,VIC,South Melbourne,Personal Loans Qld Phone,Level 9  75 Dorcas Street,014-127
https://www.thebsbnumbers.com/anz-bank/page/23/,1135,ANZ Bank,VIC,South Melbourne,Personal Loans SA Internet,Level 9  75 Dorcas Street,015-126
https://www.thebsbnumbers.com/anz-bank/page/23/,1136,ANZ Bank,VIC,South Melbourne,Personal Loans SA Phone,Level 9  75 Dorcas Street,015-127
https://www.thebsbnumbers.com/anz-bank/page/23/,1137,ANZ Bank,VIC,South Melbourne,Personal Loans Tas Internet,Level 9  75 Dorcas Street,017-126
https://www.thebsbnumbers.com/anz-bank/page/23/,,,,,,,
https://www.thebsbnumbers.com/anz-bank/page/23/,1138,ANZ Bank,VIC,South Melbourne,Personal Loans Tas Phone,Level 9  75 Dorcas Street,017-127
https://www.thebsbnumbers.com/anz-bank/page/23/,1139,ANZ Bank,VIC,South Melbourne,Personal Loans Vic Internet,Level 9  75 Dorcas Street,013-126
https://www.thebsbnumbers.com/anz-bank/page/23/,1140,ANZ Bank,VIC,South Melbourne,Personal Loans Vic Phone,Level 9  75 Dorcas Street,013-127
https://www.thebsbnumbers.com/anz-bank/page/23/,1141,ANZ Bank,VIC,South Melbourne,Personal Loans WA Internet,Level 9  75 Dorcas Street,016-126
https://www.thebsbnumbers.com/anz-bank/page/23/,1142,ANZ Bank,VIC,South Melbourne,Personal Loans WA Phone,Level 9  75 Dorcas Street,016-127
https://www.thebsbnumbers.com/anz-bank/page/23/,1143,ANZ Bank,VIC,South Melbourne,Priority,Level 5/75 Dorcas St,013-634
https://www.thebsbnumbers.com/anz-bank/page/23/,1144,ANZ Bank,VIC,South Melbourne,RDA Credit Fix (Mt Gravatt),Level 7  75 Dorcas Street,014-302
https://www.thebsbnumbers.com/anz-bank/page/23/,1145,ANZ Bank,VIC,South Melbourne,South Melbourne,307 Clarendon Street,013-435
https://www.thebsbnumbers.com/anz-bank/page/23/,1146,ANZ Bank,VIC,South Melbourne,Southern Cross Austereo Treasury,(NBFI Agency to 014-000),014-992
https://www.thebsbnumbers.com/anz-bank/page/23/,1147,ANZ Bank,VIC,South Melbourne,Wholesale Foreign Exchange,Level 9  75 Dorcas Street,013-002
https://www.thebsbnumbers.com/anz-bank/page/23/,1148,ANZ Bank,VIC,South Morang,Rivergum,Sh7Rivergum S/C Plenty Rd&Dvlpmt Bl,013-299
https://www.thebsbnumbers.com/anz-bank/page/23/,1149,ANZ Bank,VIC,South Yarra,South Yarra,145 Toorak Road,013-440
https://www.thebsbnumbers.com/anz-bank/page/23/,1150,ANZ Bank,VIC,Springvale,Springvale,286 Springvale Road,013-437
https://www.thebsbnumbers.com/anz-bank/page/24/,,,,,,,
https://www.thebsbnumbers.com/anz-bank/page/24/,1151,ANZ Bank,VIC,St Albans,St Albans,38 Alfrieda Street,013-422
https://www.thebsbnumbers.com/anz-bank/page/24/,1152,ANZ Bank,VIC,St Arnaud,St Arnaud,86 Napier Street,013-792
https://www.thebsbnumbers.com/anz-bank/page/24/,1153,ANZ Bank,VIC,St Kilda,St Kilda South,110 Acland Street,013-427
https://www.thebsbnumbers.com/anz-bank/page/24/,1154,ANZ Bank,VIC,Stawell,Stawell,149 Main Street,013-815
https://www.thebsbnumbers.com/anz-bank/page/24/,1155,ANZ Bank,VIC,Sunbury,Sunbury,69 Evans Street,013-822
https://www.thebsbnumbers.com/anz-bank/page/24/,1156,ANZ Bank,VIC,Sunshine,Sunshine,272 Hampshire Road,013-443
https://www.thebsbnumbers.com/anz-bank/page/24/,1157,ANZ Bank,VIC,Swan Hill,Swan Hill,164-168 Campbell Street,013-824
https://www.thebsbnumbers.com/anz-bank/page/24/,1158,ANZ Bank,VIC,Sydenham,Watergardens,Shop 29  Watergardens Shpg Centre,013-441
https://www.thebsbnumbers.com/anz-bank/page/24/,1159,ANZ Bank,VIC,Tarneit,Wyndham Village,Shop 45  380 Sayers Road,013-598
https://www.thebsbnumbers.com/anz-bank/page/24/,1160,ANZ Bank,VIC,Terang,Terang,91 High Street,013-835
https://www.thebsbnumbers.com/anz-bank/page/24/,1161,ANZ Bank,VIC,Toorak,Toorak,440 Toorak Road,013-445
https://www.thebsbnumbers.com/anz-bank/page/24/,1162,ANZ Bank,VIC,Torquay,Torquay,16 Gilbert Street,013-839
https://www.thebsbnumbers.com/anz-bank/page/24/,1163,ANZ Bank,VIC,Trafalgar,Trafalgar,67 Main Street,013-840
https://www.thebsbnumbers.com/anz-bank/page/24/,,,,,,,
https://www.thebsbnumbers.com/anz-bank/page/24/,1164,ANZ Bank,VIC,Traralgon,Traralgon,38 Franklin Street,013-845
https://www.thebsbnumbers.com/anz-bank/page/24/,1165,ANZ Bank,VIC,Upper Ferntree Gully,Upper Ferntree Gully,1228 Burwood Highway,013-457
https://www.thebsbnumbers.com/anz-bank/page/24/,1166,ANZ Bank,VIC,Wangaratta,Wangaratta,61 Reid Street,013-870
https://www.thebsbnumbers.com/anz-bank/page/24/,1167,ANZ Bank,VIC,Wantirna,Knox City Wantirna,2053/4 Burwood Highway,013-402
https://www.thebsbnumbers.com/anz-bank/page/24/,1168,ANZ Bank,VIC,Wantirna South,Closed,Refer to BSB 013-402 07/12,013-433
https://www.thebsbnumbers.com/anz-bank/page/24/,1169,ANZ Bank,VIC,Warracknabeal,Warracknabeal,47 Scott Street,013-875
https://www.thebsbnumbers.com/anz-bank/page/24/,1170,ANZ Bank,VIC,Warragul,Warragul,21-23 Palmerston Street,013-885
https://www.thebsbnumbers.com/anz-bank/page/24/,1171,ANZ Bank,VIC,Warrnambool,Warrnambool,128 Liebig st,013-900
https://www.thebsbnumbers.com/anz-bank/page/24/,1172,ANZ Bank,VIC,Waurn Ponds,Waurn Ponds,Shp 802  173-199 Pioneer Rd,013-644
https://www.thebsbnumbers.com/anz-bank/page/24/,1173,ANZ Bank,VIC,Wedderburn,Closed,Refer to BSB 013-792 03/12,013-905
https://www.thebsbnumbers.com/anz-bank/page/24/,1174,ANZ Bank,VIC,Wendouree,Wendouree,1233 Howitt Street,013-912
https://www.thebsbnumbers.com/anz-bank/page/24/,1175,ANZ Bank,VIC,Werribee,Werribee,26 Watton Street,013-915
https://www.thebsbnumbers.com/anz-bank/page/24/,1176,ANZ Bank,VIC,Williamstown,Williamstown,"Tenancy 1 & 2, 48-56 Douglas Pde",013-456
https://www.thebsbnumbers.com/anz-bank/page/24/,,,,,,,
https://www.thebsbnumbers.com/anz-bank/page/24/,1177,ANZ Bank,VIC,Wodonga,Closed,Refer to BSB 013-920 - (27/08/2011),013-830
https://www.thebsbnumbers.com/anz-bank/page/24/,1178,ANZ Bank,VIC,Wodonga,Wodonga,170 High Street,013-920
https://www.thebsbnumbers.com/anz-bank/page/24/,1179,ANZ Bank,VIC,Wonthaggi,Wonthaggi,157 Graham Street,013-923
https://www.thebsbnumbers.com/anz-bank/page/24/,1180,ANZ Bank,VIC,Wycheproof,Wycheproof,280 Broadway,013-925
https://www.thebsbnumbers.com/anz-bank/page/24/,1181,ANZ Bank,VIC,Yarram,Yarram,167 Commercial Road,013-935
https://www.thebsbnumbers.com/anz-bank/page/24/,1182,ANZ Bank,VIC,Yarrawonga,Yarrawonga,53 Belmore Street,013-945
https://www.thebsbnumbers.com/anz-bank/page/24/,1183,ANZ Bank,WA,Albany,Albany,23 Albany Highway,016-510
https://www.thebsbnumbers.com/anz-bank/page/24/,1184,ANZ Bank,WA,Albany,Chester Pass Rd Albany,Shp 1  160 Chester Pass Roads,016-007
https://www.thebsbnumbers.com/anz-bank/page/24/,1185,ANZ Bank,WA,Armadale,Armadale,Shop 4  193 Jull Street,016-253
https://www.thebsbnumbers.com/anz-bank/page/24/,1186,ANZ Bank,WA,Australind,Australind,Cnr Old Coast and Paris Roads,016-515
https://www.thebsbnumbers.com/anz-bank/page/24/,1187,ANZ Bank,WA,Balcatta,Brownes Foods Operations P/L,(NBFI Agency to 016-000),016-987
https://www.thebsbnumbers.com/anz-bank/page/24/,,,,,,,
https://www.thebsbnumbers.com/anz-bank/page/24/,1188,ANZ Bank,WA,Baldivis,Baldivis,Shp 1-2 Lot 26 Saftey Bay Road,016-010
https://www.thebsbnumbers.com/anz-bank/page/24/,1189,ANZ Bank,WA,Bassendean,Bassendean,Shp 7  Bassendean Sq Shpg Ctr,016-255
https://www.thebsbnumbers.com/anz-bank/page/24/,1190,ANZ Bank,WA,Beldon,Merged,Refer to BSB 016-494 09/14,016-261
https://www.thebsbnumbers.com/anz-bank/page/24/,1191,ANZ Bank,WA,Beverley,Beverley,126 Vincent Street,016-540
https://www.thebsbnumbers.com/anz-bank/page/24/,1192,ANZ Bank,WA,Booragoon,Booragoon,Suite 1  Riseley Ctr 135 Riseley St,016-267
https://www.thebsbnumbers.com/anz-bank/page/24/,1193,ANZ Bank,WA,Broome,Broome,13 Carnarvon St,016-554
https://www.thebsbnumbers.com/anz-bank/page/24/,1194,ANZ Bank,WA,Bull Creek,Bull Creek,Shop 37  Bull Creek Shopping Centre,016-268
https://www.thebsbnumbers.com/anz-bank/page/24/,1195,ANZ Bank,WA,Bull Creek,Merged,Refer to BSB 016-268 02/16,016-264
https://www.thebsbnumbers.com/anz-bank/page/24/,1196,ANZ Bank,WA,Bunbury,Bunbury,118 Victoria Street,016-560
https://www.thebsbnumbers.com/anz-bank/page/24/,1197,ANZ Bank,WA,Bunbury,WA Farmgate Corporate - CACHE,Ground  118 Victoria St,016-555
https://www.thebsbnumbers.com/anz-bank/page/24/,1198,ANZ Bank,WA,Bunbury,WA Farmgate Corporate - CAP,Ground  118 Victoria St,016-222
https://www.thebsbnumbers.com/anz-bank/page/24/,1199,ANZ Bank,WA,Busselton,Busselton,66 Queen Street,016-580
https://www.thebsbnumbers.com/anz-bank/page/24/,1200,ANZ Bank,WA,Butler,Brighton,Cnr Marmion Ave & Kingsbridge Blv,016-265
https://www.thebsbnumbers.com/anz-bank/page/25/,,,,,,,
https://www.thebsbnumbers.com/anz-bank/page/25/,1201,ANZ Bank,WA,Canning Vale,Closed,Refer to BSB 016-318 - 10/07,016-313
https://www.thebsbnumbers.com/anz-bank/page/25/,1202,ANZ Bank,WA,Canning Vale,Livingston,Cnr Ranford & Nicholson Road,016-318
https://www.thebsbnumbers.com/anz-bank/page/25/,1203,ANZ Bank,WA,Cannington,Cannington,1336 Albany Highway,016-270
https://www.thebsbnumbers.com/anz-bank/page/25/,1204,ANZ Bank,WA,Carnarvon,Carnarvon,16 Robinson Street,016-610
https://www.thebsbnumbers.com/anz-bank/page/25/,1205,ANZ Bank,WA,Claremont,Claremont,32 St Quentins Avenue,016-281
https://www.thebsbnumbers.com/anz-bank/page/25/,1206,ANZ Bank,WA,Clarkson,Clarkson,1/23 Ocean Keys Boulevard,016-246
https://www.thebsbnumbers.com/anz-bank/page/25/,1207,ANZ Bank,WA,Clarkson,Clarkson,5/70 Pensacola Terrace,016-930
https://www.thebsbnumbers.com/anz-bank/page/25/,1208,ANZ Bank,WA,Cloverdale,Cloverdale,Cnr Wright Street & Belmont Avenue,016-286
https://www.thebsbnumbers.com/anz-bank/page/25/,1209,ANZ Bank,WA,Derby,Derby,Loch Street,016-620
https://www.thebsbnumbers.com/anz-bank/page/25/,1210,ANZ Bank,WA,Dunsborough,Dunsborough,Shp 2  234 Naturaliste Terrace,016-251
https://www.thebsbnumbers.com/anz-bank/page/25/,1211,ANZ Bank,WA,East Perth,TPC Business Bank Support,Level 1  118 Bennett Street,016-052
https://www.thebsbnumbers.com/anz-bank/page/25/,1212,ANZ Bank,WA,East Perth,TPC Trans Processing Support,Level 1  118 Bennett Street,016-070
https://www.thebsbnumbers.com/anz-bank/page/25/,1213,ANZ Bank,WA,East Perth,Transaction Processing Centre,118 Bennett Street,016-061
https://www.thebsbnumbers.com/anz-bank/page/25/,,,,,,,
https://www.thebsbnumbers.com/anz-bank/page/25/,1214,ANZ Bank,WA,East Perth,Transaction Processing Support,118 Bennett Street,016-105
https://www.thebsbnumbers.com/anz-bank/page/25/,1215,ANZ Bank,WA,East Perth,Voucher Processing Srvcs WA,1/118 Bennett Street,016-005
https://www.thebsbnumbers.com/anz-bank/page/25/,1216,ANZ Bank,WA,East Victoria Park,East Victoria Park,786 Albany Highway,016-263
https://www.thebsbnumbers.com/anz-bank/page/25/,1217,ANZ Bank,WA,Ellenbrook,Ellenbrook,Cnr Pinaster Pde - The Promenade,016-352
https://www.thebsbnumbers.com/anz-bank/page/25/,1218,ANZ Bank,WA,Esperance,Esperance,Cnr Andrew & Dempster Sts,016-628
https://www.thebsbnumbers.com/anz-bank/page/25/,1219,ANZ Bank,WA,Falcon,Falcon,Shops T13  14  15 Miami Village SC,016-205
https://www.thebsbnumbers.com/anz-bank/page/25/,1220,ANZ Bank,WA,Floreat,Floreat,95 The Boulevard,016-305
https://www.thebsbnumbers.com/anz-bank/page/25/,1221,ANZ Bank,WA,Fremantle,Fremantle Branch,5 Queen Street,016-307
https://www.thebsbnumbers.com/anz-bank/page/25/,1222,ANZ Bank,WA,Geraldton,Geraldton,8 Chapman Road,016-650
https://www.thebsbnumbers.com/anz-bank/page/25/,1223,ANZ Bank,WA,Gnowangerup,Gnowangerup,38 Yougenup Street,016-660
https://www.thebsbnumbers.com/anz-bank/page/25/,1224,ANZ Bank,WA,Gosnells,Merged,Refer to BSB 016-358 08/14,016-323
https://www.thebsbnumbers.com/anz-bank/page/25/,1225,ANZ Bank,WA,Hillarys,Whitford City,Shop 68  Whitford City Shpg Ctr,016-494
https://www.thebsbnumbers.com/anz-bank/page/25/,1226,ANZ Bank,WA,Innaloo,Innaloo,Innaloo Plz Scarborough Beach Road,016-334
https://www.thebsbnumbers.com/anz-bank/page/25/,,,,,,,
https://www.thebsbnumbers.com/anz-bank/page/25/,1227,ANZ Bank,WA,Joondalup,Joondalup,Cnr Grand Bvde & Reid Promenade,016-338
https://www.thebsbnumbers.com/anz-bank/page/25/,1228,ANZ Bank,WA,Kalamunda,Kalamunda,11 Canning Road,016-341
https://www.thebsbnumbers.com/anz-bank/page/25/,1229,ANZ Bank,WA,Kalgoorlie,Kalgoorlie,189 Hannan Street,016-710
https://www.thebsbnumbers.com/anz-bank/page/25/,1230,ANZ Bank,WA,Kambalda,Kambalda,Bluebush Road,016-719
https://www.thebsbnumbers.com/anz-bank/page/25/,1231,ANZ Bank,WA,Kardinya,Kardinya Park,Cnr South Street & North Lake Road,016-008
https://www.thebsbnumbers.com/anz-bank/page/25/,1232,ANZ Bank,WA,Karratha,Karratha,Hedland Place,016-725
https://www.thebsbnumbers.com/anz-bank/page/25/,1233,ANZ Bank,WA,Karrinyup,Karrinyup,Shps 1- 2  Karrinyup Shpg Ctr,016-350
https://www.thebsbnumbers.com/anz-bank/page/25/,1234,ANZ Bank,WA,Katanning,Katanning,138 Clive Street,016-730
https://www.thebsbnumbers.com/anz-bank/page/25/,1235,ANZ Bank,WA,Maddington,Maddington,Shop 82  Maddington Shopping Ctr,016-358
https://www.thebsbnumbers.com/anz-bank/page/25/,1236,ANZ Bank,WA,Madeley,Kingsway,Cnr Wanneroo Road & Hepburn Avenue,016-006
https://www.thebsbnumbers.com/anz-bank/page/25/,1237,ANZ Bank,WA,Malaga,Malaga,Cnr Alexander Dve & Beach Road,016-353
https://www.thebsbnumbers.com/anz-bank/page/25/,,,,,,,
https://www.thebsbnumbers.com/anz-bank/page/25/,1238,ANZ Bank,WA,Mandurah,Mandurah,2/17 Sholl Street,016-745
https://www.thebsbnumbers.com/anz-bank/page/25/,1239,ANZ Bank,WA,Mandurah,Mandurah,Cnr Dower Street & Pinjara Road,016-742
https://www.thebsbnumbers.com/anz-bank/page/25/,1240,ANZ Bank,WA,Margaret River,Margaret River,149 Bussell Highway,016-520
https://www.thebsbnumbers.com/anz-bank/page/25/,1241,ANZ Bank,WA,Melville,Melville,10 Melville Plaza 390 Canning Hwy,016-376
https://www.thebsbnumbers.com/anz-bank/page/25/,1242,ANZ Bank,WA,Midland,Midland,43 The Crescent,016-359
https://www.thebsbnumbers.com/anz-bank/page/25/,1243,ANZ Bank,WA,Moora,Moora,Gardiner Street,016-760
https://www.thebsbnumbers.com/anz-bank/page/25/,1244,ANZ Bank,WA,Morley,Morley,8 Old Collier Road,016-363
https://www.thebsbnumbers.com/anz-bank/page/25/,1245,ANZ Bank,WA,Mount Lawley,Merged,Refer to BSB 016-370 02/16,016-416
https://www.thebsbnumbers.com/anz-bank/page/25/,1246,ANZ Bank,WA,Mount Lawley,Mount Lawley,"682 Beaufort St, Mt Lawley WA 6050",016-370
https://www.thebsbnumbers.com/anz-bank/page/25/,1247,ANZ Bank,WA,Myaree,Myaree,Melville Central  Marshall Road,016-314
https://www.thebsbnumbers.com/anz-bank/page/25/,1248,ANZ Bank,WA,Narrogin,Narrogin,104 Federal Street,016-770
https://www.thebsbnumbers.com/anz-bank/page/25/,1249,ANZ Bank,WA,Nedlands,Nedlands,31 Broadway,016-484
https://www.thebsbnumbers.com/anz-bank/page/25/,1250,ANZ Bank,WA,Newman,Newman,Hilditch Avenue,016-765
https://www.thebsbnumbers.com/anz-bank/page/26/,,,,,,,
https://www.thebsbnumbers.com/anz-bank/page/26/,1251,ANZ Bank,WA,Norseman,Norseman,81 Roberts Street,016-773
https://www.thebsbnumbers.com/anz-bank/page/26/,1252,ANZ Bank,WA,Northam,Northam,171 Fitzgerald Street,016-780
https://www.thebsbnumbers.com/anz-bank/page/26/,1253,ANZ Bank,WA,Northbridge,Northbridge,102 James Street,016-185
https://www.thebsbnumbers.com/anz-bank/page/26/,1254,ANZ Bank,WA,Osborne Park,Osborne Park,15 Hutton Street,016-412
https://www.thebsbnumbers.com/anz-bank/page/26/,1255,ANZ Bank,WA,Perth,220 St Georges Terrace,220 St Geroges Tce,016-112
https://www.thebsbnumbers.com/anz-bank/page/26/,1256,ANZ Bank,WA,Perth,797 Hay Street,Shops G1-G3  797 Hay Street,016-266
https://www.thebsbnumbers.com/anz-bank/page/26/,1257,ANZ Bank,WA,Perth,Alinta Sales Pty Ltd,(NBFI Agency to 012-000),012-988
https://www.thebsbnumbers.com/anz-bank/page/26/,1258,ANZ Bank,WA,Perth,ANZ Direct Control,1/297 Murray Street,016-146
https://www.thebsbnumbers.com/anz-bank/page/26/,1259,ANZ Bank,WA,Perth,ANZ Funds Management,41-43 St Georges Tce,016-013
https://www.thebsbnumbers.com/anz-bank/page/26/,1260,ANZ Bank,WA,Perth,ANZ Leasing (Esanda),5/263 Adelaide Terrace,016-138
https://www.thebsbnumbers.com/anz-bank/page/26/,1261,ANZ Bank,WA,Perth,ANZ Private Bank,10/77 St Georges Terrace,016-606
https://www.thebsbnumbers.com/anz-bank/page/26/,1262,ANZ Bank,WA,Perth,Bus Bank Commercial Real Estate,6/263 Adelaide Terrace,016-808
https://www.thebsbnumbers.com/anz-bank/page/26/,1263,ANZ Bank,WA,Perth,Bus Bank WA Region,7/77 St Georges Terrace,016-043
https://www.thebsbnumbers.com/anz-bank/page/26/,,,,,,,
https://www.thebsbnumbers.com/anz-bank/page/26/,1264,ANZ Bank,WA,Perth,Corp Mment Pfolio WA,9/77 St Georges Terrace,016-093
https://www.thebsbnumbers.com/anz-bank/page/26/,1265,ANZ Bank,WA,Perth,Esanda,77 St Georges Terrace,016-103
https://www.thebsbnumbers.com/anz-bank/page/26/,1266,ANZ Bank,WA,Perth,Esanda Finance,Level 12  77 St Georges Terrace,016-009
https://www.thebsbnumbers.com/anz-bank/page/26/,1267,ANZ Bank,WA,Perth,FCA WA Region,263 Adelaide Terrace,016-196
https://www.thebsbnumbers.com/anz-bank/page/26/,1268,ANZ Bank,WA,Perth,Group Credit Management,7/77 St George's Terrace,016-114
https://www.thebsbnumbers.com/anz-bank/page/26/,1269,ANZ Bank,WA,Perth,International Services,6/77 St George's Terrace,016-019
https://www.thebsbnumbers.com/anz-bank/page/26/,1270,ANZ Bank,WA,Perth,Lending Services-Commercial,9/Exchange Plaza,016-753
https://www.thebsbnumbers.com/anz-bank/page/26/,1271,ANZ Bank,WA,Perth,Markets Division,6/77 St Georges Terrace,016-033
https://www.thebsbnumbers.com/anz-bank/page/26/,1272,ANZ Bank,WA,Perth,Natural Resources WA,7/77 St Georges Terrace,016-568
https://www.thebsbnumbers.com/anz-bank/page/26/,1273,ANZ Bank,WA,Perth,Originator Service Unit No 2,1/297 Murray Street,016-074
https://www.thebsbnumbers.com/anz-bank/page/26/,1274,ANZ Bank,WA,Perth,Perth,Bunnings Limited,016-986
https://www.thebsbnumbers.com/anz-bank/page/26/,1275,ANZ Bank,WA,Perth,Perth (237 Murray),237 Murray Street,016-080
https://www.thebsbnumbers.com/anz-bank/page/26/,1276,ANZ Bank,WA,Perth,Perth (77 St Georges),77 St George's Terrace,016-002
https://www.thebsbnumbers.com/anz-bank/page/26/,,,,,,,
https://www.thebsbnumbers.com/anz-bank/page/26/,1277,ANZ Bank,WA,Perth,Perth (8 St George),8 St George's Terrace,016-104
https://www.thebsbnumbers.com/anz-bank/page/26/,1278,ANZ Bank,WA,Perth,Perth (Town Hall 608 Hay),608 Hay Street,016-120
https://www.thebsbnumbers.com/anz-bank/page/26/,1279,ANZ Bank,WA,Perth,State Securties Centre,9 Exchange Plaza Court,016-073
https://www.thebsbnumbers.com/anz-bank/page/26/,1280,ANZ Bank,WA,Perth,WA Zone,Fl9  77 St George's Terrace,016-004
https://www.thebsbnumbers.com/anz-bank/page/26/,1281,ANZ Bank,WA,Port Hedland,Port Hedland,Wedge Street,016-790
https://www.thebsbnumbers.com/anz-bank/page/26/,1282,ANZ Bank,WA,Redcliffe,Coventry Group Ltd,(NBFI Agency to 016-000),016-985
https://www.thebsbnumbers.com/anz-bank/page/26/,1283,ANZ Bank,WA,Rockingham,Rockingham,Shp 66  Rockingham City Shpg Ctr,016-441
https://www.thebsbnumbers.com/anz-bank/page/26/,1284,ANZ Bank,WA,Rockingham,Rockingham Beach,The Boardwalk  10/7 Railway Terrace,016-440
https://www.thebsbnumbers.com/anz-bank/page/26/,1285,ANZ Bank,WA,South Perth,South Perth,80 Angelo Street,016-452
https://www.thebsbnumbers.com/anz-bank/page/26/,1286,ANZ Bank,WA,Southern Cross,Southern Cross,13A Antares Street,016-798
https://www.thebsbnumbers.com/anz-bank/page/26/,1287,ANZ Bank,WA,Spearwood,Spearwood,Phoenix Ctr  254 Rockingham Road,016-454
https://www.thebsbnumbers.com/anz-bank/page/26/,,,,,,,
https://www.thebsbnumbers.com/anz-bank/page/26/,1288,ANZ Bank,WA,Subiaco,Merged,merging with 016-460,016-355
https://www.thebsbnumbers.com/anz-bank/page/26/,1289,ANZ Bank,WA,Subiaco,Subiaco,464 Hay Street,016-460
https://www.thebsbnumbers.com/anz-bank/page/26/,1290,ANZ Bank,WA,Success,Success,Shop 127  816 Beeliar Drive,016-016
https://www.thebsbnumbers.com/anz-bank/page/26/,1291,ANZ Bank,WA,Tuart Hill,Tuart Hill,Flinders Sq Shpg Ctr  Flinders St,016-464
https://www.thebsbnumbers.com/anz-bank/page/26/,1292,ANZ Bank,WA,Wanneroo,Wanneroo,Cnr Hastings & Wanneroo Road,016-249
https://www.thebsbnumbers.com/anz-bank/page/26/,1293,ANZ Bank,WA,Warnbro,Warnbro Fair,203 Warnbro Sound Avenue,016-375
https://www.thebsbnumbers.com/anz-bank/page/26/,1294,ANZ Bank,WA,Warwick,Warwick,Shp 16D Warwick Grove Shpg Ctr,016-495
https://www.thebsbnumbers.com/anz-bank/page/26/,1295,ANZ Bank,WA,Welshpool,COVS Parts Pty Ltd,(NBFI Agency to 016-000),016-996
https://www.thebsbnumbers.com/anz-bank/page/26/,1296,ANZ Bank,WA,West Perth,West Perth,Cnr Hay and Outram Streets,016-498
https://www.thebsbnumbers.com/anz-bank/page/26/,1297,ANZ Bank,WA,Willetton,Willetton,141 High Road,016-499
https://www.thebsbnumbers.com/anz-bank/page/26/,1298,ANZ Bank,WA,Wongan Hills,Wongan Hills,26 Fenton Street,016-820
https://www.thebsbnumbers.com/anz-bank/page/26/,1299,ANZ Bank,WA,Woodvale,Closed,Refer to BSB 016-494 05/12,016-485
